business,license,email,phone,city,zip,county,license_type,trade_name
AAA PROCESSING LLC ,PAAA-7MU6-ZGRF,CORTEZCOLEMAN@ICLOUD.COM,5803996215,ADA,74820,PONTOTOC,processor, AAA PROCESSING LLC
ALL NATURAL SOLUTIONS LLC ,PAAA-SBDR-JD2T,ALLNATURALADA@ATT.NET,5802724041,ADA,74820,PONTOTOC,processor, ALL NATURAL
BDR SOLUTIONS LLC ,PAAA-4Y3H-CPRI,BELINDASLAKEPARADISE@GMAIL.COM,5803202301,ADA,74820,PONTOTOC,processor, BDR SOLUTIONS
BIG POPPA'S LLC ,PAAA-NYLS-DU8H,BIGPOPPASLLC@YAHOO.COM,5804212323,ADA,74820,PONTOTOC,processor, BIG POPPA'S LLC
BOGGY CREEK FARMS ,PAAA-VWNV-RB5K,RUSSLOLLAR@GMAIL.COM,5803990636,ADA,74820,PONTOTOC,processor, BOGGY CREEK FARMS
DALLAS SKYLINE CORPORATION ,PAAA-4JBM-UBWU,QUORUM@VESLOILS.COM,4697048234,ADA,74820,PONTOTOC,processor, DANK OF AMERICA
EL DIABLO'S LETTUCE INCORPORATED ,PAAA-EKA8-9IW7,MIKEB69691987@GMAIL.COM,5803200759,ADA,74820,PONTOTOC,processor,
"EXTRA TERRITORY LABS, LLC ",PAAA-EJLA-GEVD,ASINGER@DERRYBERRYLAW.COM,4055286569,ADA,74820,PONTOTOC,processor,
"HG VENTURES, L.L.C. ",PAAA-VJU8-YPS7,HGVENTURESLLC@GMAIL.COM,5803990441,ADA,74820,PONTOTOC,processor, PROGRESSIVE GROW LABS
KIND ORIGIN CANNABIS LLC ,PAAA-4KUF-ZP8D,CAMRONOWENS9@GMAIL.COM,5802790790,ADA,74820,PONTOTOC,processor,
LEGACY LABORATORIES LLC ,PAAA-1L4U-DHQX,LEGACYLABS20@GMAIL.COM,4057120317,ADA,74820,PONTOTOC,processor,
MYSTIK FARMS LLC ,PAAA-VJ7N-P1YV,ARYDANIA@COMCAST.NET,5806659024,ADA,74820,PONTOTOC,processor, MYSTIK FARMS
"PONTOTOC CANNABIS, LLC ",PAAA-4118-3TM8,SHANE.CRISTELLI@GMAIL.COM,5806655077,ADA,74820,PONTOTOC,processor, PONTOTOC EXTRACTS
"MEDIREC OKLAHOMA, LLC ",PAAA-NYFD-3MUV,MATT@STACYLEGALGROUP.COM,4058167228,BLANCHARD,73010,GRADY,processor," MEDIREC OKLAHOMA, LLC"
MY LIEN GREEN LLC ,PAAA-VDFC-WGX5,MATT@STACYLEGALGROUP.COM,4058167228,BLANCHARD,73010,GRADY,processor,
NTP BROS LLC ,PAAA-RBZL-B5OG,MATT@STACYLEGALGROUP.COM,4057353800,BLANCHARD,73010,GRADY,processor, NTP BROS LLC
OKLAHOMA GREEN LLC ,PAAA-NJSH-GRSI,BRYCE@BINYONLS.COM,4057602706,BLANCHARD,73010,MCCLAIN,processor, OKLAHOMA GREEN LLC
OUTASIGHT PRODUCTS LLC ,PAAA-CFOW-SC0T,TRENTRH@YAHOO.COM,4056131012,BLANCHARD,73010,MCCLAIN,processor, OUTASIGHT PRODUCTS
PACBOY FARMS LLC ,PAAA-KQV8-K5QR,MATT@STACYLEGALGROUP.COM,4058167228,BLANCHARD,73010,OKLAHOMA,processor, PACBOY FARMS LLC
PSYCH LLC ,PAAA-Z2TN-OCPR,SKYLER@MARIHAHA.COM,4695161916,BLANCHARD,73010,MCCLAIN,processor, PSYCH EXTRACTS
QUALITY CANNABIS DBA PHI ORGANICS ,PAAA-4JOB-PJE1,QUALITYCANNABISINC@GMAIL.COM,4056598839,BLANCHARD,73010,GRADY,processor, PHI ORGANICS
QUN LIN GREEN LLC ,PAAA-PGCS-FGGB,MATT@STACYLEGALGROUP.COM,4058167228,BLANCHARD,73010,GRADY,processor,
REDWOOD CAPITAL HOLDINGS LLC ,PAAA-KX5O-6DSI,MATT@STACYLEGALGROUP.COM,4058167532,BLANCHARD,73010,GRADY,processor,
SASSY GRASS PROCESSORS LLC ,PAAA-KOGO-QZJZ,SASSYGRASSGROWERS@GMAIL.COM,4056646696,BLANCHARD,73010,GRADY,processor, SASSY GRASS PROCESSORS
"SCREEN OF GREEN FARMS, LLC ",PAAA-0YCD-0QEQ,GREG@SCROGFARMS.COM,4059909830,BLANCHARD,73010,GRADY,processor,
STASH HOLDINGS LLC ,PAAA-KUEW-X74F,MATT@STACYLEGALGROUP.COM,4058167532,BLANCHARD,73010,GRADY,processor,
SUNNYVALE RV PARK LLP ,PAAA-VJUC-WGSH,RHARMON@PLDI.NET,4057602601,BLANCHARD,73010,MCCLAIN,processor, SUNNYVALE FARMS
"T HUMBLE, INC. ",PAAA-VZUL-HUUA,JDC707@GMAIL.COM,7073827805,BLANCHARD,73010,MCCLAIN,processor," T HUMBLE, INC."
"TGIC OKLAHOMA, LLC ",PAAA-4Y2E-UYWE,MATT@STACYLEGALGROUP.COM,4058167228,BLANCHARD,73010,GRADY,processor,
VETAE HOLDINGS LLC ,PAAA-N1ZV-C3UW,FRANTZ@VETAELIVING.COM,4056029694,BLANCHARD,73010,GRADY,processor, VIVACITY EXTRACTION
VTH ELEMENT EXTRACTS AND CONSULTATION ,PAAA-EYEO-JLSV,VTHELEMENTEXTRACTS@GMAIL.COM,4053202099,BLANCHARD,73010,GRADY,processor, VTH ELEMENT EXTRACTS AND CONSULTATION
"WENG GREEN, LLC ",PAAA-N1J9-LWJ8,MATT@STACYLEGALGROUP.COM,4058167228,BLANCHARD,73010,GRADY,processor,
"WENWU GREEN, LLC ",PAAA-VKS2-QUYU,MATT@STACYLEGALGROUP.COM,4058167228,BLANCHARD,73010,GRADY,processor,
YAN MEI GREEN LLC ,PAAA-EY78-EAOW,MATT@STACYLEGALGROUP.COM,4058167228,BLANCHARD,73010,GRADY,processor,
"YANJUN GREEN, LLC ",PAAA-4JMK-YYSU,MATT@STACYLEGALGROUP.COM,4058167228,BLANCHARD,73010,GRADY,processor,
"YANXI GREEN, LLC ",PAAA-VYKN-IPIU,MATT@STACYLEGALGROUP.COM,4058167228,BLANCHARD,73010,GRADY,processor,
YELLOW DOG HOLDINGS LLC ,PAAA-OYJ9-AZLV,MATT@STACYLEGALGROUP.COM,4057353800,BLANCHARD,73010,GRADY,processor, YELLOW DOG HOLDINGS LLC
ZHU GREEN LLC ,PAAA-IIIV-SLLR,MATT@STACYLEGALGROUP.COM,4058167228,BLANCHARD,73010,GRADY,processor, ZHU GREEN LLC
26 MOYERS FARM GROUP LLC ,PAAA-M29U-KCTU,MATT@STACYLEGALGROUP.COM,4058167532,BLANCHARD,73010,GRADY,processor,
179 SOUTH 122ND HOLDINGS LLC ,PAAA-FQQB-FQPE,MATT@STACYLEGALGROUP.COM,4058167532,BLANCHARD,73010,GRADY,processor,
15249 SOUTH 76TH HOLDINGS LLC ,PAAA-H1RY-JK5J,MATT@STACYLEGALGROUP.COM,4058167532,BLANCHARD,73010,GRADY,processor,
"FRITZ FUSION'S, LLC ",PAAA-NKZO-G3W8,FRITZMMLLC@GMAIL.COM,9183814246,BLUEJACKET,74333,CRAIG,processor," FRITZ FUSION'S, LLC"
"BLUE BURROS FARMS, LLC ",PAAA-SB08-S0WO,LOSAWYERMIKE624@YAHOO.COM,4697587791,BOKCHITO,74726,BRYAN,processor," BLUE BURROS FARMS, LLC"
K-RAD'S PROCESSING ,PAAA-JBQO-KM0M,KRADSCANNABIS@GMAIL.COM,5807757865,BOKCHITO,74726,BRYAN,processor, K-RAD'S CANNABIS
TEXOMA HOME GROWN FARMS INC ,PAAA-LIYN-ZMMP,TEXOMAHOMEGROWNFARMSINC@GMAIL.COM,5809242586,BOKCHITO,74726,BRYAN,processor, TEXOMA HOME GROWN FARMS INC
WEEDMEN XTRACTS ,PAAA-LTH8-IJZ1,DUSTINA4364@GMAIL.COM,5807754364,BOKCHITO,74726,BRYAN,processor, DUSTIN ANGELLO
DREAMCATCHER MEDICAL LLC ,PAAA-VJBS-GTKW,DREAMCATCHERMEDICALLLC@GMAIL.COM,9187586746,BOYNTON,74422,OKMULGEE,processor, DREAMCATCHER MEDICAL LLC
OUCHIE EDIBLES LLC ,PAAA-BWN1-MKNR,OUCHIEEDIBLESLLC@GMAIL.COM,9183617806,BOYNTON,74422,MUSKOGEE,processor,
"KNUCKLE RUB, LLC ",PAAA-EY4X-M8WY,KNUCKLERUB420@GMAIL.COM,4057404173,BRAGGS,74423,MUSKOGEE,processor, ANGIE'S KNUCKLE RUB
MICHAEL SHAWN BEAVERS ,PAAA-4KUS-Y6YB,JOJOOBEAVER2468@GMAIL.COM,5306165204,BRAGGS,74423,MUSKOGEE,processor,
"BENDE GREEN, LLC ",PAAA-41H8-WY8D,MATT@STACYLEGALGROUP.COM,4058167228,BRISTOW,74010,CREEK,processor,
DELTA918 LABS LLC ,PAAA-41UW-SFTE,DELTA918LABS@GMAIL.COM,9186193484,BRISTOW,74010,CREEK,processor, DELTA918 LABS
"FULLSPECX, LLC ",PAAA-TITO-OZXB,TSCAGGS@FULLSPECX.COM,4056231606,BRISTOW,74010,CREEK,processor," FULLSPECX, LLC"
GREEN WALL STREET LLC ,PAAA-EJMV-ZH9V,ARIANAMOMMY715@GMAIL.COM,9189984476,BRISTOW,74010,CREEK,processor, OKLAHOMA MEDICINE GIRLS
HILL FAMILY INVESTMENTS INC ,PAAA-JCXN-RDMY,HILLFAMILYINVESTMENTS@GMAIL.COM,6202101080,BRISTOW,74010,CREEK,processor, HILL FAMILY INVESTMENTS
MZC INC ,PAAA-LFJY-5QUM,27PUREFIRESALES@GMAIL.COM,9102693337,BRISTOW,74010,CREEK,processor, MZC INC
"OUTLAND AGRICULTURE PROCESSING COMPANY, LLC ",PAAA-4JDS-U5YW,TGG5765@HOTMAIL.COM,9187598075,BRISTOW,74010,CREEK,processor, OUTLAND AG PROCESSING
"4-C'S PROCESSING, LLC ",PAAA-V1SQ-EV3Q,MCZCASH@GMAIL.COM,9186255653,BROKEN ARROW,74012,TULSA,processor,
918EXTRACTSLLC ,PAAA-HSJA-A0XT,918EXTRACTSLLC@GMAIL.COM,9188147511,BROKEN ARROW,74012,TULSA,processor, 918EXTRACTSLLC
"BAKE BAKE, INC. ",PAAA-7AOD-QRB5,MMANNING@ETHODIGM.COM,9186361466,BROKEN ARROW,74012,TULSA,processor,
"BIG RED DOG UNLIMITED, LLC ",PAAA-EYHW-G5LN,CLIFFOSTROM@YAHOO.COM,9187706100,BROKEN ARROW,74012,TULSA,processor, ALL ABOUT CANNABIS
"CSCIV, LLC ",PAAA-VYDL-C3LS,NSBUNT@GMAIL.COM,9182710032,BROKEN ARROW,74011,TULSA,processor, 24K LABS
ELLMOH LLC ,PAAA-E14B-6BQ1,ELLIOTTPOSTON@GMAIL.COM,9185102031,BROKEN ARROW,74012,TULSA,processor, THRIVE OKLAHOMA
"EVO DISTRIBUTION COMPANY, LLC ",PAAA-VJME-7GGA,TIK@EVOLUTIONONLINE.COM,9182075436,BROKEN ARROW,74012,TULSA,processor,
HELIX EXTRACT LLC ,PAAA-VYCL-RKVM,HELIX.EXTRACTS@GMAIL.COM,7602131709,BROKEN ARROW,74012,TULSA,processor, HELIX EXTRACT
J & JS PROCESSING LLC ,PAAA-CG4J-O5WO,JSTARKS601@GMAIL.COM,9189339526,BROKEN ARROW,74012,TULSA,processor, J & JS PROCESSING LLC
"J&E CAPITAL & MANAGEMENT, LLC ",PAAA-41OY-S4PN,GUERRA954@GMAIL.COM,9543959530,BROKEN ARROW,74012,TULSA,processor,
MED PHARM INC ,PAAA-UHK4-IMPC,DENIMINK@AOL.COM,9182847875,BROKEN ARROW,74014,WAGONER,processor, MED PHARM
"OKMC, LLC ",PAAA-4YVQ-KVDV,JOSEPHDHALL2017@GMAIL.COM,9189357866,BROKEN ARROW,74012,TULSA,processor, OKMC
"PURAVERDE, LLC ",PAAA-EJA1-IQ18,RYAN@BUFFALOROZE.COM,4796533452,BROKEN ARROW,74014,TULSA,processor," PURAVERDE, LLA"
"SAINT JANE CANNABIS CLUB, LLC ",PAAA-41GK-TLMQ,CSEHVOLERE@GMAIL.COM,9182325954,BROKEN ARROW,74012,TULSA,processor, SAINT JANE CANNABIS CLUB
"113 MANAGEMENT, LLC ",PAAA-EKOS-AVUU,DAVEDARC@GMAIL.COM,9184084420,BROKEN ARROW,74012,TULSA,processor, KIND SUPPLY
"EVOLUTION XTRACTS, LLC ",PAAA-AYSL-RE0Y,EVOLUTIONXTRACTS@GMAIL.COM,5802126020,BROKEN BOW,74728,MCCURTAIN,processor,
"INVITA OPTIMUM, LLC ",PAAA-4KXY-OHBV,JERRYCAUGHMAN@GMAIL.COM,4057575133,BROKEN BOW,74728,MCCURTAIN,processor,
JANETTA DODSON ENTERPRISES LLC ,PAAA-4YJM-FHGG,JANETTADODSON@YAHOO.COM,5802366737,BROKEN BOW,74728,MCCURTAIN,processor, LIGHT 'EM UP
KIAMICHI COLLECTIVE EXTRACTIONS LLC ,PAAA-N1ZN-TN4K,MJCAUDLE2200@GMAIL.COM,5803062963,BROKEN BOW,74728,MCCURTAIN,processor,
REDSEAL MED FARMS LLC ,PAAA-VJNL-QA17,COMPTONSRENTALS@GMAIL.COM,5802360968,BROKEN BOW,74728,MCCURTAIN,processor,
ROBOT PHARMER LLC ,PAAA-4YLD-WYYD,JOSHWHEAT@ROBOTPHARMER.COM,8172711339,BROKEN BOW,74728,MCCURTAIN,processor, ROBOT PHARMER LLC
"THE MEDICAL JOINT DISPENSARY, LLC ",PAAA-XSY1-ZROU,MEDICALJOINT@YAHOO.COM,5802122434,BROKEN BOW,74728,MCCURTAIN,processor,
INTEGRATED CREATIVE INVESTMENTS ,PAAA-4Y6V-SKND,RANDRDISPENSARY@GMAIL.COM,6786289157,BURBANK,74633,OSAGE,processor, R & R
JIMTOWN REFINEMENTS LLC ,PAAA-VTNM-7DWE,JIMTOWNREFINEMENTLLC@GMAIL.COM,5805041870,BURNEYVILLE,73430,LOVE,processor, JIMTOWN REFINEMENTS LLC
VALHALLA LABS LLC ,PAAA-NJ5O-3SDB,OWNER@NACOKLAHOMA.COM,8064705674,BYARS,74831,GARVIN,processor,
"BLUE BEAVER FARM, LLC ",PAAA-N1PO-OVFN,BLUEBEAVERFARM@HOTMAIL.COM,5806788876,CACHE,73527,COMANCHE,processor,
"DEER RUN HOLDINGS, LLC ",PAAA-E1QM-TVYZ,VIVIAN.PHILHOWER@GMAIL.COM,2146626676,CADDO,74729,BRYAN,processor,
J&A SUPPLY COMPANY LLC ,PAAA-NYZC-32JQ,JOHN@JASUPPLY.US,5807403606,CADDO,74729,BRYAN,processor, BUFFALO HEAD CANNABIS
RED RIVER REMEDIES LLC. ,PAAA-4KYF-XPZC,ZILJIANAGUIRRE@GMAIL.COM,4699689451,CADDO,74729,BRYAN,processor, RED RIVER REMEDIES LLC
BOBS BUDS ,PAAA-N1WF-QH9V,ADJUSTERONTHEMOVE@YAHOO.COM,2144930456,CALERA,74730,BRYAN,processor, BOBS BUDS
"B & C EL RENO ENTERPRISES, INC. ",PAAA-4KOF-NUCD,CLADUIAJRAY@PREMIEREVALLEYPRODUCTS.COM,4052079333,CALUMET,73014,CANADIAN,processor, CANADIAN COUNTY CANNABIS
BE KIND KUSH CO. ,PAAA-NKZW-WUMZ,KELLYNICHOLE23@YAHOO.COM,4058080454,CALUMET,73014,CANADIAN,processor,
BLACK LABS LLC ,PAAA-4KQL-VBDD,WBCORTEZ@OKDELTA9.COM,4059628264,CALUMET,73014,CANADIAN,processor,
COUNTRY ROAD JUNKIES ,PAAA-4YFP-UTSP,CRJUNKIESOK@GMAIL.COM,4052057508,CALUMET,73014,CANADIAN,processor, COUNTRY ROAD JUNKIES
OUDENKERK INC ,PAAA-NYDQ-RFOH,A.SEARS@OUDENKERK.COM,7605001925,CAMERON,74932,LE FLORE,processor, OUDENKERK INC
READY TO ROLL CANNABIS LLC ,PAAA-Q6HR-7REV,GUTHRIESOONER@GMAIL.COM,4055090561,CAMERON,74932,LE FLORE,processor, READY TO ROLL
"WAYNE'S WORLD DISPENSARY, LLC ",PAAA-E1LN-YMPA,CYNTHIASDEPO@GMAIL.COM,4796517529,CAMERON,74932,LE FLORE,processor, WAYNE'S WORLD DISPENSARY
"LA CRECER, LLC ",PAAA-8P59-IQ1C,AJHUTCH97@GMAIL.COM,4056691435,CANTON,73724,DEWEY,processor,
CROCOF ENT LLC ,PAAA-AWW1-IPNS,CROCOF580@GMAIL.COM,4059058161,CANUTE,73626,WASHITA,processor, CROCOF ENT LLC
"PARADISE HIGH, LLC ",PAAA-41UN-OZYG,RKB62@CABLEONE.NET,5802439467,CANUTE,73626,CUSTER,processor,
SWEET EXCHANGE LLC ,PAAA-BHDB-2ACU,TWODOOBIEDUDES@GMAIL.COM,5806601587,CANUTE,73626,WASHITA,processor, SWEET EXCHANGE LLC
CHIEF CANNABIS LLC ,PAAA-VJKI-3GZC,HSHERIDAN_22@YAHOO.COM,4056935344,CARNEGIE,73015,CADDO,processor, CHIEF CANNABIS LABS
HILLTOP EXTRACTS LLC ,PAAA-4JN4-LB4E,LMHUGHES60@GMAIL.COM,4057475782,CARNEY,74832,LINCOLN,processor, HILLTOP EXTRACTS LLC
"PILOT AIRWAYS, LLC ",PAAA-IQ3U-AFZC,KRISSB253@GMAIL.COM,2537325490,CARNEY,74832,LINCOLN,processor," PILOT AIRWAYS, LLC"
"OKIE BOTANICAL EXTRACTORS, LLC ",PAAA-4JE1-9KGX,JOEY.MEIBERGEN@JEINC.COM,5802494419,CARRIER,73727,GARFIELD,processor,
EARTH QUALITY PRODUCTS LLC ,PAAA-NJVH-ILGV,MATTPOLAN@YAHOO.COM,2143342930,CARTWRIGHT,74731,BRYAN,processor,
"GREEN BONNET EXTRACTS, LLC ",PAAA-VWGT-AGXV,KAIMBRIWHITE@CLIMB-COLLECTIVE.COM,9034493995,CARTWRIGHT,74731,BRYAN,processor,
GREENSOURCE BUD COMPANY LLC ,PAAA-EJ0P-UQYV,DUGHOOTEN@AOL.COM,4058080252,CASHION,73016,KINGFISHER,processor, STASH MJ
EMERALD DREAMS VAPE LLC ,PAAA-N1TM-BMAU,EMERALDDREAMSTULSA@GMAIL.COM,9183465062,CATOOSA,74015,ROGERS,processor, EMERALD DREAMS VAPE LLC
"SNOOPYMCCOY'S ORGANIC KANNIBIS ENTERPRISE, LLC ",PAAA-NKEN-AXGB,DEMARIOUSMCCOY@LIVE.COM,9124399626,CEMENT,73017,CADDO,processor,
"66 EXTRACTORY, LLC ",PAAA-V1EQ-HAVT,MBAYJEWELRY@GMAIL.COM,4054102683,CHANDLER,74834,LINCOLN,processor, 66 EXTRACTORY
"NUGX, INC. ",PAAA-MBOW-XKLE,NUGXINC@GMAIL.COM,8187265453,CHATTANOOGA,73528,COTTON,processor,
"MOUNTAIN MAMA'S CANNABIS CO., L.L.C. ",PAAA-VKDP-UEPR,SPARKERKING68@GMAIL.COM,9188430877,CHECOTAH,74426,MCINTOSH,processor,
ME AND MARY JANE ,PAAA-NJGJ-JBTI,EMAILMEANDMARYJANE@GMAIL.COM,4056300724,CHELSEA,74016,ROGERS,processor, ME AND MARY JANE
"BLUNT FORCE GANJA, LLC ",PAAA-RZ7B-VTZD,BLUNTFORCEGANJA@GMAIL.COM,4055746815,CHICKASHA,73018,GRADY,processor," BLUNT FORCE GANJA, LLC"
"BORDWINE FARMS, LLC ",PAAA-YWYF-OA5P,CONST@BORDWINEDEVELOPMENT.COM,4052246311,CHICKASHA,73018,GRADY,processor,
CANDACE BURKHART ,PAAA-EJPN-QVEF,CBURKHARTCNA@YAHOO.COM,4055742438,CHICKASHA,73018,GRADY,processor,
"CANNACULTURE, LLC ",PAAA-E1H1-4Y5W,BMOON1325@GMAIL.COM,4053883192,CHICKASHA,73018,GRADY,processor," CANNACULTURE, LLC"
FELIPE MORRIS LLC ,PAAA-UUUG-DELP,WADEDUNKIN@GMAIL.COM,4055033664,CHICKASHA,73018,GRADY,processor, FELIPE MORRIS
"GROWING GREEN DREAMS, LLC ",PAAA-SXOW-MGYY,DREAMSGREEN2020@GMAIL.COM,4058929608,CHICKASHA,73018,GRADY,processor,
HIPPY SOLUTIONS LLC ,PAAA-EKWL-XQTX,BTJ@BRIANTEDJONES.COM,4056398497,CHICKASHA,73018,GRADY,processor,
IT'S A PROCESS LLC ,PAAA-EKIG-TRLM,ITS_A_PROCESS@YAHOO.COM,4699398606,CHICKASHA,73018,GRADY,processor,
LEFT HANDED HARVESTERS INC ,PAAA-ZAPC-9J8C,VANSCHUYVERFARMS@GMAIL.COM,4059339105,CHICKASHA,73018,GRADY,processor, LEFT HANDED HARVESTERS INC.
"LIBERTY COLLECTIVE, LLC ",PAAA-VPKS-IWAM,COLLIN@GREENLEGALOK.COM,9035393472,CHICKASHA,73018,GRADY,processor, R&H MANUFACTURING
"MOLECULAR EXTRACTS, LLC ",PAAA-V71R-GXRY,JOHNSONSCRANESERVICE@GMAIL.COM,4052229665,CHICKASHA,73018,GRADY,processor,
NEW LEAF MEDICINALS LLC ,PAAA-NYZB-V3VV,ERICK.NEWLEAF@GMAIL.COM,4055742101,CHICKASHA,73018,GRADY,processor, NEW LEAF MEDICINALS LLC
POTTCO INC ,PAAA-M9ZV-GIYI,GEURINBRAD@GMAIL.COM,4058086641,CHICKASHA,73018,GRADY,processor, POTTCO INC
CHAHAL YADAV LLC ,PAAA-N1OW-DHUE,LEAFLIFEOK@GMAIL.COM,4059311351,CHOCTAW,73020,OKLAHOMA,processor, LEAF LIFE
CHEAL INC ,PAAA-L00C-FRC2,CHEALPILL405@GMAIL.COM,4053711925,CHOCTAW,73020,OKLAHOMA,processor, CHEAL INC
CHOCTAW PROCESSING LLC ,PAAA-VZZR-SZYV,ARS@TSGATTORNEYS.COM,4057531195,CHOCTAW,73020,OKLAHOMA,processor, 1440 PROCESSING
"GOLDEN BLOOM EXTRACTS, LLC ",PAAA-VYK6-YLL7,BRUCE@MARVELBLOOM.COM,4055129159,CHOCTAW,73020,CHOCTAW,processor,
THE M AND M CONNECTION ,PAAA-E1QD-SLJU,MATTHEWAWILBORN@GMAIL.COM,9185210770,CHOUTEAU,74337,MAYES,processor, THE M AND M CONNECTION
C4EXTRACTS LLC ,PAAA-V1BW-598N,C4EXTRACTS@GMAIL.COM,9184087246,CLAREMORE,74017,ROGERS,processor, C4EXTRACTS
"CAPTAIN GREENLEAF, INC. ",PAAA-6HEX-XCXK,CAPTAINGREENLEAF91@GMAIL.COM,9189232188,CLAREMORE,74019,ROGERS,processor, CAPTAIN GREENLEAF
DANKY MCNUGGY MEDICAL GROUP ,PAAA-V1CN-RLPN,JAMILYNN.LAMBERT@GMAIL.COM,5803508351,CLAREMORE,74017,ROGERS,processor, DANKY MCNUGGY MEDICAL GROUP
HY-KAGE LABORATORIES L.L.C ,PAAA-4KWR-HPN1,EKALEEL2010@GMAIL.COM,9183532132,CLAREMORE,74019,ROGERS,processor, HY-KAGE LABORATORIES L.L.C
KOLI CANNABIS LTD ,PAAA-GELQ-30DA,SHOBUJ26@HOTMAIL.COM,9188127913,CLAREMORE,74019,ROGERS,processor, CANNAKOLI
"LM&A PROCESSING, LLC ",PAAA-VJWK-0AUH,KETTERLINGS@ME.COM,4053014395,CLAREMORE,74017,ROGERS,processor," LM&A PROCESSING, LLC"
REAP EXTRACTS LLC ,PAAA-IURT-RCSN,DENISE@KINDALTERNATIVE.COM,9187043752,CLAREMORE,74017,ROGERS,processor,
"17295 GROW, LLC ",PAAA-ECDI-LCKE,RCHARLESWILKIN@GMAIL.COM,9186977803,CLAREMORE,74017,ROGERS,processor, JUNGLE KING
KIAMICHI SKIES ,PAAA-EJHI-YS8N,J.PAUL.GRAYSON@GMAIL.COM,9728226314,CLAYTON,74536,PUSHMATAHA,processor, KIAMICHI SKIES
"MMJP, LLC. ",PAAA-EY6Z-AN44,CGGARRISON1@GMAIL.COM,9187215954,CLAYTON,74536,PUSHMATAHA,processor, MEDICAL MARJUANA PROCESSOR
ABC FARMS INC. ,PAAA-EKJD-XA6K,BRANDON.LEWIS8453@GMAIL.COM,9184408453,CLEVELAND,74020,PAWNEE,processor, ABC FARMS INC.
AMERICAN CANNABIS PROCESSING LLC ,PAAA-NYWS-IDRQ,SMOORE190243@GMAIL.COM,9186951902,CLEVELAND,74020,PAWNEE,processor, AMERICAN CANNABIS PROCESSING
CHAOBI GREEN LLC ,PAAA-AKMS-OX0P,MATT@STACYLEGALGROUP.COM,4057353800,CLEVELAND,74045,PAWNEE,processor, CHAOBI GREEN LLC
"HB-OHG, LLC ",PAAA-E9JZ-1UVM,HBOHGOKLLC@GMAIL.COM,9186295007,CLEVELAND,74020,PAWNEE,processor, HB-OKLAHOMA HOME GROWN
"OHG, LLC ",PAAA-4J5P-4XTT,OHGOKLLC@GMAIL.COM,9186295007,CLEVELAND,74020,PAWNEE,processor, OKLAHOMA HOME GROWN - PROCESS
OK ROSIN ,PAAA-VKUH-WSXX,INFO@OKROSIN.COM,9183992779,CLEVELAND,74020,PAWNEE,processor,
"BRILLIANT CHEN, LLC ",PAAA-VJ8R-P1IV,MATT@STACYLEGALGROUP.COM,4058167532,CLINTON,73601,CUSTER,processor,
MIDNIGHT MUNCHIES LLC ,PAAA-VKXX-S1WU,MIDNIGHTMUNCHIES75@GMAIL.COM,5803093686,CLINTON,73601,CUSTER,processor,
"KANNIBOSS,  LLC ",PAAA-EKBC-WC31,SERVAISREPSERVICES@COX.NET,9188520230,COALGATE,74538,COAL,processor, KANNIBOSS
KINGS RESERVES LLC ,PAAA-4YBX-PAE8,TODD@KINGSRESERVES.CLOM,5804369292,COALGATE,74538,COAL,processor, KINGS RESERVES / JUNGLE CREW
PUGH FARMS LTD ,PAAA-4X4E-GBKJ,PUGHFARMSLTD@GMAIL.COM,5809276638,COALGATE,74538,COAL,processor, PUGH FARMS
GET RIGHT CAFE LLC ,PAAA-VJNT-EZSU,BELLCHRIS10@YAHOO.COM,9037181582,COLBERT,74733,BRYAN,processor,
"SPRING FARMS, LLC. ",PAAA-N1IF-1EJM,RUSTYEVANS@ME.COM,9036241943,COLBERT,74733,BRYAN,processor,
"FOSTER & BROWN PROCESSING, LLC ",PAAA-JS1F-KAH5,FOSTERBROWNCANNABIS@OUTLOOK.COM,2545351402,COLCORD,74338,DELAWARE,processor,
HEMP MOTHER LLC ,PAAA-4YTF-MFCH,BRANDISWING1@GMAIL.COM,9189646374,COLCORD,74338,DELAWARE,processor, HEMP MOTHERS NECTAR
HONEY BEE PROCESSING LLC ,PAAA-H7YW-VNR9,HONEYBEEPROCESSING@YAHOO.COM,5802570288,COLEMAN,73432,ATOKA,processor, HONEYBEE PROCESSING
THE COLD TRAP LLC ,PAAA-1QY1-0NRV,CHARLES@BEDELIAGARDENS.COM,5807401050,COLEMAN,73432,JOHNSTON,processor, THE COLD TRAP
EF-EL-AY EXTRACTS LLC ,PAAA-NJAK-CETE,TEDD.MEURER@GMAIL.COM,9182895769,COLLINSVILLE,74021,WASHINGTON,processor, EF-EL-AY EXTRACTS
THADDEUS KOMULA ,PAAA-EYR1-SKTA,KNGSTNK@GMAIL.COM,3604518619,COMANCHE,73529,STEPHENS,processor, KOMULA FARMS
"UNDERGROUND EXTRACTS, LLC ",PAAA-NWCB-0SET,SGILBERTOK86@GMAIL.COM,9189199218,COMMERCE,74339,OTTAWA,processor,
POPPI'S FARM ,PAAA-4Y2A-ETDN,POPPISFARM@GMAIL.COM,5803998283,CONNERVILLE,74836,JOHNSTON,processor, POPPI'S FARM
SMOKIES DRIP LLC ,PAAA-U3Z9-MNBA,SMOKIESDRIP@GMAIL.COM,9185347755,COPAN,74022,WASHINGTON,processor,
"ALICE'S RESTAURANT, LLC ",PAAA-MIHK-U3UN,BBOCD50@GMAIL.COM,5807726297,CORN,73024,WASHITA,processor, TWO TWISTED GIRLS
"ADAY BOLO WHOLESALE, LLC ",PAAA-0V3R-DG0T,ALEX.PACE1963@ICLOUD.COM,8175079945,CORNISH,73456,JEFFERSON,processor,
SMECTITE LAND SERVICES LLC ,PAAA-NYXH-6GWO,ROCKWELLNESS405@GMAIL.COM,4058164975,ADA,74820,PONTOTOC,processor, THE TERP SHOP
"T&C HOLDINGS, LLC ",PAAA-NY2W-IU7T,SALES@SIXTY4FARMS.COM,5803997619,ADA,74820,PONTOTOC,processor, '64 FARMS
"THE HEALING PHARM GROUP, LLC ",PAAA-3TO4-EPPR,DAVIDJASONPARDUE@GMAIL.COM,5807190009,ADA,74820,PONTOTOC,processor, THE HEALING PHARM
THE MEDICINE POUCH LLC ,PAAA-V1JD-TMFV,KBEACH@RJRTRUCKING.NET,5803200487,ADA,74820,PONTOTOC,processor,
"TWO GUYS SUPPLIES, LLC ",PAAA-OL6P-DFIR,ZEROLIMITS007@GMAIL.COM,5803994960,ADA,74820,PONTOTOC,processor,
"7 LEAF SOLUTIONS, LLC ",PAAA-EYZK-T398,7LEAFSOKLAHOMA@GMAIL.COM,2097693036,ADA,74820,PONTOTOC,processor," 7 LEAF SOLUTIONS, LLC"
"KUSH KITCHEN, LLC ",PAAA-NJ7V-GWJS,KUSHKITCHENLLC@GMAIL.COM,9185305024,ADAIR,74330,MAYES,processor,
BLUFF CREEK PROCESSING ,PAAA-NTOQ-EF67,BLUFFCREEKPROCESSING@GMAIL.COM,9182571068,AFTON,74331,DELAWARE,processor, BLUFF CREEK PROCESSING
H&H PROCESSING CORPORATION ,PAAA-NKNO-N2EL,AMBER@HIGHERHEALTHOKLAHOMA.COM,9182195760,AFTON,74331,DELAWARE,processor, H&H PROCESSING
HORSE CREEK CAVE FARMS LLC ,PAAA-4YYK-HUYS,SOONER_WATERBOY@YAHOO.COM,9188013869,AFTON,74331,DELAWARE,processor, BLUE IGUANA PROCESSING
KENDER XTRACTS LLC ,PAAA-IAHO-KWCG,CHARLES.WILLIAMS@PRODIGY.NET,4052403487,AFTON,74331,OTTAWA,processor, CENTRAL NATIVE HOLDINGS
SHORT ARROW L.L.C. ,PAAA-4YV6-TGOW,LEE.UTO@GMAIL.COM,9182610906,AFTON,74331,OTTAWA,processor, SHORT ARROW PHARMS
SMOKLAHOMA FARMS LLC ,PAAA-H1T6-WA0Z,GRANDSGOLDEN@GMAIL.COM,9188011588,AFTON,74331,DELAWARE,processor, SMOKLAHOMA FARMS LLC
JUDE'S PROCESSING LLC ,PAAA-E1FD-6UR8,RICKGBLOC@GMAIL.COM,8179916350,ALTUS,73521,JACKSON,processor,
AMERICANNAGAR LLC. ,PAAA-NYMG-LHXY,SKYLARLEE972@YAHOO.COM,4058162095,AMBER,73004,GRADY,processor,
THE GINGERBREAD BAKING CO. ,PAAA-EKBE-PJDO,TERRIEGAL@ITMANINC.COM,5803480523,COVINGTON,73730,GARFIELD,processor, THAT KINDA BAKERY
NATIVE LEAF APOTHECARY CO. ,PAAA-N1IC-MFA3,JEFF@NATIVELEAFAPOTHECARY.COM,9189513222,COWETA,74429,WAGONER,processor,
"NATIVE LEAF APOTHECARY, LLC ",PAAA-ZYHL-OITY,JEFF@NATIVELEAFAPOTHECARY.COM,9189513222,COWETA,74429,WAGONER,processor," NATIVE LEAF APOTHECARY, LLC"
DIRTY DOG EXTRACTS LLC ,PAAA-EKQK-O25S,DIRTYDOGEXTRACTS@GMAIL.COM,4054796495,COYLE,73027,LOGAN,processor,
REMEDY LLC ,PAAA-NK4P-TXTD,CHUCK@REMEDYREFINERY.COM,6095027652,COYLE,73027,OKLAHOMA,processor, REMEDY REFINERY
TWICE BAKED EDIBLES LLC ,PAAA-EJUK-XGSS,FRITZ@WHITEBOX.NET,4055148169,COYLE,73027,LOGAN,processor, TWICE BAKED
ABUNDANT GREEN RELEAF INC. ,PAAA-VYOK-VNZO,HIMES.CARMEN@GMAIL.COM,4053269334,CRESCENT,73028,OKLAHOMA,processor,
BECKY PING LLC ,PAAA-V1XX-PCOW,MATT@STACYLEGALGROUP.COM,4058167228,CRESCENT,73028,KINGFISHER,processor, BECKY PING LLC
EDEN CANNABIS FARMS INC. ,PAAA-AZBI-OU9S,LASIARSHAD@GMAIL.COM,2813098908,CRESCENT,73028,LOGAN,processor,
GANJA MOJO LLC ,PAAA-NJPF-QSCW,DONNY@SIZEMOJO.COM,7206683374,CRESCENT,73028,LOGAN,processor, GANJA MOJO
MIRACLE MEDS LLC ,PAAA-VJZN-CFNB,SWANSONS84@HOTMAIL.COM,4054344633,CRESCENT,73028,LOGAN,processor, MIRACLE MEDS
"PING GREEN, LLC ",PAAA-4KYY-0S4V,MATT@STACYLEGALGROUP.COM,4058167228,CRESCENT,73028,LOGAN,processor,
"POTION EXTRACT, LLC ",PAAA-RW7M-IG7G,TOM@FINORIC.COM,2813096263,CRESCENT,73028,LOGAN,processor," POTION EXTRACT, LLC"
TWISTED SISTERS 420 LLC ,PAAA-M8NA-ZTCL,TWISTEDSIS420@GMAIL.COM,4055316987,CRESCENT,73028,LOGAN,processor, TWISTED SISTERS 420
"ZANJA EXTRACTS, LLC ",PAAA-MCB6-M4FO,AUSTIN.FIELDING@GMAIL.COM,4055147934,CUSHING,74023,PAYNE,processor, ZANJA EXTRACTS
"FORBIDDEN FRUITS FARM, LLC ",PAAA-VMJ1-MUS9,ALEXIS.KAISER@GMAIL.COM,4052473000,CYRIL,73029,CADDO,processor,
VET RELIEF FARMS ,PAAA-UGOV-GLJZ,LUCYK7701@GMAIL.COM,5804583331,CYRIL,73029,CADDO,processor,
ARBUCKLE XTREME LABS LLC ,PAAA-VKKO-0OMH,JHOOD@ARBUCKLEXLABS.COM,8179339787,DAVIS,73030,MURRAY,processor, ARBUCKLE XTREME LABS LLC
RED LIGHT PROCESSING LLC ,PAAA-V1YQ-FLNP,LINZEBENTLEY@YAHOO.COM,6467174751,DAVIS,73030,MURRAY,processor, RED LIGHT
"CR 1090, LLC ",PAAA-N1BU-FDLE,NWYCOFF21@GMAIL.COM,7859797401,DEER CREEK,74636,GRANT,processor, TREEHOUSE TRIBE EXTRACTS
BEYOND THE BUD INC ,PAAA-XYYA-I6SN,TERRI@BEYONDTHEBUDOK.COM,4055055922,DEL CITY,73115,OKLAHOMA,processor, BEYOND THE BUD
"NOTUM, INC ",PAAA-NYHW-PYV4,MATT@STACYLEGALGROUP.COM,4058167228,DEL CITY,73115,OKLAHOMA,processor," NOTUM, INC"
OK KIND CONNECTION PROCESSING LLC ,PAAA-JWI6-J5W5,BCHAIRESS@GMAIL.COM,4056308735,DEL CITY,73115,OKLAHOMA,processor,
THE GREEN'S BAKERY CORPORATION ,PAAA-N18H-HPHE,THEGREENSBAKERY@GMAIL.COM,4054090339,DEL CITY,73115,OKLAHOMA,processor, THE GREEN'S BAKERY
Z-DISPENSARY LLC ,PAAA-NJP8-XXOL,DR.DUSTINYORK13@GMAIL.COM,4053653774,DEL CITY,73115,OKLAHOMA,processor,
"BROTHERS PROCESSING 1, LLC ",PAAA-N1TM-II4M,OKLAHOMABUSINESS1@GMAIL.COM,6192039724,DEL CITY,73115,OKLAHOMA,processor, PRESTIGE CANNABIS
GREEN CHEMISTRY LLC ,PAAA-BRWA-8UYN,GREENCHEMISTRYLLCOK@GMAIL.COM,4052877684,DEPEW,74028,CREEK,processor, GREEN CHEMISTRY
GREENTREE MEDICAL LLC ,PAAA-EJ65-P1SD,GREENTREE357@YAHOO.COM,5802993227,DEVOL,73531,COTTON,processor, ALTERNATIVE CONCENTRATE
CRAFT KINGS LLC ,PAAA-NYX8-TOW7,DOC@GREENLEAFCULTIVATIONS.COM,4053420420,DEWEY,74029,WASHINGTON,processor, CRAFT KINGS
DANKLAND DELIGHTS LLC ,PAAA-41QM-PEDD,DANKMEDIC918@OUTLOOK.COM,9182148238,DEWEY,74029,WASHINGTON,processor,
DANKLAND PROCESSING ,PAAA-NJEW-FOY8,CBUFORD44@ICLOUD.COM,4055350344,DEWEY,74029,WASHINGTON,processor,
"DANTE VENTURES, INC ",PAAA-JKNT-5MFU,AKBAR.PANJWANI123@GMAIL.COM,2819488425,DEWEY,74029,WASHINGTON,processor, DANTE CANNABIS DISTRIBUTION
DIAMOND LABS LLC ,PAAA-N1HB-4WEJ,LIZSHERROCK@GMAIL.COM,9185275777,DEWEY,74029,WASHINGTON,processor, DIAMOND LABS
"URBAN XTRACTS, LLC ",PAAA-7QBF-K1J8,JOHNTANNER81@YAHOO.COM,6614355200,DEWEY,74029,WASHINGTON,processor, URBAN XTRACTS
MEDICATED REMEDIES LLC ,PAAA-CNIK-BM8N,LACEYWALKER54@GMAIL.COM,5808216037,DILL CITY,73641,WASHITA,processor,
BEYOND HONEY OIL FARMS LLC ,PAAA-VYHX-MQV5,DUSTY@BEYONDHONEYOILFARMS.COM,4054007755,DOVER,73734,KINGFISHER,processor, BEYOND HONEY OIL FARMS
BULLFOOT BROTHERS LLC ,PAAA-VKQC-WHNR,RAUL@BULLFOOTBROTHERS.COM,4055206070,DOVER,73734,KINGFISHER,processor, BULLFOOT BROTHERS
COWBOY CANNABIS PHARM LLC ,PAAA-KLDK-WPET,COWBOYCANNABISPHARM@GMAIL.COM,5805529026,DOVER,73734,KINGFISHER,processor, COWBOY CANNABIS PHARM LLC
"CONNECT LABORATORIES, L.L.C. ",PAAA-NJLG-IUNX,CONNECTLABSOK@GMAIL.COM,9183325512,DRUMRIGHT,74030,CREEK,processor, CONNECT LABS
TWISTED MARY PROCESSING ,PAAA-CCFZ-CWXM,TMPRODUCTIONSGROW@GMAIL.COM,9185131308,DRUMRIGHT,74030,PAYNE,processor, TWISTED MARY PROCESSING
"ALOHA SNACK BAR, LLC ",PAAA-EYDS-BD57,ALOHASNACKBAROK@GMAIL.COM,4052763285,DUNCAN,73533,STEPHENS,processor, ALOHA SNACK BAR
ATLAS CANNABIS COMPANY ,PAAA-4Y7T-JSWE,ATLASCANNABISCOMPANY@GMAIL.COM,5806063819,DUNCAN,73533,STEPHENS,processor,
BEE'S KNEES DISPENSARY LLC ,PAAA-VJBW-ZXS2,LACEY.BURTON00@GMAIL.COM,5806412487,DUNCAN,73533,STEPHENS,processor,
BIG BOYZ EXTRACTS LLC ,PAAA-DUHO-9ON0,BIGT127MOBILE@GMAIL.COM,8178753860,DUNCAN,73533,STEPHENS,processor, BIG BOYZ EXTRACTS LLC
"FERG BROTHERS, LLC ",PAAA-EYHW-5HXS,DREW@UTERPIAEXTRACTS.COM,5808604167,DUNCAN,73533,STEPHENS,processor, UTERPIA EXTRACTS LLC
"HELEYON EXTRACTS, LLC ",PAAA-EKFF-R3EX,HALEY@HELEYON.COM,5808602468,DUNCAN,73533,STEPHENS,processor,
HINK INK LLC ,PAAA-XWPD-PR3V,STANSPRAGGINS@GMAIL.COM,4692374668,DUNCAN,73533,STEPHENS,processor, HINK INC LLC
OKLAHOMA NATIVE ROOTS HEALTH & WELLNESS LLC ,PAAA-NKPH-KLSA,NATIVEROOTS@YAHOO.COM,5805124000,DUNCAN,73533,STEPHENS,processor," OKLAHOMA NATIVE ROOTS HEALTH & WELLNESS, LLC"
"PLUMLOWCO, LLC ",PAAA-4JV8-U189,THOMAS.LOWRY58@GMAIL.COM,5806785447,DUNCAN,73533,STEPHENS,processor,
PROCC OKC LLC ,PAAA-GF1A-JPXC,MATT@ALLAREASECURITY.COM,4058084400,DUNCAN,73533,STEPHENS,processor, PROCC OKC LLC
TAYLOR AGRICULTURE GROWTH AND EXTRACTIONS INC ,PAAA-NKA8-DNGD,JAMES.CALVIN@TAGEFARMS.COM,2542306254,DUNCAN,73533,STEPHENS,processor, TAYLOR AGRICULTURE GROWTH AND EXTRACTIONS
"VENTUREWISE PROCESSING, LLC ",PAAA-EKRH-PP0M,ALSTON05@GMAIL.COM,5805609674,DUNCAN,73533,STEPHENS,processor, CANNAWISE CONCENTRATES
BBC VENTURES INC ,PAAA-NK0X-MKOY,BRENDA@BBCVENTURES.NET,7022340385,DURANT,74701,BRYAN,processor, BBC VENTURES INC
"BMF COMPANIES, INC. ",PAAA-84I0-GLJH,ERIC@BMFFARMS.COM,5809165039,DURANT,74701,BRYAN,processor, BMF FARMS
CANNAMED LLC ,PAAA-EKDA-GPVH,SALES@CANNAMEDOK.COM,5809166295,DURANT,74701,BRYAN,processor, GOOD OIL BOYS
"EVERGREEN EVOLUTION (OK), LLC ",PAAA-HKKY-GNRZ,DANDERTON@CNCLLC.ORG,4695628720,DURANT,74701,BRYAN,processor," EVERGREEN EVOLUTION OK, LLC"
"GOLDEN SHOVEL HOLDINGS, LLC ",PAAA-NYYY-HEVE,COLBY@HEAVENLYHAZE.COM,8174049901,DURANT,74701,BRYAN,processor, HEAVENLY HAZE
HAPPY HEMP PROCESSING CO. ,PAAA-VYQD-EL7M,ADMIN@CANNATEXSOLUTIONS.COM,5807484551,DURANT,74701,BRYAN,processor, HAPPY HEMP PROCESSING
HIGHER POWER PROCESSING LLC ,PAAA-EJQ3-GXFP,HIGHERPOWERPROCESSINGLLC@GMAIL.COM,5804788213,DURANT,74701,BRYAN,processor, DANIEL MARSHALL
HUYLINH LLC ,PAAA-Y7UF-KUJB,LINH.HUYNH2020@YAHOO.COM,4692360666,DURANT,74701,BRYAN,processor, PHAT PHARM
"JOYFLORA, LLC ",PAAA-UYHC-BTUN,JOYFLORALLC@GMAIL.COM,8173129418,DURANT,74701,BRYAN,processor," JOYFLORA, LLC"
LEVITATE INDUSTRIES LLC ,PAAA-NJBO-OJZB,RAY@LEVITATEINDUSTRIES.COM,5809208628,DURANT,74701,BRYAN,processor, LEVITATE INDUSTRIES LLC
"NLIGHTN PROCESSING, INC. ",PAAA-EJ9X-IUYX,MARISA@NLIGHTNCANNABIS.COM,9036474512,DURANT,74701,BRYAN,processor, NLIGHTN APOTHECARY
"PRIME PROCESSING, LLC ",PAAA-EYMT-VVWR,KEITH@POH.LLC,5809801848,DURANT,74701,BRYAN,processor,
S AND B CANNABIS LLC ,PAAA-J8VN-6H1R,S.SMOTHERS@HOTMAIL.COM,5802309477,DURANT,74701,BRYAN,processor, BONG WATER BEVERAGE
SWEET LEAF FARMACY ,PAAA-NJXZ-QJPR,FLOWERLADYOK@YAHOO.COM,9038185049,DURANT,74701,BRYAN,processor,
"ANNABIS, LLC ",PAAA-EY8G-TJSW,MATT@STACYLEGALGROUP.COM,4058167228,EARLSBORO,74840,SEMINOLE,processor,
BORO FAMILY FARMS LLC ,PAAA-41PT-MXWN,CONNOR@BOROFARMS.COM,4055849516,EARLSBORO,74840,POTTAWATOMIE,processor,
MITTIES KITCHEN LLC ,PAAA-E1GF-OVKL,MELINDAB56@HOTMAIL.COM,4055939986,EARLSBORO,74840,POTTAWATOMIE,processor, MITTIE'S MEDICINALS
5 LEAF PROCESSING LLC ,PAAA-VJGX-C3IR,NICMONTANA1@GMAIL.COM,4056554633,EARLSBORO,74840,SEMINOLE,processor, 5 LEAF PROCESSING
ARCADIA BRANDS LLC ,PAAA-411B-HBV5,ROBERT@ARCADIABRANDS.COM,9188591374,EDMOND,73025,LOGAN,processor,
"BIG DREAM HOLDINGS, LLC ",PAAA-4JC0-Z7OQ,SHERRI@BIGDREAMCANNABIS.COM,4056336695,EDMOND,73013,OKLAHOMA,processor, BIG DREAM EXTRACTS
"BIONIC CHRONIC, LLC ",PAAA-N12C-LNAS,CHRISCOREY03@YAHOO.COM,4057952961,EDMOND,73034,LOGAN,processor, BIONIC CHRONIC
BRASH INVESTMENTS LLC ,PAAA-THGT-S6VY,SALES@BRASHCANNABIS.COM,4054453115,EDMOND,73013,OKLAHOMA,processor, BRASH CANNABIS
C&G CAPITAL VENTURES INC ,PAAA-16WU-IXVQ,CANNACAPITALVENTURES@GMAIL.COM,7865724734,EDMOND,73034,LOGAN,processor, CANNASSEUR OKC
"CICADA LABS, LLC ",PAAA-WM10-C7XT,CICADALABSOK@GMAIL.COM,5803346731,EDMOND,73003,OKLAHOMA,processor,
CROWN CONSTRUCTION AND MANAGEMENT ,PAAA-N11U-D29X,EMKW@COX.NET,4054147015,EDMOND,73034,LOGAN,processor, CROWN PROCESSING
"DH THAI PRODUCTS, LLC ",PAAA-4JMC-OPSV,BLUEXLAB@GMAIL.COM,4059065878,EDMOND,73034,LOGAN,processor,
DYMOND DISPENSARY LLC ,PAAA-X8AV-1BRO,EVAN@DYMONDENTERPRISESOK.COM,4058301225,EDMOND,73034,LOGAN,processor,
EMERALD LABS LLC ,PAAA-EY63-ZUGS,ONAMSN@AOL.COM,4056648216,EDMOND,73013,OKLAHOMA,processor,
ESCO BRANDS LLC ,PAAA-N1A6-M8WU,RICKI@ELECTRALEAF.COM,4847975950,EDMOND,73034,OKLAHOMA,processor,
FIORE LLC ,PAAA-VYJK-AUFG,VICKI.R.TOOMBS@GMAIL.COM,4056202251,EDMOND,73012,OKLAHOMA,processor,
GREAT PLAINS EXTRACTS LLC ,PAAA-VKMQ-UZZ3,ROBERT@ARCADIABRANDS.COM,9188591374,EDMOND,73025,LOGAN,processor, GREAT PLAINS EXTRACTS
GREEN ALCHEMY LLC ,PAAA-EJIG-3EE4,GREENALCHEMYOK@GMAIL.COM,4058632433,EDMOND,73025,OKLAHOMA,processor, GREEN ALCHEMY MEDICINE
GREEN LIGHT CONNECT LLC ,PAAA-OKLX-FY6Z,HOLCOMBDJ@GMAIL.COM,3162144613,EDMOND,73025,OKLAHOMA,processor, GREEN LIGHT CONNECT LLC
"HARD PRESSED ORGANICS, LLC ",PAAA-4JYZ-M12P,MARKPATTON35@GMAIL.COM,4053157420,EDMOND,73013,OKLAHOMA,processor," HARD PRESSED ORGANICS, LLC"
HIGH POINT MEDS LLC ,PAAA-4KUO-3Q7I,POPESE@HIGHPOINTMEDS.COM,3852852455,EDMOND,73003,OKLAHOMA,processor,
"HM PREROLL, LLC ",PAAA-NJ4I-BPYG,CHRIS.HMPREROLL@GMAIL.COM,4054267371,EDMOND,73034,LOGAN,processor, HI TEK SOLVENTLESS
ICE MELTS LLC ,PAAA-7TK8-XDQL,LESLIEMCMINN@COX.NET,4058244463,EDMOND,73034,LOGAN,processor, LESLIE MCMINN
JJRB FARMS LLC ,PAAA-NJ4R-2OXU,SCISSORTAILMANAGEMENT@GMAIL.COM,4058504416,EDMOND,73034,LOGAN,processor, JJRB FARMS
KALI GIRL LLC ,PAAA-417Z-KMFE,JFPRIMEOKC@YAHOO.COM,4059239734,EDMOND,73013,OKLAHOMA,processor, UWD
KIM'S CONNECTIONS ,PAAA-Y0WD-VZZP,KIM@KIMSCONNECTIONSOKC.COM,4054654905,EDMOND,73013,OKLAHOMA,processor,
LEAF LOGIC LLC ,PAAA-NY4U-71OC,INFO@LEAFLOGICOK.COM,4053231700,EDMOND,73003,OKLAHOMA,processor, LEAF LOGIC CONCENTRATES
"LIFE THERAPEUTICS, LLC ",PAAA-EKRY-JOJ8,CALEB@LIFETHERABRANDS.COM,4053392836,EDMOND,73003,OKLAHOMA,processor,
"LONE WOLFE VENTURES, LLC ",PAAA-EYRY-VHUD,KIRK@KOSMIKBRANDS.COM,3183490685,EDMOND,73013,OKLAHOMA,processor,
LOUD CITY EXTRACTS LLC ,PAAA-NKRK-STMO,E@LOUDCITYEXTRACTS.COM,4054203937,EDMOND,73013,OKLAHOMA,processor, LOUD CITY EXTRACTS
LUCKY'S ICE HOUSE ,PAAA-KVCV-JVK2,LUCKYSHOUSE@ATT.NET,4055323050,EDMOND,73013,OKLAHOMA,processor, E-FREE
MINT COMPANY ,PAAA-EYDI-1E4G,JAIMESCHULTHEIS@GMAIL.COM,4058201833,EDMOND,73013,OKLAHOMA,processor,
MY ONI CHAN IS OK LLC ,PAAA-AZUB-CH1V,JORDANSROSSON@GMAIL.COM,4054929976,EDMOND,73003,OKLAHOMA,processor, MY ONI CHAN IS OK LLC
"NATURE'S GOLD FOOD PRODUCTS, LLC ",PAAA-I6OO-AK7L,CORY.COCKRELL@ICLOUD.COM,8325883056,EDMOND,73034,LOGAN,processor," NATURE'S GOLD FOOD PRODUCTS, LLC"
NATURE'S RELIEF LLC ,PAAA-VYDU-FO3D,NRCULTIVATION@GMAIL.COM,9167527798,EDMOND,73025,OKLAHOMA,processor, NATURE'S RELIEF
NEW ROOTS SCIENTIFIC LLC ,PAAA-4KIL-HD6H,OMARTAHSAN@GMAIL.COM,4053942044,EDMOND,73013,OKLAHOMA,processor, NEW ROOTS SCIENTIFIC
"NICE TREE, LLC ",PAAA-4JFD-XXFE,TRJAMES1414@GMAIL.COM,4055965151,EDMOND,73013,OKLAHOMA,processor, NICE TREE
"OASIS FOUND REMEDIES, LLC ",PAAA-VYIZ-OLVD,OASISFOUNDREMEDIES@GMAIL.COM,4058335731,EDMOND,73025,LOGAN,processor," OASIS FOUND REMEDIES, LLC"
"OKLAHOMA GENETICS & EXTRACTS, LLC. ",PAAA-EYWP-JSXC,JORDAN@GROW788.COM,9185764838,EDMOND,73012,OKLAHOMA,processor," OKLAHOMA GENETICS & EXTRACTS, LLC."
PEACE OUT TIME LLC ,PAAA-4Y1M-GFVL,AMANDA@HOLISTICGREENSCBD.COM,4053886521,EDMOND,73013,OKLAHOMA,processor, PEACE OUT PROCESSING
PHRESH HARVEST LLC ,PAAA-EYGD-QNSU,CSWYLIE54@HOTMAIL.COM,7606845483,EDMOND,73025,LOGAN,processor, PENDING
PLATINUM FARMS LLC ,PAAA-JD12-GHGT,RHONDA@DAVIDSTANLEYAUTOGROUP.COM,4054174054,EDMOND,73013,OKLAHOMA,processor, PLATINUM FARMS
"PURE EXOTICS, LLC ",PAAA-EKMB-RYKX,INFO@PUREEXOTICS.NET,4054892800,EDMOND,73013,OKLAHOMA,processor,
"PURPLE GOAT, LLC ",PAAA-LKXW-MQK8,ADMIN@THATPURPLEGOAT.COM,6122074473,EDMOND,73034,LOGAN,processor, PURPLEGOAT
RED EARTH CANNABIS LLC ,PAAA-4JOQ-SUJ1,JENNIFERWILSONSCOTT@GMAIL.COM,3108776314,EDMOND,73003,OKLAHOMA,processor, RED EARTH CANNABIS
RELEAF COLLECTIVE LLC ,PAAA-VJDA-BFMW,MGIROCCO@RELEAFCOLLECTIVE.COM,3109249342,EDMOND,73034,LOGAN,processor, RELEAF LABS
SCISSORTAIL SEED COMPANY ,PAAA-NJG6-ZBMH,RLBUSSETT@GMAIL.COM,3037045330,EDMOND,73034,LOGAN,processor,
SHOWDOWN ENTERPRISES LLC ,PAAA-VYVR-KGIU,RICKI@ELECTRALEAF.COM,4847975950,EDMOND,73003,OKLAHOMA,processor,
SMART MONEY GROUP LLC ,PAAA-V1CF-9JXC,JOSEPH.HALPIN1@GMAIL.COM,4055653236,EDMOND,73034,LOGAN,processor, EXTRINSIC AMBITIONS
SOONER GLUE LLC ,PAAA-VK9U-9NAP,SOONERGLUE@GMAIL.COM,4057190037,EDMOND,73034,LOGAN,processor, SOONER GLUE
SOUTHWEST GENETICS LLC ,PAAA-4KMN-GHDM,SWGENETIX@GMAIL.COM,8179921890,EDMOND,73034,OKLAHOMA,processor, SOUTHWEST GENETICS LLC
SQCR LLC ,PAAA-NKLG-J4O4,BRITTANY.TORRES2@YAHOO.COM,4058183556,EDMOND,73034,LOGAN,processor, EMERALD EMPIRE
STEALTH BUSINESS SOLUTIONS ,PAAA-EKVB-JPC9,ANDERSON.CORY.M@GMAIL.COM,4056405633,EDMOND,73003,OKLAHOMA,processor, STEALTH BUSINESS SOLUTIONS
SWEET PANDORA CREATIONS LLC ,PAAA-4YTA-CNH5,SWEETPANDORACREATIONS@GMAIL.COM,4054714421,EDMOND,73003,OKLAHOMA,processor, PRAIRIE JANE
"TAPROOTS EXTRACTS, INCORPORATED ",PAAA-EYB9-LYRO,JESS.ANTHONY.ROBERTS@GMAIL.COM,4058237816,EDMOND,73034,OKLAHOMA,processor, TAPROOTS EXTRACTS INCORPORATED
THE BOTANY ,PAAA-QDU6-60FL,MATHEW.ELLEBY@ME.COM,4059683354,EDMOND,73013,OKLAHOMA,processor, THE BOTANY
THE GATEWAY CBD & DISPENSARY LLC ,PAAA-4YZY-VOTI,GATEWAYCBD@GMAIL.COM,4055967474,EDMOND,73034,OKLAHOMA,processor, THE GATEWAY CBD & DISPENSARY LLC
WOODCREST CAPITAL LLC ,PAAA-YTAG-CHI2,BLAINE@WCCBRANDS.COM,4056266664,EDMOND,73034,LOGAN,processor, LEVEL UP CONCENTRATES
1 LUV EXTRACTS ,PAAA-VJ1H-OQID,1LUVEXTRACTSOK@GMAIL.COM,4056969460,EDMOND,73034,LOGAN,processor,
CLOUD 9INE SOLUTIONS LLC ,PAAA-NKLK-S8IT,MARCIALMITCHELL@COX.NET,4058308228,EDMOND,73013,OKLAHOMA,processor,
"MAPLE TREE 405, LLC ",PAAA-NKPL-BMRU,INKY3818BYE@YAHOO.COM,7146866299,EDMOND,73012,OKLAHOMA,processor,
710 DIAMOND CO OK LLC ,PAAA-4YOP-X1VM,710DIAMONDCO@GMAIL.COM,8326104938,EDMOND,73025,LOGAN,processor,
PLANTXTECH. LLC ,PAAA-NKZJ-C3RA,BREENE@VISUALLIZESOLAR.COM,6503029376,EDMUND,73025,OKLAHOMA,processor, PLANTXTECH
YETIVA PROCESSING LLC ,PAAA-7GXD-EGC2,INFO.YETIVAFARMS@GMAIL.COM,4056400319,EL RENO,73036,CANADIAN,processor, YETIVA FARMS
HIRB 66 LLC ,PAAA-NJKW-GNJ1,JULIENEWPORT3@YAHOO.COM,4056509203,EL RENO,73036,CANADIAN,processor, ROOT 66 WELLNESS
CAS GOWERS GROUP LLC ,PAAA-E1ZR-QOCI,PHILLIPSTOLL@GMAIL.COM,5806952262,ELGIN,73538,COMANCHE,processor, FARMER FEEL GOOD
"GAIA GREEN CAPITAL, LLC ",PAAA-41GE-BUKO,SWHITEHORN06@GMAIL.COM,8014004701,ELGIN,73538,COMANCHE,processor, ELVEN GARDENS
HE-SHENG LLC ,PAAA-H4UN-T7A1,MATT@STACYLEGALGROUP.COM,4058167228,ELK CITY,73644,BECKHAM,processor, HE-SHENG LLC
HERBILLEST EXTRACTIONS LLC ,PAAA-Z8LG-DTRR,HERBILLESTEXTRACTIONS@GMAIL.COM,7192896585,ELK CITY,73644,BECKHAM,processor, ILLEST EXTRACTIONS
"WB CREATIONS, LLC ",PAAA-4KWN-61HX,DLBROOKS88@OUTLOOK.COM,5802438241,ELK CITY,73644,BECKHAM,processor, WB CREATIONS
"FIRE FACTORY PROCESSING, LLC ",PAAA-VKK0-S5MW,FIREFACTORYLLC@GMAIL.COM,9403003083,ELMORE CITY,73433,GARVIN,processor,
HAMMRICH LLC ,PAAA-EYP8-MIOC,SEBAMACHI@GMAIL.COM,7203185391,ELMORE CITY,73433,GARVIN,processor, TRUELY BAKED LLC
OLDE KAT LLC ,PAAA-QQN6-TGIN,OLDEKATLLC@GMAIL.COM,4058379028,ELMORE CITY,73433,GARVIN,processor, OLDE KAT LLC
"VC GREEN, LLC ",PAAA-4J6N-QIYL,MATT@STACYLEGALGROUP.COM,4058167228,ELMORE CITY,73010,GARVIN,processor, VC GREEN LLC
INFAMOUS OG LLC ,PAAA-EK3U-IMU9,INFAMOUSOGLLC@GMAIL.COM,5804782533,ENID,73701,GARFIELD,processor, INFAMOUS OG LLC
J&M PROCESSING ,PAAA-QX7K-FPML,GREENERLIVING1326@GAMIL.COM,5807472790,ENID,73701,GARFIELD,processor,
NATURAL REMEDIES MMJ LLC ,PAAA-LB1N-Q31A,MC@NATURALREMEDIESMMJ.COM,5807474494,ENID,73701,GARFIELD,processor,
"PLATINUM LABS,  LLC ",PAAA-41S9-PXXA,PLATINUMLABS78@GMAIL.COM,5805428430,ENID,73701,GARFIELD,processor, PLATINUM LABS
POT BELLIES LLC ,PAAA-4JSR-FBGZ,SCRAPER1947@GMAIL.COM,5807476415,ENID,73703,GARFIELD,processor, POT BELLIES LLC
"PRIME WHOLESALE, LLC ",PAAA-8RWY-NOAQ,PRIME.OKLAHOMA@GMAIL.COM,4056574174,ENID,73703,GARFIELD,processor," PRIME WHOLESALE, LLC"
"YABBA DAB EXTRACTS, LLC ",PAAA-N1TF-K8H7,YABBADABEXTRACTS@GMAIL.COM,4242880278,ENID,73703,GARFIELD,processor, YABBA DABS
"PROJECT 412, LLC ",PAAA-NKY4-GLEP,UFC9001@YAHOO.COM,5802378289,ENID,73701,GARFIELD,processor," PROJECT 412, LLC"
CANNABIS CREATIONS PROCESSING ,PAAA-VJDQ-X41Q,C.CARPENTER@PROIL.US,5802438894,ERICK,73645,BECKHAM,processor, CANNABIS CREATIONS PROCESSING
CANNA CONNECT LABS LLC. ,PAAA-XE0Q-FUVH,CANNACONNECTLABS@YAHOO.COM,8169128312,EUFAULA,74432,PITTSBURG,processor, CANNA CONNECT LABS
DNC OKLAHOMA WORKS. LLC ,PAAA-EY8L-LYTW,DC.OKLAHOMA.FARM@GMAIL.COM,4059653028,AMBER,73004,GRADY,processor,
SPARK CANNABIS CO. ,PAAA-EQAI-SLD9,SINGH.HARP@ICLOUD.COM,4055016795,ANADARKO,73005,CADDO,processor, SPARK CANNABIS CO.
GOOD CROPS PRODUCTS ,PAAA-N1FK-N3UP,ALEXCORN1991@GMAIL.COM,5802717017,ANTLERS,74523,PUSHMATAHA,processor, ACORN EXTRACTS
20 ANTLERS FARM GROUP LLC ,PAAA-6FEJ-0JQB,MATT@STACYLEGALGROUP.COM,4058167228,ANTLERS,74523,CHOCTAW,processor,
"""LOUD LABZ"" ",PAAA-4JYG-AD2Z,1BOWHUNTNFOOL@GMAIL.COM,5803518828,APACHE,73006,COMANCHE,processor, LOUD LABZ
"SOUTHERN PLAINS PROCESSING, LLC ",PAAA-4YSL-V312,TJASPER@SPP-OK.COM,2144929962,APACHE,73006,CADDO,processor,
M & S PROCESSING INC ,PAAA-4JY8-6X4E,INFO@MED-SHED.COM,8018078918,ARAPAHO,73620,CUSTER,processor, STICKS AND STONED
"MEDICANN-OK EXTRACTS, LLC ",PAAA-NJVT-RBFH,MEDICANNOK@GMAIL.COM,4054645554,ARCADIA,73007,OKLAHOMA,processor,
ALL OF THE ABOVE ,PAAA-NKOR-GALU,ALICIAM07@GMAIL.COM,9403907940,ARDMORE,73401,CARTER,processor,
AWESOME REMEDIES LLC ,PAAA-418K-I9RZ,AWESOMEREMEDIESLLC@GMAIL.COM,5805042169,ARDMORE,73401,CARTER,processor,
BLISS HUT BAKERY ,PAAA-4KQE-MIO4,BEAN9150@GMAIL.COM,5804901845,ARDMORE,73401,CARTER,processor,
"BS FARMS, LLC. ",PAAA-VK0Y-MQUM,BSHEARING76@GMAIL.COM,5804651990,ARDMORE,73401,CARTER,processor," BS FARMS, LLC"
"CARTER COUNTY EXTRACTS, INC. ",PAAA-NKNM-0GP0,STACY@JOHNSULLIVANINSURANCE.COM,5802210528,ARDMORE,73401,CARTER,processor," CARTER COUNTY EXTRACTS, INC."
CLOVERLEAF GREENS LLC ,PAAA-4YXO-JGUH,CLOVERLEAFOK@GMAIL.COM,5804901808,ARDMORE,73401,CARTER,processor, GOOD LUCK PROVISIONS
DOWNTREE PROCESSING LLP ,PAAA-VK0I-N5JV,DOWNTREEPROCESSING@GMAIL.COM,7602901599,ARDMORE,73401,CARTER,processor, DOWNTREE PROCESSING
DAHUTT MEDICAL LLC ,PAAA-4KID-S8JT,AAASERVICESLLC@YAHOO.COM,9184070594,EUFAULA,74432,MCINTOSH,processor,
"ESCALATED GREENS, INC ",PAAA-VJLC-B35U,ANGEL@WACDR.COM,9186180618,EUFAULA,74432,MCINTOSH,processor," ESCALATED GREENS, INC"
"GREEN RUSH PROCESSING, LLC ",PAAA-4YD0-6CTM,GREENRUSHPROCESSINGLLC@GMAIL.COM,9186182262,EUFAULA,74432,PITTSBURG,processor, GREEN RUSH PROCESSING LLC
"LAKE AND BAKE SHOP, LLC ",PAAA-4KM3-ZROE,SHAWNBURCHAM@AOL.COM,2142051564,EUFAULA,74432,PITTSBURG,processor,
THRIVE EXTRACTS LLC ,PAAA-YQNG-HXZ7,REDSKYRANCHOK@GMAIL.COM,9187609429,EUFAULA,74432,MCINTOSH,processor, THRIVE CANNABIS COMPANY
PHARMAFLOWER GROUP INC ,PAAA-MV9X-YWUE,WALKERPJOK@GMAIL.COM,5804853703,FAIRFAX,74637,OSAGE,processor,
WILD HERB LLC ,PAAA-EJVQ-PNQB,CHUFFMAN@WILDHERBLLC.COM,4058342029,FAIRFAX,74637,OSAGE,processor, WILD HERB LLC
INDIE FLOWER INC ,PAAA-G3XE-Q9ED,JWF1230@GMAIL.COM,9186193221,FAIRLAND,74343,OTTAWA,processor,
JMP AGRICULTURAL FARMS OF NORTH EASTERN OKLAHOMA INC. ,PAAA-NYO5-GT8N,USAFLYER@SBCGLOBAL.NET,4058803791,FAIRLAND,74343,OTTAWA,processor, EVERGREEN WELLNESS
MONKEY ISLAND MEDICINAL LLC ,PAAA-EYRL-KQPD,LILBLADE96@GMAIL.COM,9183146819,FAIRLAND,74343,OTTAWA,processor,
"ALPHA AGRONOMIC EXTRACTS, LLC ",PAAA-41KH-LQ4X,RACHEL@ALPHAAGPRODUCTS.COM,5805418998,FAIRVIEW,73737,MAJOR,processor, CLOVER EDIBLES & TINCTURES
WICKED SISTER'S CANNABIS COMPANY LLC ,PAAA-EK6K-4IK5,LZBTHDEUNK@YAHOO.COM,5804026058,FAIRVIEW,73737,MAJOR,processor," WICKED SISTER""S CANNABIS COMPANY"
DCFB LLC ,PAAA-N1FJ-IYW8,DEWELLBREWER@GMAIL.COM,5806477246,FAXON,73540,COMANCHE,processor, MAD SCIENTIST CANNABIS COMPANY
C & J   GROW & PROCESSOR LLC ,PAAA-ZYTL-6AF7,COMPLIANCE@HIGHSOCIETYOK.COM,4056135816,FLETCHER,73541,COMANCHE,processor, C & J GROW & PROCESSOR LLC
M&D BARN LLC ,PAAA-NKE7-PAFH,TIM@HIGHSOCIETYOK.COM,4059238930,FLETCHER,73541,COMANCHE,processor,
"DEW BEE SWEET, LLC ",PAAA-OQEL-VY32,DEWBEESWEET@GMAIL.COM,9188686839,FORT GIBSON,74434,MUSKOGEE,processor, DEW BEE SWEET
WAVVVVVY PRODUCTIONS LLC ,PAAA-N1WT-IBZH,KBGREENEINVESTMENT@GMAIL.COM,4254964824,FOSTER,73434,OKLAHOMA,processor, WAVVVVVY PRODUCTIONS
"OK MEDICAL PLANT PROCESSING, LLC ",PAAA-VK6H-5EJS,DAN@OKRXPLANT.COM,9185219180,FREDERICK,73542,TILLMAN,processor, OK MEDICAL PLANT PROCESSING
JACKPOT LABS ,PAAA-NYX9-K0E8,JACKPOTACRES@YAHOO.COM,5803724606,FT TOWSON,74735,CHOCTAW,processor, JACKPOT LABS
MOBOOZLE LLC ,PAAA-VK6W-UO9O,GAMBRELL75@GMAIL.COM,9185712620,GANS,74936,SEQUOYAH,processor, THE HEALING CANNABIS STORE
"GOD'S NATURAL GIFT, LLC ",PAAA-IEC7-UIEL,GODSNATURALGIFT7@GMAIL.COM,5802127766,GARVIN,74736,MCCURTAIN,processor, HIGHLY DISSIPATED
"CHICKNTACO, LLC ",PAAA-0SXZ-IZT7,DUGHOOTEN@AOL.COM,4058080252,GEARY,73040,BLAINE,processor, CHICKNTACO
KASHMIR EXTRACTIONS LLC ,PAAA-4JKQ-Q5MU,KASHMIREXTRACTIONS@GMAIL.COM,5803303537,GEARY,73040,CANADIAN,processor,
"ANVIL PROCESSING, LLC ",PAAA-YNTZ-WX3D,DHOWELL@GREENGROWLABS.COM,4056121187,GLENCOE,74032,PAYNE,processor," ANVIL PROCESSING, LLC"
BURNETT FARMS ,PAAA-N1LU-ZW9U,BURNETTFARMS13@GMAIL.COM,4057470896,GLENCOE,74032,PAYNE,processor, INFINITY PHARMS
"BURNETT FARMS, LLC ",PAAA-NJLY-VWKH,BURNETTFARMS13@GMAIL.COM,4057470896,GLENCOE,74032,PAYNE,processor, BURNETT FARMS
"SAGE FARMS, LLC. ",PAAA-NKS2-M1IX,BNEAL@SAGE.FARM,9188528878,GLENPOOL,74033,TULSA,processor, STERLING CANNABIS COMPANY
788TECHNOLOGIES CORPORATION ,PAAA-4JM4-BRZF,STAN@788TECHNOLOGIES.COM,4052295072,GOLDSBY,73093,MCCLAIN,processor, BISON & ROSE
710.X LLC ,PAAA-4JOS-OQTU,BASSHUNTERSHANE@GMAIL.COM,9183465123,GOLTRY,73739,ALFALFA,processor, BOBBY WINFREY
DOC ROSIN EXTRACTS LLC ,PAAA-EYCJ-IIMZ,KWSOONER@YAHOO.COM,5803181568,GRANDFIELD,73546,TILLMAN,processor,
LAZY VS LLC ,PAAA-4YM5-DFBN,VECHRIS3@GMAIL.COM,9034238038,GRANT,74738,CHOCTAW,processor, LAZY VS LLC
"PHARM AIDE PHARMS, LLC ",PAAA-E1EL-ZAI9,PHARMAIDEPHARMS@YAHOO.COM,5803269326,GRANT,74738,CHOCTAW,processor, PHARM AIDE PHARMS
TADPOL WELLENESS CORPORATION ,PAAA-41UM-BXAB,TADPOL420@GMAIL.COM,8177713708,GRANT,74738,CHOCTAW,processor, TADPOL WELLENESS CORPORATION
GROWSTAR LLC ,PAAA-4K2U-ZZHR,JGSTARR5@YAHOO.COM,7032093322,GROVE,74344,DELAWARE,processor, GROWSTAR LLC
HONEY CREEK LABS LLC ,PAAA-E14G-M1XX,ANDY@HONEYCREEKLABS.COM,9188016000,GROVE,74344,DELAWARE,processor,
HONEY HOUSE ROSIN COMPANY LLC ,PAAA-4KAS-IQLU,APBTBCH@GMAIL.COM,9188011656,GROVE,74344,DELAWARE,processor,
"J & S PROCESSING, LLC ",PAAA-2FYL-LZYA,LUCKY.LADIES.FARM.OK@GMAIL.COM,8169299461,GROVE,74344,DELAWARE,processor," J & S PROCESSING, LLC"
J&O ENT LLC ,PAAA-EKN5-BSXN,BUDDIAMONDSINC@GMAIL.COM,9183144047,GROVE,74344,OKLAHOMA,processor, BUD DIAMONDS
KONG CONCENTRATES LLC ,PAAA-NYSE-PYO4,GRBECKMAN@GMAIL.COM,7854333388,GROVE,74344,DELAWARE,processor,
MISSBEHAVIN MANUFACTURING LLC ,PAAA-P9NB-SODX,SCUBATHOM65@GMAIL.COM,8179373000,GROVE,74344,DELAWARE,processor, MISS BEHAVIN' CANNABIS COMPANY
AI QUN LIN LLC ,PAAA-EKED-QYHU,MATT@STACYLEGALGROUP.COM,4058167228,GUTHRIE,73044,LOGAN,processor, AI QUN LIN LLC
GOLDEN GLASS LLC ,PAAA-4JTF-GJKV,DAN.W.LUNDGREN@GMAIL.COM,4057477790,GUTHRIE,73044,LOGAN,processor,
GOLDSTONE PROCESSING LLC ,PAAA-VY2L-JRDN,GOLDSTONEFARMS@YAHOO.COM,4054319551,GUTHRIE,73044,LOGAN,processor,
GREEN UNICORN LLC ,PAAA-4KO9-NIKQ,AARON.PENIX@COX.NET,4056354807,GUTHRIE,73044,LOGAN,processor, GREEN UNICORN CANNABIS
"HIGH HORSE, LLC ",PAAA-FPMQ-TRTM,JRJOHN2002@GMAIL.COM,3168060001,GUTHRIE,73044,LOGAN,processor,
HONEY CREEK EXTRACTS ,PAAA-NJ3B-BZBH,CHARLY.GONZALEZ@HONEYCREEKEXTRACTS.COM,9182772016,GUTHRIE,73044,LOGAN,processor,
KIND OKIE LLC ,PAAA-EJVI-LZ5K,FRED@LIVINGINVESTMENT.COM,4057612962,GUTHRIE,73044,LOGAN,processor, KIND OKIE CANNABIS
MINT VENTURES LLC ,PAAA-PLFJ-LUOM,JHAYS9222@GMAIL.COM,4053657674,GUTHRIE,73025,LOGAN,processor, MVP
NATIVE VITAITY LLC ,PAAA-4KX2-NSN8,NATIVEVITALITYLLC19@GMAIL.COM,4059066282,GUTHRIE,73044,LOGAN,processor, NATIVE VITALITY
PH KITCHEN LLC ,PAAA-E1HB-AS9P,ANDREWJACKSON1105@GMAIL.COM,4058088851,GUTHRIE,73044,LOGAN,processor,
RELIABLE PROCESSORS LLC ,PAAA-NJTN-QPPI,QUADRANT3@YAHOO.COM,4054300162,GUTHRIE,73044,LOGAN,processor,
RIDE THE SKYWAY ,PAAA-DIMY-1FBQ,BK@RIDETHESKYWAY.COM,4055906869,GUTHRIE,73044,LOGAN,processor, SKYWAY
"SEVERUS PROCESSORS, LLC ",PAAA-OVEC-AU07,RNOPRODUCTIONS@GMAIL.COM,4052699085,GUTHRIE,73044,LOGAN,processor,
"SMS FARMS, LLC ",PAAA-4JNN-YCCL,SMSFARMSLLC@GMAIL.COM,4054443030,GUTHRIE,73044,LOGAN,processor, HIGH HORSE CANNABIS
SUNDAY EXTRACTS ,PAAA-EKUG-WNID,JESSE@REDDIRTSUNGROWN.COM,4052032754,GUTHRIE,73044,LOGAN,processor, SUNDAY EXTRACTS
SUNDAY EXTRACTS LLC ,PAAA-NYIN-5SXK,INFO@SUNDAYEXTRACTS.COM,4056983134,GUTHRIE,73044,LOGAN,processor, SUNDAY EXTRACTS
TERRY'S HAZE COLLECTIVE L.L.C ,PAAA-4K6P-WBU7,TERRYSHAZECOLLECTIVE@GMAIL.COM,4053615838,GUTHRIE,73044,OKLAHOMA,processor,
"THE GOAT LAB, LLC ",PAAA-TKL1-BIGQ,DAN@APLINEOK.COM,4053263182,GUTHRIE,73044,LOGAN,processor," THE GOAT LAB, LLC"
URBAN FLORA EXTRACTS LLC ,PAAA-NJMG-K4EL,INFO@URBANFLORAHERB.COM,4059968061,GUTHRIE,73044,LOGAN,processor, URBAN FLORA EXTRACTS
VETERIBUS LLC ,PAAA-TC7V-AK92,KEVENHAYGOOD@COX.NET,4052422072,GUTHRIE,73044,LOGAN,processor,
WANG WANG LLC ,PAAA-NKYZ-JY1I,MATT@STACYLEGALGROUP.COM,4057353800,GUTHRIE,73044,LOGAN,processor, WANG WANG LLC
WHITE LABEL PROCESSING INC. ,PAAA-SKHR-UXWG,HOLZBAUGH@YAHOO.COM,4058378873,GUTHRIE,73044,LOGAN,processor, WHITE LABEL PROCESSING INC.
CANNABLESS PROCESSOR 7 LLC ,PAAA-0NYD-9LRO,CSISERVICESOKC@GMAIL.COM,4054569997,GUTHRIE,73044,LOGAN,processor, CANNABLESS PROCESSOR 7
MEDECINE WHEEL 420 LLC ,PAAA-EJOA-GFYC,MEDECINEWHEEL420@GMAIL.COM,4052274240,GUTHRIE,73044,LOGAN,processor, MEDECINE WHEEL 420
JOE BEAR CANDY COMPANY LLC ,PAAA-VKYD-RPUU,OK.KOALAEDIBLES@GMAIL.COM,5806519079,GUYMON,73942,TEXAS,processor, KOALA EDIBLES
CROOKED RIVER PROCESSING ,PAAA-VJF7-RRZF,CROOKEDRIVERCULTIVATORS@GMAIL.COM,5803030732,HAMMON,73650,CUSTER,processor,
CANADIAN BLUFFS LLC ,PAAA-UEBA-YCRD,MATT@STACYLEGALGROUP.COM,4058167532,HANNA,74845,MCINTOSH,processor,
ALTERED STRAIN LLC ,PAAA-OIKG-DUXT,MIKE@ALTEREDSTRAIN.COM,4058237190,HARRAH,73045,OKLAHOMA,processor, ALTERED STRAIN
CULTIVATOR'S CHOICE ,PAAA-V1ZD-TYVN,CHRISHERRIN447@GMAIL.COM,9092627750,HARRAH,73045,OKLAHOMA,processor, CULTIVATORS CHOICE LLC
EXTRINSIC AMBITIONS LLC ,PAAA-HBJE-EQVU,JOSEPH.HALPIN1@GMAIL.COM,4055653236,HARRAH,73045,OKLAHOMA,processor, EXTRINSIC AMBITIONS
QANNABIS CREATIONS ,PAAA-YEOH-REWZ,MUTINY116@GMAIL.COM,5124339090,HARRAH,73045,OKLAHOMA,processor, QANNABIS JOINTS
SERENITY CHEMISTRY LLC ,PAAA-GRZW-MJFK,SERENITYCHEMISTRY@GMAIL.COM,4054299802,HARRAH,73045,OKLAHOMA,processor,
"SWEET SAP EXTRACTS, LLC ",PAAA-4JOU-VNAH,JHENSON@SWEETSAPEXTRACTS.COM,4053140530,HARRAH,73045,OKLAHOMA,processor, SWEET SAP EXTRACTS
TBM INDUSTRIES INC ,PAAA-CCXE-LGRU,TLBAUER44@GMAIL.COM,4697040828,HARRAH,73045,OKLAHOMA,processor,
WESTERN DISTRIBUTION COMPANY ,PAAA-VJZP-SARJ,JEB.GOOSE5113@GMAIL.COM,4059052149,HARRAH,73045,OKLAHOMA,processor,
"PRIME ELEVATION, LLC ",PAAA-VLSU-UIPF,AARONDEERING@ME.COM,9189173517,HARTSHORNE,74547,PITTSBURG,processor,
THOMAS RAY SMITH ,PAAA-E1UO-N4QU,CZ17HMR2@ATT.NET,9182975707,HARTSHORNE,74547,PITTSBURG,processor, NATURE'S GIFT
"ALTUM GROUP, LLC ",PAAA-416Y-9JMV,JORDANANDERSON89@GMAIL.COM,3612326916,HASKELL,74436,MUSKOGEE,processor, ALTERRA WELLNESS
CONCHARTY MOUNTAIN FARM LLC ,PAAA-MRJA-NWZK,CONCHARTYMOUNTAINFARM@GMAIL.COM,9186297680,HASKELL,74436,OKMULGEE,processor, CONCHARTY MOUNTAIN FARM LLC
D DRAKE INC ,PAAA-NYII-BTWE,DANDRAKE448@GMAIL.COM,9185213554,HASKELL,74436,MUSKOGEE,processor,
"OKIE EXPRESS SALES & TRANSPORT, INC. ",PAAA-VKJ8-MKQB,ISAACCAVINESS@GMAIL.COM,9186368818,HASKELL,74436,OKMULGEE,processor," OKIE EXPRESS SALES & TRANSPORT, INC."
YELLOW DOG EXTRACTS LLC ,PAAA-GOF8-DLTV,LDRICE2007@YAHOO.COM,9184093936,HASKELL,74436,MUSKOGEE,processor, YELLOW DOG EXTRACTS LLC
NATURALLY ROOTED FARMS PROCESSING LLC ,PAAA-NYRM-QXFU,NATURALLYROOTEDOK@GMAIL.COM,9036910098,HAWORTH,74740,MCCURTAIN,processor,
DIAMOND B GARDENS LLC ,PAAA-V2ZI-JSIU,DIAMONDBGARDENS@GMAIL.COM,2108965757,HEALDTON,73438,CARTER,processor, DIAMOND B GARDENS
"SH AGRI, LLC ",PAAA-RV30-X1UW,SHURSTFARM@YAHOO.COM,5802646163,HEALDTON,73438,STEPHENS,processor, LOCO FIRE
"THE FARMA GROUP, LLC ",PAAA-GGX9-RQXJ,SALES@THEFARMAOK.COM,2146206060,HEALDTON,73438,CARTER,processor, FARMHOUSE HASH
LAKE ROSE MARIJUANA LLC ,PAAA-4JVT-NZOO,LAKEROSEFARMOK@GMAIL.COM,5802852700,HENDRIX,74741,BRYAN,processor," LAKE ROSE FARM, LLC."
ICE CITY EXTRACTS L.L.P ,PAAA-RG1L-SXD0,KJACK842004@YAHOO.COM,4059215408,HENNESSEY,73742,KINGFISHER,processor, ICE CITY EXTRACTS LLP
"M5 PROCESSING, LLC ",PAAA-E17P-QJXM,M5FARMS@YAHOO.COM,4052529902,HENNESSEY,73742,KINGFISHER,processor," M5 PROCESSING, LLC"
"BYCP OKLAHOMA, INC. ",PAAA-RRNE-BIYR,SSLEGER@CREWCMD.COM,4055886086,HENRYETTA,74437,OKLAHOMA,processor, NA
FIREMEDS LLC ,PAAA-GFFH-PLZG,FIREMEDSCANNABIS@GMAIL.COM,9182684216,HENRYETTA,74437,OKMULGEE,processor, FIREMEDS CANNABIS
"NATIVE THERAPEUTICS LTD., CO. ",PAAA-4KVA-GTVB,GMATTHEW.RICHARDSON@GMAIL.COM,9186716988,HENRYETTA,74437,OKMULGEE,processor, NONE
"WM BROTHERS, LLC ",PAAA-TC6H-ICOK,KSUMTER@KADAM.TECH,9189043283,HENRYETTA,74437,OKMULGEE,processor,
"AERO LABS EXTRACTION & TESTING, LLC ",PAAA-E1LB-MMGD,MATTHUNGERFORD12@GMAIL.COM,4058243600,HINTON,73047,CADDO,processor, AERO LABS
SCOOBY & SHAGGY LLC ,PAAA-PQWN-WHIJ,VANAMBUD@AOL.COM,2546441631,HINTON,73047,CANADIAN,processor,
"PLAT FARM, LLC ",PAAA-V1FH-2CLI,CONTACT+PLAT@GOODKUSHCO.US,4053566661,HOLDENVILLE,74848,HUGHES,processor, PLAT FARM
DESERT EXTRACTS LLC ,PAAA-4YED-GL49,OKDESERTEXTRACTS@GMAIL.COM,5803181613,HOLLIS,73550,HARMON,processor, DESERT EXTRACTS LLC
EXOTIC CANNABIS LLC ,PAAA-KMMY-NQ4O,ALANSOLEYMAN@YAHOO.COM,3102799521,HOMINY,74035,OSAGE,processor,
GROW CANNABIS LLC ,PAAA-5WBP-GTYU,GROWCANNABISLLC@GMAIL.COM,9183446130,HOMINY,74035,OSAGE,processor, GROW CANNABIS LLC
"TOTEM SOLUTIONS, LLC ",PAAA-AN3Q-HQGQ,JAMES@LYTAL.COM,9185214108,HONOBIA,74549,PUSHMATAHA,processor," TOTEM SOLUTIONS, LLC"
TWO TS TREES LLC ,PAAA-NYFQ-WYDD,RODNEY@THEJAMBROS.COM,5804613768,HOOKER,73945,TEXAS,processor,
PUNCHEE BUD ,PAAA-E1DX-5WDV,PUNCHEEBUD@GMAIL.COM,9186495156,HOWE,74940,LE FLORE,processor,
RANDY'S CANDY ,PAAA-NJUK-F6EL,RANDY@RANDYSCANDY.WTF,7194929504,HUGO,74743,CHOCTAW,processor,
TC LANE FARMS LLC ,PAAA-XUUM-T9Q2,TODLANE@OUTLOOK.COM,4053171997,HUGO,74743,CHOCTAW,processor, TC LANE FARMS LLC
SHELBY LTD. CO. ,PAAA-ADR7-HZDB,THEDRUGGISTOK@GMAIL.COM,9188221919,HULBERT,74441,CHEROKEE,processor, THE DRUGGIST
"RT. 66 XTRACT, LLC ",PAAA-4YGS-O1DH,KAREN@RT66XTRACTS.COM,4055450810,HYDRO,73048,CADDO,processor,
ELITE GREEN LEAF LLC ,PAAA-OUMY-NMBL,JANICE.LONG@SETCOTIRE.COM,9032495260,IDABEL,74745,MCCURTAIN,processor, ELITE GREEN LEAF LLC
LUNCH BOX LADIES LLC ,PAAA-W4HA-MUIR,ROBYNJOHNSON@CABLEONE.NET,9032449275,IDABEL,74745,MCCURTAIN,processor, GREEN SMILE EDIBLES
"MCCURTAIN WELLNESS HOLDINGS, INC. ",PAAA-OXOS-TFKD,TESSA.ONEY88@GMAIL.COM,5802125989,IDABEL,74745,MCCURTAIN,processor, THE ONE & ONEY PROCESSING GROUP
"MCCURTAIN'S FINEST, LLC ",PAAA-VJKM-URWX,BRADFARLEY54321@GMAIL.COM,5806120618,IDABEL,74745,MCCURTAIN,processor,
"RED RIVER CANNABIS FARMS, LLC ",PAAA-EKMW-AMBV,ROK@SMITHKLUBECK.COM,4057085195,IDABEL,74745,MCCURTAIN,processor," RED RIVER CANNA FARMS, LLC"
"BLUESTEM FARMS , LLC ",PAAA-E10H-SXO7,BDRISKILL@JIVECANNABISCO.COM,9189025760,INOLA,74036,ROGERS,processor, JIVE CANNABIS CO
HERBAL EXTRACTIONS LABELING AND PROCESSING LLC ,PAAA-EKEW-7N8H,HELPEXTRACTIONS@GMAIL.COM,9186379358,INOLA,74036,MAYES,processor, HERBAL EXTRACTIONS LABELING AND PROCESSING LLC
TASTY FARMS TULSA LLC ,PAAA-N1IW-CD1I,JEANNEAN1@YAHOO.COM,9186293751,INOLA,74036,ROGERS,processor, TASTY FARMS TULSA LLC
"GREEN COUNTRY 710 REFINERY, LLC ",PAAA-E1YJ-WIFH,DEBRA@REDBARNGROUP.CO,9185437245,INOLA,74036,ROGERS,processor, RED BARN CANNABIS KITCHEN CO.
"PAM GREEN, LLC ",PAAA-EYOJ-AZFU,MATT@STACYLEGALGROUP.COM,4057353800,JAY,74346,DELAWARE,processor," PAM GREEN, LLC"
"POOLE FARMS LL, LLC ",PAAA-N1D7-MVYV,FOXYGIANTS@YAHOO.COM,9188052462,JAY,74346,DELAWARE,processor," POOLE FARMS LL, LLC"
GROGENEX LLC ,PAAA-E1K1-DIFU,DRJOSHWEDMAN@GMAIL.COM,9183462590,JENKS,74037,TULSA,processor, GROGENEX LLC
"ELITE EXTRACTIONS, LLC ",PAAA-VKEE-WH9N,BUDDYMOORE2@ATT.NET,4057612217,JONES,73049,OKLAHOMA,processor," ELITE EXTRACTIONS, LLC"
SAFFIRE LLC ,PAAA-8FMN-MRFT,LANCE@SAFFIRE.LLC,4056951498,JONES,73049,OKLAHOMA,processor, SAFFIRE LLC
ACR COMPANIES LLC ,PAAA-VJW7-KLAE,BTJ@BRIANTEDJONES.COM,4056398497,KELLYVILLE,74039,CREEK,processor,
HERBAL JUNCTION TRANSFORMATIONS LLC ,PAAA-EJ15-OWCO,RANDYGCS@GMAIL.COM,9188518505,KELLYVILLE,74039,CREEK,processor, HERBAL JUNCTION TRANSFORMATIONS
MOSS ROCK FARMS  LLC ,PAAA-NJTW-LWFX,MOSSROCKFARMS@GMAIL.COM,9184930135,KELLYVILLE,74039,CREEK,processor, SAUCED EXTRACTS
SUNNY FARMS LLC ,PAAA-MTQ9-QBZB,SUPPORT@SUNNYFARMSOK.COM,5806785431,KELLYVILLE,74039,CREEK,processor,
TNT MED SOLUTIONS LLC ,PAAA-NJYD-AINY,TNTMEDSOLUTIONS@GMAIL.COM,9184485003,KEOTA,74941,HASKELL,processor, TNT MED SOLUTIONS LLC
"FRYME, LLC ",PAAA-5MZV-MKD2,FRYMEOK@GMAIL.COM,4058338983,KEYES,73947,CIMARRON,processor,
"RPS2, LLC ",PAAA-4JMZ-RF6J,INFO@WHOLELEAF.NET,9185594100,KIEFER,74041,CREEK,processor," RPS2, LLC"
WPC PROCESSING LLC ,PAAA-4KGK-JM1V,MANAGER@3DOCS.NET,9189380894,KIEFER,74041,CREEK,processor, 3 DOCS EXTRACTS
"AUGUST PHARMS, LLC ",PAAA-4JA4-S27O,ROBIN@AUGUSTPHARMS.COM,4053680919,KINGFISHER,73750,KINGFISHER,processor,
NANA ZHANG ,PAAA-NJNX-AFK8,MATT@STACYLEGALGROUP.COM,4058167228,KINGFISHER,73750,KINGFISHER,processor, NANA ZHANG
PRAIRIE FIRE FARMS LLC ,PAAA-VKQA-JHY6,TYLER.PRAIRIEFIREFARMS@GMAIL.COM,9189919845,KINGFISHER,73750,KINGFISHER,processor, PRAIRIE FIRE FARMS LLC
CHRISTOPHER SCALLON ,PAAA-41NH-JENE,JBSTRAIN@FARMTOMARKETCANNABIS.COM,4054449333,KINGSTON,73439,MARSHALL,processor, FARM TO MARKET CANNABIS
"D & D NURSERY, LLC ",PAAA-4Y37-KENI,SPEEDMAN183@YAHOO.COM,5805654007,KINGSTON,73439,MARSHALL,processor," D & D NURSERY, LLC"
MERRITT AND HALE PROCESSING LLC ,PAAA-XJCS-LTUQ,JASON.MERRITT@MERRITTANDHALEFARMS.COM,8324860396,KINGSTON,73439,MARSHALL,processor, MERRITT AND HALE PROCESSING LLC
"STINKY FIELDS, LLC ",PAAA-VY8W-N4JL,BRIERCREEKMEDICAL@YAHOO.COM,9032712645,KINGSTON,73439,MARSHALL,processor,
FANCY PLANTS PROCESSING LLC ,PAAA-4Y3N-M1CS,FANCYPLANTSPROCESSING@GMAIL.COM,5805040019,ARDMORE,73401,CARTER,processor,
GENESIS BRANDS LLC ,PAAA-UUEP-D4H7,BRIANPAGE@GENESISOKLAHOMA.COM,9405952436,ARDMORE,73401,CARTER,processor," GENESIS BRANDS, LLC"
GRAVES FARM ORGANICS LLC ,PAAA-EYKG-PCTX,GRAVESFARM.OKLAHOMA@GMAIL.COM,5802225255,ARDMORE,73401,CARTER,processor, GRAVES FARM
GREEN INFUSION LLC ,PAAA-N1YA-MQDP,INFO@REDDIRTBUDZ.COM,5805042133,ARDMORE,73401,CARTER,processor, GREEN INFUSION LLC
HJB HOLDINGS LLC ,PAAA-2WMG-STFB,LICESING@HJBHOLDING.COM,5803191286,ARDMORE,73401,CARTER,processor, HJB HOLDINGS LLC
HONEY JANE FARMS LLC ,PAAA-EK8Q-TSJC,LJVANPELT@GMAIL.COM,6024691184,ARDMORE,73401,CARTER,processor, HONEY JANE
INFINITY LABS LLC ,PAAA-CMX0-KTCC,INFINITYLABS77@GMAIL.COM,4052465341,ARDMORE,73401,CARTER,processor,
JR SHIRLEY ENTERPRISES LLC ,PAAA-4JGS-WDNH,JRSENTERPRISE@GMAIL.COM,5805040825,ARDMORE,73401,CARTER,processor,
KTZ PARTNERS LLC ,PAAA-VKCE-5QU3,MATT@KTZOK.COM,4057087722,ARDMORE,73401,OKLAHOMA,processor, GREEN BUFFALO HOLDINGS
MODERN HIPPIES ,PAAA-EYMW-SJ5G,GARY.WILSIE@YAHOO.COM,2146702715,ARDMORE,73401,CARTER,processor,
OKIE DOKIE GREENARY INC. ,PAAA-6JPB-VTSD,GBASNET0950@GMAIL.COM,2818145887,ARDMORE,73401,CARTER,processor,
PEACE OF MIND PROCESSING LLC ,PAAA-BROM-BJLZ,PEACEOFMINDPROCESSING@YAHOO.COM,5803196914,ARDMORE,73401,CARTER,processor, PEACE OF MIND PROCESSING
R&D ORGANIC HEALTH INC ,PAAA-EY8Y-P1YP,OKCDISP@YAHOO.COM,2544850894,ARDMORE,73401,CARTER,processor, R&D ORGANIC HEALTH INC
"ROCKTOP PRODUCTION, LLC ",PAAA-NKX3-K6NY,GREERANDMCGILL@YAHOO.COM,5802265770,ARDMORE,73401,CARTER,processor, ROCKTOP PRODUCTION
SMOKING DRAGON PHARMS LLC ,PAAA-ZSQO-RB2Q,DEVINGARRETT34@YAHOO.COM,5804902684,ARDMORE,73401,CARTER,processor, SMOKING DRAGON PHARMS
"FUSION AMS, LLC ",PAAA-EYFO-Q6CS,FUSIONAMSOK.KATIE@GMAIL.COM,5805746636,LAWTON,73507,COMANCHE,processor," FUSION AMS, LLC"
"GREEN HILL FARMS, LLC ",PAAA-U4KO-MFS0,TRAVIS.MCBRIDE88@GMAIL.COM,5806786350,LAWTON,73507,COMANCHE,processor, GREEN HILL FARMS
"JAKE, INC. ",PAAA-41ZJ-ZSLD,580JAKE@PROTONMAIL.COM,5805950619,LAWTON,73507,COMANCHE,processor,
"MEDICAL FARM-A-SEED, LLC ",PAAA-EJVN-2E6A,SNOTDOC8@GMAIL.COM,5802481410,LAWTON,73505,COMANCHE,processor," MEDICAL FARM-A-SEED , LLC"
"OK NICE CREAM, LLC ",PAAA-NJL8-QSZX,DERRELL@OKNICECREAM.COM,5806999905,LAWTON,73501,COMANCHE,processor," OK NICE CREAM, LLC"
SPACE COWBOY EXTRACTS LLC ,PAAA-VJEP-3QDE,ICUTGRASS.SERVICE@GMAIL.COM,5702446539,LAWTON,73505,COMANCHE,processor,
SUGAR SHACK SO CAL LLC ,PAAA-4YXB-B849,SHANESCONCE@GMAIL.COM,5804833866,LAWTON,73501,COMANCHE,processor, SUGAR SHACK SO CAL LLC
"THE POT SPOT, LLC ",PAAA-NKVZ-OW00,TONYNGUYEN0082@GMAIL.COM,3169901006,LAWTON,73501,COMANCHE,processor, THE POT SPOT
"ZIONS KITCHEN, LLC. ",PAAA-V1YK-YGBR,SGOFSTEIN1@AOL.COM,4083106473,LAWTON,73501,COMANCHE,processor," ZIONS KITCHEN, LLC."
"3D PRODUCTS OF OKLAHOMA, LLC ",PAAA-N1RZ-MIAX,SEANMDAVIS1000@GMAIL.COM,4109007242,LAWTON,73501,COMANCHE,processor,
31FARMS LLC ,PAAA-ADZC-JI5J,BAIRD31FARMS@GMAIL.COM,5807048890,LAWTON,73501,COMANCHE,processor, 31FARMS LLC
ALPHA 64 FARMS LLC ,PAAA-VE99-PCEI,ALPHA6FARMS@GMAIL.COM,5805741813,LAWTON,73501,COMANCHE,processor,
CDXX PROCESSING S CORP LLC ,PAAA-V1W6-YIC9,FRESHSTART.INVESTMENTS.CORP@GMAIL.COM,2145432963,LEXINGTON,73051,CLEVELAND,processor, CDXX PROCESSING
K AND L CONSULTING LLC ,PAAA-N8WS-PXYH,LOGAN@KROMBOP.COM,4053431511,LEXINGTON,73051,CLEVELAND,processor, KROMBOPULOUS LABS
KERRIE OR RICHARD BLOOD ,PAAA-N1SK-JSF8,SMOKINOKIES@YAHOO.COM,4056236071,LEXINGTON,73051,CLEVELAND,processor, SMOKIN OKIES
SELECTIVE ATTENTION EXTRACTS LLC ,PAAA-41I3-DDFC,JOSH@TWISTEDROO.COM,9409993561,LEXINGTON,73051,CLEVELAND,processor, TWISTED ROO
THE PHARMHOUSE CANNABIS COMPANY ,PAAA-41KQ-DLVN,VALLEYGIRLTX@GMAIL.COM,8175210224,LEXINGTON,73051,CLEVELAND,processor, THE PHARMER'S MARKET ON LINDSEY STREET
"EXTRAVAGANT EXTRACTIONS, LLC ",PAAA-6S6C-UP2J,DAVID@THECANNASTATION.COM,7024687767,LINDSAY,73052,GARVIN,processor,
GOLDEN SUMMER LLC ,PAAA-LE66-Q4CF,JCSMITHLEGAL@GMAIL.COM,8152769418,LINDSAY,73052,MCCLAIN,processor, GOLDEN SUMMER
JGE PROCESSING LLC ,PAAA-NJKI-KQO8,JGEPROCESSING@GMAIL.COM,4053610995,LINDSAY,73052,MCCLAIN,processor,
KING CONCENTRATES LLC ,PAAA-N1ZR-YXH8,KINGCONCENTRATESOKC@YAHOO.COM,4058022273,LINDSAY,73052,MCCLAIN,processor,
NATIVE GREEN GENETICS LLC ,PAAA-ISOH-7FDR,GUNNERENTERPRISE@GMAIL.COM,2095052577,LINDSAY,73052,MCCLAIN,processor,
OUTTA THIS WORLD CANNABIS COMPANY LLC ,PAAA-ZZGX-5IRK,OUTTATHISWORLD2020@GMAIL.COM,4052682493,LINDSAY,73052,GARVIN,processor,
PACIFIC OCEAN LLC ,PAAA-N1FU-R6XI,PACIFIC.OCEAN.OK@GMAIL.COM,9178312261,LINDSAY,73052,GARVIN,processor, PACIFIC OCEAN LLC
"SCALABLE FARMS, LLC ",PAAA-NJKL-ZLOX,ZACKWORTHEY@GMAIL.COM,4054287170,LINDSAY,73052,GARVIN,processor,
"DG PROCESSING, LLC ",PAAA-SJCG-FYRG,REHABJPANDAL@GMAIL.COM,7862020926,LOCUST GROVE,74352,MAYES,processor,
GC PROCESSING LLC ,PAAA-NK7E-GZI7,CELLULARSUPPLY@GMAIL.COM,2103233652,LOCUST GROVE,74352,MAYES,processor," GREEN CROSS EXTRACTS, VIBE CONCENTRATES, THE SHATTER FACTORY"
GREEN GREEN COUNTRY EXTRACTS LLC ,PAAA-EJSW-ROCE,GREENCOUNTRYEXTRACTS@GMAIL.COM,9187240678,LOCUST GROVE,74352,CHEROKEE,processor,
NATURE'S FIX XTREME PROCESSING INC ,PAAA-RICG-CDLS,NFXPROCESSING@GMAIL.COM,9186376988,LOCUST GROVE,74352,MAYES,processor,
SOW + HARVEST COMPANY LLC ,PAAA-4YYC-SSRN,SOWANDHARVESTCO@GMAIL.COM,9188456494,LOCUST GROVE,74352,MAYES,processor,
THE MEDICAL JOINT LLC ,PAAA-AFKT-VPV6,MEDICALJOINTFAMILY@GMAIL.COM,2703033733,LOCUST GROVE,74352,MAYES,processor,
"BIOCEUTICAL INNOVATIONS GROUP, LLC ",PAAA-EC46-ASNX,KIM@BIO-INDO.COM,8179665323,LONE GROVE,73443,CARTER,processor,
EARTHY ENDO EXTRACT LLC ,PAAA-EKVH-BV2R,EARTHYENDO@YAHOO.COM,5804656426,LONE GROVE,73443,CARTER,processor,
HASHCO LABS LLC ,PAAA-PJRU-FCOD,HASHCO710@GMAIL.COM,9184044549,LONE GROVE,73443,CARTER,processor,
LONE BUCKEYE FARMS INC ,PAAA-EYB5-UKNN,JUDYYORK55@YAHOO.COM,5806573069,LONE GROVE,73443,CARTER,processor, LONE BUCKEYE FARMS
ROYAL EXTRACTIONS LC ,PAAA-EKEK-B4XD,ADMIN@CURATIVA.LIFE,5806573780,LONE GROVE,73443,CARTER,processor,
OKLAGROMIES LLC ,PAAA-EKTP-5GFH,OKLAGROMIES@GMAIL.COM,5804719727,LONE WOLF,73655,KIOWA,processor, OKLAGROMIES
"NATIVE CANNABIS COMPANY, LLC ",PAAA-V1KJ-RQFO,OKCLANDMAN@GMAIL.COM,4055148154,LUTHER,73054,OKLAHOMA,processor, NATIVE CANNABIS
"PING TWO, LLC ",PAAA-NKJJ-Z0IV,MATT@STACYLEGALGROUP.COM,4058167228,LUTHER,73054,LOGAN,processor,
VECTOR CAPITAL LLC ,PAAA-YVE8-KNEX,PETERSON.1.KYLE@GMAIL.COM,4052053586,LUTHER,73054,OKLAHOMA,processor, PLUTO
OKLAHOMA GAS CANNABIS CO. LLC ,PAAA-4YUS-MVY9,JHARDIN1977@ICLOUD.COM,4054259335,MACOMB,74852,POTTAWATOMIE,processor, OG CANNABIS CO
POT CO_ LLC ,PAAA-NJJQ-OIHZ,POTTCO2@GMAIL.COM,4053718202,MACOMB,74852,POTTAWATOMIE,processor, POT CO_
WE EDUCATE THE PEOPLE LP ,PAAA-EKDA-HWZ0,WEEDTHEPEOPLEOK@GMAIL.COM,4053089655,MACOMB,74852,POTTAWATOMIE,processor, WE ED. THE PEOPLE
"CANNALINK CONSULTING, LLC ",PAAA-J1ZK-FIQG,CANNALINKLLC@GMAIL.COM,5803711454,MADILL,73446,MARSHALL,processor,
MOTHER NURTURE LLC ,PAAA-NJGE-J5BV,MOTHERNURTURE580@GMAIL.COM,5804652483,MADILL,73446,MARSHALL,processor, MOTHER NURTURE
"THE HIGH COUNTRY EXTRACTS, LLC ",PAAA-KETF-OGVG,WKFREEMA@GMAIL.COM,6184208283,MADILL,73446,MARSHALL,processor,
"VAPEN OKLAHOMA,  LLC ",PAAA-EJPF-B1Z5,NALEE@HERBALWELLNESSCENTER.COM,6029104152,MADILL,73446,MARSHALL,processor,
CANNA BAKED ,PAAA-NYQM-ZSUB,ASHMIKE3@YAHOO.COM,5803011779,MANGUM,73554,GREER,processor,
CUSHMAN CANNABIS LLC ,PAAA-4KFE-C1SE,STEVEN@CUSHMANLLC.COM,9183060073,MANNFORD,74044,CREEK,processor, CUSHMAN CANNABIS
"EZY'S HOUSE OF CONCENTRATES, LLC ",PAAA-41PX-QE5R,01HOMEGROWN@GMAIL.COM,9187035430,MANNFORD,74044,CREEK,processor," EYZ'S HOUSE OF CONCENTRATES, LLC"
"FARM 51, LLC ",PAAA-NYHA-1DVV,SALES@FARM51CANNABIS.COM,9186451703,MANNFORD,74044,CREEK,processor,
GRIND HOUSE EXTRACT LLC ,PAAA-V13R-LGPD,YOUNGCHRIS08@GMAIL.COM,5806770046,MANNSVILLE,73447,JOHNSTON,processor, GRIND HOUSE EXTRACT LLC
HAITIAN HERBAL COMPANY LLC ,PAAA-H4YC-H0C8,MATT@STACYLEGALGROUP.COM,4058167532,MARAMEC,74045,PAWNEE,processor, HAITIAN HERBAL COMPANY LLC
"JACK LIN, LLC ",PAAA-VKJE-JT1U,MATT@STACYLEGALGROUP.COM,4057353800,MARAMEC,74045,GRADY,processor," JACK LIN, LLC"
BLAZIN GREEN INC ,PAAA-VYIB-B2DO,BLAZINGREEN@YAHOO.COM,5804654167,MARIETTA,73448,LOVE,processor, BLAZIN GREEN
"BOHO ALCHEMY, LLC ",PAAA-4JH3-4ALV,JUSTIN.MACHACEK@GMAIL.COM,8173716281,MARIETTA,73448,LOVE,processor, BOHO ALCHEMY
BUDDING PHARMS LLC ,PAAA-EKQC-WNEW,BUDDINGPHARMS@GARDENER.CON,5802760800,MARIETTA,73448,LOVE,processor, BUDDING PHARMS
DELL-HOUSE ENTERPRISE LLC ,PAAA-XWXV-UAUQ,MARIETTAHIGHSOCIETY@GMAIL.COM,5802228808,MARIETTA,73448,LOVE,processor, SNAKEWOOD PROCESSING
FALCON HAZE LLC ,PAAA-CCEF-VJE8,INFO@TGJENTERPRISE.COM,2144763091,MARIETTA,73448,OKLAHOMA,processor, FALCON HAZE
MR POSTMAN LLC ,PAAA-DW1S-PMAP,MR.POSTMAN112233@GMAIL.COM,2259547811,MARIETTA,73448,OKFUSKEE,processor, MR POSTMAN LLC
"RED RIVER EXTRACTION, LLC ",PAAA-4KE8-BSVC,JRYAN@GEOTEXSUPPLY.COM,9402108195,MARIETTA,73448,LOVE,processor, RED RIVER EXTRACTION
"TD GREEN LIGHT GROUP, LLC ",PAAA-VJW2-GM5H,D3LE206@GMAIL.COM,5133949470,MARIETTA,73448,LOVE,processor,
TT FAMILY FARMS LLC ,PAAA-41GX-MXL8,ZSAZSA081674@SBCGLOBAL.NET,5802840746,MARIETTA,73448,LOVE,processor,
TWISTED ROOT EXTRACTION COMPANY ,PAAA-EZLO-32X4,RIGGS82@HOTMAIL.COM,4056939863,MARIETTA,73448,LOVE,processor,
"WESTMARC'D LAB, LLC ",PAAA-4YUL-WPMQ,WESTMARCDLLC@GMAIL.COM,5804901493,MARIETTA,73448,LOVE,processor," WESTMARC'D LAB, LLC"
I-35 LABS ,PAAA-ESPA-RHXA,TENIELSON83@YAHOO.COM,5802760291,MARIETTA,73448,LOVE,processor,
"CSJC ENTERPRISES, LLC ",PAAA-V1OS-YAWV,EZWEEDGROWERS@GMAIL.COM,5805912606,MARLOW,73055,STEPHENS,processor," CSJC ENTERPRISES, LLC"
"FPC GROUP, LLC ",PAAA-MORU-K138,JEFF@SEE3FARMS.COM,4695768207,MARLOW,73055,STEPHENS,processor, VERTICAL VIBEZ
"LEAF LINX, LLC ",PAAA-ZERN-TIVO,BRUCE@THEDEFENDERNATION.ORG,8664474776,MARLOW,73055,GRADY,processor, GREEN SKY
THE LUCKY LLAMA PROCESSING LLC ,PAAA-9TRM-EBLZ,CRENSHAWGA@GMAIL.COM,8307030575,MARLOW,73055,STEPHENS,processor, THE LUCKY LLAMA PROCESSING
"SEE 3FARMS MARLOW, LLC ",PAAA-4KGD-RPME,JEFF@SEE3FARMS.COM,4695768207,MARLOW,73055,STEPHENS,processor,
ADVENTURE CLIMBER LLC ,PAAA-41O9-9GVD,CHOCTAWJD@ICLOUD.COM,7752293631,MCALESTER,74501,PITTSBURG,processor, LUCID CREATIONS
G & BK FARMS LLC ,PAAA-M2JN-YPNW,BETHANIKUE@GMAIL.COM,9184246674,MCALESTER,74501,PITTSBURG,processor, G & BK FARMS LLC
JAMES JONES ,PAAA-4KPG-SGDE,CASEY.JONES09@YAHOO.COM,4054798463,MCALESTER,74501,PITTSBURG,processor, PURE HEALTH
MICHIKO BRIGGS ,PAAA-GKXQ-20WK,MICHIKO.BRIGGS@ATT.NET,9189163553,MCALESTER,74501,PITTSBURG,processor, MICHIKO BRIGGS
"NEWCLEI, LLC ",PAAA-FDOC-ROJX,INFO@NEWCLEI.COM,9183290510,MCALESTER,74501,PITTSBURG,processor, NEWCLEI
OKLAHOMA OIL AND NATURAL GRASS LLC ,PAAA-VY7Y-EXBU,JARROD.SCHOGGINS@GMAIL.COM,9184210923,MCALESTER,74501,PITTSBURG,processor,
PETERSENS CONSULTING ,PAAA-EJEX-OVU7,BACKALLEYBILLIARDS@YAHOO.COM,5102903599,MCALESTER,74501,PITTSBURG,processor, CREATIVE CANNABIS CONCENTRATE CONSULTANTS
PHANTOM LABS LLC ,PAAA-EU69-T56A,BRAD@TITANCHEMICALS.NET,9184296066,MCALESTER,74501,PITTSBURG,processor,
"SOONER STATE WELLNESS, LLC ",PAAA-4YLJ-BVOS,KABEN@SOONERSTATEWELLNESS.COM,9188690845,MCALESTER,74501,PITTSBURG,processor,
THCOK LLC ,PAAA-NYNH-P3KD,THCOKLAHOMA@YAHOO.COM,9184247226,MCALESTER,74501,PITTSBURG,processor, THCOK FARMS
3 BUDZ GROWERY LLC ,PAAA-K4IB-2AHT,3BUDZGROWERY@GMAIL.COM,9184705696,MCALESTER,74501,PITTSBURG,processor,
"BCN INDUSTRIES, LLC ",PAAA-EJII-WYTY,JAY@KINGSCOAST.COM,9514734121,MCLOUD,74851,POTTAWATOMIE,processor," BCN INDUSTRIES, LLC"
"EARTH RESEARCH LABS, LLC ",PAAA-4JHH-5HTY,TOPKOV@AOL.COM,4054208829,MCLOUD,74851,LINCOLN,processor, EARTH RESEARCH LABS
"RF WORKS, LLC ",PAAA-NKZA-WDAW,RFWORKSYANG@GMAIL.COM,4059653028,MCLOUD,74851,LINCOLN,processor,
SHATTER JAX PROCESSING LLC ,PAAA-VJGQ-M7BX,BTJ@BRIANTEDJONES.COM,4056398497,MCLOUD,74851,LINCOLN,processor,
SLS AGRICULTURAL CONSULTING AND MANAGEMENT ,PAAA-NJUS-E5KX,OKSLSACM@GMAIL.COM,9182644896,MCLOUD,74851,LINCOLN,processor, THE INSTITUTE OF WELLNESS AND ORGANIC SOLUTIONS
"WEEDCO, LLC ",PAAA-41DS-U7MH,WEEDCOSALES@GMAIL.COM,4054146152,MCLOUD,74851,POTTAWATOMIE,processor,
"ALLIANCE EXTRACTS, LLC ",PAAA-EYBP-J02N,GIULIANI.INVESTMENTS@GMAIL.COM,9163807464,MEAD,73449,BRYAN,processor,
BEST BUDZ BOTANICALS LLC ,PAAA-WXGH-ETRA,INFO@TSBOKLAHOMA.COM,2146007176,MEAD,73449,BRYAN,processor,
H AND P FARMS LLC ,PAAA-VJZB-MKJJ,HRLOCEY@YAHOO.COM,5805742259,MEAD,73449,BRYAN,processor, H AND P FARMS LLC
TEXOMA PACKAGING LLC ,PAAA-5P8Q-DRGV,EMILY@DABCITYGROUP.COM,5803642555,MEAD,73449,BRYAN,processor, THE POT SHOP
"WEEDIN-ON, LLC ",PAAA-4KNL-IFSY,WEEDINONLLC@YAHOO.COM,5042591037,MEAD,73449,BRYAN,processor, BURNING BUSH EXTRACTS
ALPHA GROWN EXTRACTS LP. ,PAAA-DRCT-TPIA,ALPHAGROWN.CAITLIN@GMAIL.COM,4054238553,MEEKER,74855,LINCOLN,processor, AG EXTRACTS
"FLAMING FIRE FARMS, LLC ",PAAA-9R2B-QMTC,FLAMINGFIREFARMS@GMAIL.COM,7026041839,MEEKER,74855,LINCOLN,processor," FLAMING FIRE FARMS, LLC"
JC HOANG LLC ,PAAA-NTQH-FTKV,MATT@STACYLEGALGROUP.COM,4058167532,MEEKER,74855,LINCOLN,processor, JC HOANG LLC
"OKLAHOMA MEDICINE, LLC ",PAAA-NKFC-YTDZ,INFO@OKLAHOMAMEDICINEINC.COM,4055485362,MEEKER,74855,LINCOLN,processor," OKLAHOMA MEDICINE, LLC"
RONG HE LLC ,PAAA-NR07-VZMK,MATT@STACYLEGALGROUP.COM,4058167532,MEEKER,74855,LINCOLN,processor,
TOUCANNABIS LABS LLC ,PAAA-V1VI-JZHU,4MARILYNMURPHY@COX.NET,4056236867,MEEKER,74855,LINCOLN,processor,
BENDYCO LLC ,PAAA-FZLW-VL6F,ARROWENTERPRISES83@YAHOO.COM,9185414283,MIAMI,74354,OTTAWA,processor, GREENFEATHER PROCESSING
CLASSY GARDENS LLC ,PAAA-YOTW-CJWY,JASON@UGRLABS.COM,7606006809,MIAMI,74354,OTTAWA,processor,
DMJC LLC ,PAAA-4JQP-EQVE,MELNIKOFF@LIVE.COM,7604490416,MIAMI,74354,OTTAWA,processor, STONEY GIRL DELIGHTS
"FULL TILT, LLC ",PAAA-CLAZ-QRID,JASONELSASSERCV@GMAIL.COM,7606006809,MIAMI,74354,OTTAWA,processor," FULL TILT, LLC"
GREEN CULTURE LLC ,PAAA-N1DK-BHMG,UAZHAR@GMAIL.COM,9188991919,MIAMI,74354,OTTAWA,processor, GREEN CULTURE PROCESSING
"KETAMA, INC. ",PAAA-EKWC-AOFI,D.L.KETAMAINC@GMAIL.COM,9189612157,MIAMI,74354,OTTAWA,processor, KETAMA
ROLLING SMOKE LLC ,PAAA-6Z8K-CJRM,GLODODALLAS@YAHOO.COM,9189443355,MIAMI,74354,OTTAWA,processor, ROLLING SMOKE
SUGAR LEAF HOLDINGS LLC. ,PAAA-NYE4-U2ZQ,JASONELSASSERCV@GMAIL.COM,7606006809,MIAMI,74354,OTTAWA,processor, CLASSY GRASS ON MAIN
UNDERGROUND RESERVE LLC ,PAAA-VJMT-1P9E,JASONELSASSERCV@GMAIL.COM,7606006809,MIAMI,74354,OTTAWA,processor,
ABP FARMS LLC ,PAAA-4KW8-WFOB,RIKETSPROVO@GMAIL.COM,4059737308,MIDWEST CITY,73110,OKLAHOMA,processor, ABP FARMS
HOMEGROWN CANNABIS COMPANY LLC ,PAAA-4YHC-5DHF,TIMSTHOMAS@AOL.COM,4052466153,MIDWEST CITY,73110,OKLAHOMA,processor, HOMEGROWN CANNABIS COMPANY
ZERO SOLVENT EXTRACTS LLC ,PAAA-N1KO-4S6B,SETHARCHULETA@COMCAST.NET,7194250446,MIDWEST CITY,73110,OKLAHOMA,processor,
"EMERALD SOUL BRANDS, LLC ",PAAA-NKA6-8ZHO,MIKE@EOHANAFARMS.COM,9728364102,MILBURN,73450,JOHNSTON,processor, EMERALD OHANA FARMS
GYPSY EXTRACT ,PAAA-EKL2-WN61,MERIDETHENTERPRIZES@GMAIL.COM,4052741682,MINCO,73059,GRADY,processor, MERIDETH ENTERPRIZES
MAD DAWG EXTRACTS LLC ,PAAA-E1AM-RZWP,CODY@TERRAWELLNESSOK.COM,4058316931,MINCO,73059,CADDO,processor,
OKIE HIGHLAND CANNABIS ,PAAA-4YH9-KG1Z,GALEXANDER81@GMAIL.COM,4056984257,MINCO,73059,GRADY,processor, OKIE HIGHLAND CANNABIS
BIG CITY GROWERS LLC ,PAAA-EJRC-B47R,TERRYTROMPETER@YMAIL.COM,4058193785,MOORE,73160,CLEVELAND,processor, BIG CITY GROWERS
D&G DANKERY LLC ,PAAA-NY65-EGFJ,ROBERTIDAYLON@GMAIL.COM,4059059819,MOORE,73160,CLEVELAND,processor, D&G DANKERY
D'S NUGGS LLC ,PAAA-V1HV-FWBS,DRANAMW@GMAIL.COM,4059216161,MOORE,73160,CLEVELAND,processor,
DANDY LION LLC ,PAAA-4KZ0-UPDX,MEGANJANUARY@YAHOO.COM,2548551800,MOORE,73160,CLEVELAND,processor, DANDY LION LLC
DISTINGUISHED FARMASUITICALS LLC ,PAAA-E1KH-O5ZV,DISTINGUISHEDFARMASUITICALS@GMAIL.COM,4055709822,MOORE,73160,CLEVELAND,processor,
FOL INDUSTRIES LLC ,PAAA-NJRV-UT2S,FLOWEROFLIFELLC@GMAIL.COM,4059125333,MOORE,73160,CLEVELAND,processor, FLOWER OF LIFE PROCESSING
FREEDOM CANNABIS LLC ,PAAA-NKU3-J1AL,MEETJIM1965@AOL.COM,8066402361,MOORE,73160,CLEVELAND,processor, FREEDOM CANNABIS LLC
GOOD KARMA PRODUCTS LLC ,PAAA-4KEN-IKPE,CSISERVICESOKC@GMAIL.COM,4054569997,MOORE,73160,CLEVELAND,processor, GOOD KARMA PRODUCTS LLC
"GREEN HOPE RX, INC. ",PAAA-4JUH-FWBL,THISISINFAMOUS@YAHOO.COM,5804782533,MOORE,73160,CLEVELAND,processor, FIREHOUSE PROCESSSING
OKLAHOMA DREAMIN LLC ,PAAA-N1Q3-Y3BD,GLOVELESS448@HOTMAIL.COM,2142285743,MOORE,73160,CLEVELAND,processor,
SYNERGY FARMS LLC ,PAAA-EJOS-GZJZ,ARMSTEADMIKE@YAHOO.COM,4056399575,MOORE,73160,CLEVELAND,processor,
"DELTA 9 RESEARCH OK, LLC ",PAAA-EJIK-LQGS,ROB@DAMALOUJILAW.COM,4104744977,MOORE,73160,CLEVELAND,processor,
"COWBOY AG ENTERPRISES, LLC ",PAAA-05SJ-CSWD,COWBOYAGENTERPRISES@GMAIL.COM,8178296489,MORRISON,73061,PAYNE,processor, TOPAZ EXTRACTS
DONNA R RENO DBA ALTERNATIVE REMEDIES ,PAAA-4KSG-YGDQ,ALTERNATIVEREMEDIES@TDS.NET,9183810116,MOUNDS,74047,CREEK,processor, ALTERNATIVE REMEDIES
MY BUDDY MEDICINALS ,PAAA-VJFK-B08W,MYBUDDYJAGKID@GMAIL.COM,9186290740,MOUNDS,74047,OKMULGEE,processor, MY BUDDY MEDICINALS
PRESTIGE WORLDWIDE OILS LLC ,PAAA-XLIW-AEYZ,BILLYCRIMM@GMAIL.COM,9183819883,MOUNDS,74047,OKMULGEE,processor, PRESTIGE WORLDWIDE OILS
DAWN H. EVANS ,PAAA-41GW-YRTT,NANASCOOKIES19@YAHOO.COM,5807303583,MOUNTAIN VIEW,73062,WASHITA,processor, NANA'S COOKIES
"GAS MASTER PHARMS, LLC ",PAAA-4Y8W-RYPX,TODD111666965@GMAIL.COM,9729006556,MOYERS,74557,PUSHMATAHA,processor,
"HARVEST REMEDIES, LLC ",PAAA-41TA-QFYX,ADMIN@HARVEST-REMEDIES.COM,4796520894,MULDROW,74948,SEQUOYAH,processor, HARVEST REMEDIES
WHITNEY MARTIN ,PAAA-VJSF-ZUFE,THEOKLAHOMAGROWER@GMAIL.COM,4792228224,MULDROW,74948,SEQUOYAH,processor, OKLAHOMA GROWER
"WILDFLOWER CRAFTED CANNABIS CO., LLC ",PAAA-NJ7J-U65L,WILDFLOWERCRAFTEDCANNABIS@OUTLOOK.COM,4794145136,MULDROW,74948,SEQUOYAH,processor, WILDFLOWER CRAFTED CANNABIS CO.
2 STRONG ,PAAA-41I1-BX2X,CANNAGRANNIE@GMAIL.COM,4795951680,MULDROW,74948,SEQUOYAH,processor, 2 STRONG
"YYL, LLC ",PAAA-VKEK-SK8V,MATT@STACYLEGALGROUP.COM,4058167228,MULHALL,73063,LOGAN,processor,
"NATURAL STATE PROCESSING, INC. ",PAAA-NYHJ-OTBN,NATURALSTATEINC@GMAIL.COM,8706721085,MUSE,74949,LE FLORE,processor," NATURAL STATE PROCESSING, INC."
"ADVANCED WELLNESS AND DISPENSARY, LLC ",PAAA-NJM5-LCVD,ADVANCEDWELLNESSANDDISPENSARY@GMAIL.COM,9183488803,MUSKOGEE,74401,MUSKOGEE,processor," ADVANCED WELLNESS AND DISPENSARY, LLC"
GAIA CHEMISTRY INC ,PAAA-4JTJ-UMDV,MICHAEL.RAY.KINCAID@GMAIL.COM,5163501002,MUSKOGEE,74403,MUSKOGEE,processor,
GREEN COUNTRY MEDICAL SOLUTIONS LLC ,PAAA-41QV-2YDQ,GREENCOUNTRYMEDICALSOLUTION@GMAIL.COM,9186823714,MUSKOGEE,74403,MUSKOGEE,processor, GREEN COUNTRY MEDICAL SOLUTIONS
"GROFANITY FARMS, LLC ",PAAA-NKHK-CQXD,PICKLEGROWS@GROFANITYFARMS.COM,9189135086,MUSKOGEE,74401,MUSKOGEE,processor," GROFANITY FARMS, LLC"
"HERBAL WELLNESS, LLC ",PAAA-NJCO-9I5O,RONNIE@GCLEDS.COM,9186160611,MUSKOGEE,74403,MUSKOGEE,processor, HERBAL WELLNESS
"JUN GREEN, LLC ",PAAA-4J7D-X6LR,MATT@STACYLEGALGROUP.COM,4058167228,MUSKOGEE,74401,MUSKOGEE,processor,
"KIND GARDENS, LLC ",PAAA-LVR7-6FB9,KINDGARDENSLLC@YAHOO.COM,7203640118,MUSKOGEE,74403,MUSKOGEE,processor, NICE GUY
"LIN GREEN, LLC ",PAAA-N1SM-S3XH,MATT@STACYLEGALGROUP.COM,4058167228,MUSKOGEE,74401,MUSKOGEE,processor,
MOKSHA ENTERPRISES LLC ,PAAA-RWFD-KAFK,CTN0217@GMAIL.COM,7027011211,MUSKOGEE,74401,MUSKOGEE,processor, HONOR BRANDS
"NAVIGATOR LIFE SERVICES, INC. ",PAAA-4YAG-LO8T,AJMITCHUM88@GMAIL.COM,9183606519,MUSKOGEE,74401,MUSKOGEE,processor, NAVIGATOR LIFE MEDICAL MARIJUANA CO.
"PAIN SLAYERS, LLC ",PAAA-S5XD-YI5R,THRESIACONRAD721@GMAIL.COM,9186165388,MUSKOGEE,74403,MUSKOGEE,processor, PAIN SLAYERS
THC PROCESSING INC ,PAAA-GY2C-RNN1,GEORGE.THCP@GMAIL.COM,7073018460,ARDMORE,73401,CARTER,processor, THC PROCESSING INC
"TIPSY TREATS BAKERY, LLC ",PAAA-VY23-QWEQ,SCOTT.MCBRIDE@HOTMAIL.COM,5803198883,ARDMORE,73401,CARTER,processor,
UNCEL NELLIS FARM LLC ,PAAA-DPEW-5KYL,ARICASTOR@GMAIL.COM,9417266881,ARDMORE,73401,CARTER,processor, UNCLE NELLIS FARM
"BOSA & 2WHITES, LLC ",PAAA-VJOB-ZDDQ,BOBBYJOWHITE3@GMAIL.COM,5805043294,ARDMORE,73401,CARTER,processor, INDEPENDENCE FARMS
420 GREEN GRASS CORPORATION ,PAAA-NY0N-TRPK,OKCDISP@YAHOO.COM,2544850894,ARDMORE,73401,CARTER,processor, 420 GREEN GRASS CORPORATION
DOC'S EXTRACTS ,PAAA-VY7P-OLGS,NPERATSAKIS@YAHOO.COM,9096548423,ASHER,74826,POTTAWATOMIE,processor,
ALCHEMY SOLUTIONS ,PAAA-YLAO-MVLQ,JW@ALCHEMYSOLUTIONS420.COM,5802070809,ATOKA,74525,ATOKA,processor, ALCHEMY SOLUTIONS 420
MIDWESTERN BOTANICAL CURES LLC ,PAAA-4YB6-K8QV,ATOGENETICS@GMAIL.COM,5803782629,ATOKA,74525,ATOKA,processor, A TOKIN OKIE - PROCESSING
OKLAHOMA POWER PLANT PROCESSING LLC ,PAAA-AVII-U1SN,TODDNELSON85@GMAIL.COM,9187043956,BARNSDALL,74002,OSAGE,processor, OKLAHOMA POWER PLANT PROCESSING LLC
WAYNE'S PEACE LLC ,PAAA-BDC2-VGPN,PATPACE19@GMAIL.COM,9186980707,BARNSDALL,74002,OSAGE,processor,
"REGENTS CREATIONS, LLC ",PAAA-VKUB-9XBE,JGENTGES@SBCGLOBAL.NET,9182699388,BARTLESVILLE,74003,WASHINGTON,processor,
"SUSTAINA FARM, LLC ",PAAA-4YS2-XIOZ,DRSUZANNE@REAGAN.COM,9187666067,BARTLESVILLE,74006,WASHINGTON,processor," SUSTAINA FARM, LLC"
"ALLEN'S ELECTRIC & CONSTRUCTION, LLC ",PAAA-EKPA-DYFI,GREGALLEN267@GMAIL.COM,9182673681,BEGGS,74421,OKMULGEE,processor, OKLAHOMA GREEN
"DR Z LEAF PROCESSING, LLC ",PAAA-E1LZ-BKK8,BEAU@DRZLEAF.COM,9185108652,BEGGS,74421,OKMULGEE,processor,
FAMILYTREE EXTRACT INC. ,PAAA-NJLJ-HBB8,DOMINIC_STROTHER@HOTMAIL.COM,5403959084,BEGGS,74421,OKMULGEE,processor,
"THE TRUE HEADS CANNABIS CULTIVATION, LLC ",PAAA-VJSQ-RTBP,RYAN@EVANSDAVIS.COM,4052862335,MUSKOGEE,74401,MUSKOGEE,processor, THE TRUE HEADS CANNABIS EXTRACTION
"220 FARMS,  LLC ",PAAA-41LL-YNDB,220FARMS918@GMAIL.COM,9189104002,MUSKOGEE,74401,MUSKOGEE,processor, OKIE OIL
GREAT LIFE CANNABIS EXTRACTS LLC ,PAAA-4JNA-ABCB,TEAMSFOR10@AOL.COM,4057080222,NEWALLA,74857,CLEVELAND,processor, GREAT LIFE CANNABIS EXTRACTS
ROYAL TERPS LLC ,PAAA-E1BQ-VH6M,JORDANSELDEN2020@GMAIL.COM,4057780709,NEWALLA,74857,OKLAHOMA,processor, ROYAL TERPS LLC
"APEX HERBALS, CO. ",PAAA-YBPA-CTUL,STANLEYKEVIE@GMAIL.COM,4055958911,NEWCASTLE,73065,MCCLAIN,processor, APEX CANNABIS CO.
"H&H INVESTMENT GROUP, LLC ",PAAA-EIDR-5E2C,HAITHAMABUAMARAH9@GMAIL.COM,4056410158,NEWCASTLE,73065,MCCLAIN,processor," H&H INVESTMENT GROUP, LLC"
HELLO IZZY LLC ,PAAA-UFZO-VJDN,ISABZA81@GMAIL.COM,4058633003,NEWCASTLE,73065,MCCLAIN,processor, HELLO IZZY LLC
LEGACY FUSIONS INC ,PAAA-NYS9-O0RG,LEGACYFUSIONS@GMAIL.COM,7196413232,NEWCASTLE,73065,OKLAHOMA,processor,
RED SKY OFFICIAL ,PAAA-E1FQ-UZKN,TIME4LUXURY@GMAIL.COM,7022801309,NEWCASTLE,73065,MCCLAIN,processor, RED SKY
"SFSG, LLC ",PAAA-UEHS-880C,AMANDA.A.VIERECK@GMAIL.COM,7205035753,NEWCASTLE,73065,MCCLAIN,processor, HOUSE OF LOUD
IHS PROCESSING LLC ,PAAA-VKNW-BB1K,REBECCA.BARTLETT@OMDEVELOPMENT.ORG,4052354700,NEWKIRK,74647,KAY,processor, IHS PROCESSING LLC
ABOVE THE ROOTS GROWERS LLC ,PAAA-NKYC-DGVB,ABOVETHEROOTSGROWERS@GMAIL.COM,4056398219,NOBLE,73068,CLEVELAND,processor," ABOVE THE ROOTS GROWERS, LLC"
"BLOOMS AND BLOSSOM EXTRACTS, LLC ",PAAA-EJZE-VUBU,ZJ.AND.J.OK@GMAIL.COM,8183833287,NOBLE,73068,CLEVELAND,processor,
MOTHERSHIP GROW LABS LLC ,PAAA-E1ZC-7WT7,CGPRUITT92@GMAIL.COM,4057403591,NOBLE,73068,CLEVELAND,processor,
"NOBLE CANNABIS CO, LLC ",PAAA-NKP2-TTRE,DAVE_DIAZ@ME.COM,7149163037,NOBLE,73068,CLEVELAND,processor, NOBLE CANNABIS CO
NOBLE NECTAR LLC ,PAAA-VJZG-KNP6,PRESTON@THEAFAM.COM,9727572977,NOBLE,73068,NOBLE,processor, NOBLE NECTAR LLC
ROSE ROCK PROCESSING INC ,PAAA-4Y0F-5GFJ,CRYSTAL_FURR@YAHOO.COM,6204826904,NOBLE,73068,CLEVELAND,processor, THE PEAK DISPENSARY
SPAIN RAINES LLC ,PAAA-4KQT-YKCQ,NRAINES67@GMAIL.COM,4056580387,NOBLE,73068,CLEVELAND,processor, TORNADO ALLEY GARDENS
"STARS AND STRIPES PROCESSING, LLC ",PAAA-415I-PUUV,CHRISTOPHERJAMES1977@ICLOUD.COM,6826679348,NOBLE,73068,CLEVELAND,processor,
"U S GREEN, LLC ",PAAA-NKWZ-7OFE,LINDSEYBUSINESS@HOTMAIL.COM,6267310645,NOBLE,73068,CLEVELAND,processor, N/A
77 FARMS LLC ,PAAA-41EX-PEML,TIRESTACK@GMAIL.COM,4053654980,NOBLE,73068,CLEVELAND,processor, 77 FARMS LLC
"AMBARY, LLC ",PAAA-GNKY-SDSZ,AMBARY.MJ@GMAIL.COM,4053102226,NORMAN,73069,CLEVELAND,processor, AMBARY HEALTH
AURA EXTRACTS LLC ,PAAA-4KI9-K9TF,JEFF@AURA-EXTRACTS.COM,3092106097,NORMAN,73069,CLEVELAND,processor,
"BAKERY SUPPLY CENTER, LLC ",PAAA-KDK9-DHSV,IAN.SIMPKINSON@YAHOO.COM,2148836548,NORMAN,73069,CLEVELAND,processor, CANNABAKERY
CENTRAL TRADING INC. ,PAAA-NJ4C-GJVR,VPATATANYAN@HOTMAIL.COM,8184808764,NORMAN,73072,CLEVELAND,processor, CENTRAL TRADING INC.
"CREDIBLES, LLC ",PAAA-E1ZU-7Y5E,CREDIBLESLLC@GMAIL.COM,4056984181,NORMAN,73069,CLEVELAND,processor, CREDIBLES
CROWN LIMITED LLC ,PAAA-4YEU-MWBH,PAGANRHYTHMS@YAHOO.COM,2142074049,NORMAN,73069,CLEVELAND,processor, CROWN LIMITED
DGK INTERPRISELLC ,PAAA-0GZ4-PAR5,DARBY@TOPVIEWROOFING.COM,4054644425,NORMAN,73026,CANADIAN,processor, OKIE SKUNK FARMS
"G.O.A.T. ORGANICS, LLP ",PAAA-VJUR-AUE1,KWILBANKS@405METAL.COM,4057011075,NORMAN,73071,CLEVELAND,processor, STEEL HOUSE ORGANICS
GAFFNEY WORLD LLC ,PAAA-HVXY-QBFU,MICHELLE.GAFFNEY98@GMAIL.COM,4059245274,NORMAN,73069,CLEVELAND,processor, BEE HIGH DISPENSARY AND CANNA CAFE
GOLDEN TRENDS LLC ,PAAA-IQKF-CUGA,DANIEL@GOLDENTRENDS.COM,4053101651,NORMAN,73069,CLEVELAND,processor, GOLDEN TRENDS
GREEN STONE MANUFACTURING LLC ,PAAA-4KLQ-8MUL,RICHARD.JAZZAR@GMAIL.COM,4054736720,NORMAN,73069,CLEVELAND,processor, GREEN STONE
"GREEN THUMB EXTRACT, LLC ",PAAA-OL44-3J2V,VINCENT1107@AOL.COM,4052231078,NORMAN,73069,CLEVELAND,processor,
HERB LIFE PROCESSING LLC ,PAAA-KURN-BRS5,JOHN@SOONERNUTRITION.CLUB,4052468490,NORMAN,73072,CLEVELAND,processor, HERB LIFE
"HERBAL EXTRACTION, LLC ",PAAA-VY75-TDID,CLINT@DRILLCOM.US,4055132258,NORMAN,73069,CLEVELAND,processor,
"LEGENDARY BUDZ, LLC ",PAAA-EYZX-TJYD,TANGLIN160@AOL.COM,4056402492,NORMAN,73069,CLEVELAND,processor, LEGENDARY BUDZ
LIFE OF RILEY LLC ,PAAA-EJON-MT4K,BULLDOGGEROK@YAHOO.COM,4053613529,NORMAN,73026,CLEVELAND,processor, KEVIN M. RILEY
LIFE ORGANICS WELLNESS INC. ,PAAA-4JTM-6PPR,ADMIN@LIFEORGANICS.NET,9402059069,NORMAN,73069,CLEVELAND,processor, LIFE ORGANICS WELLNESS INC.
"LOGISTICS INVESTMENTS, INC. ",PAAA-7SL3-J4BA,RANDOM@ORIGINALINVESTMENTS.COM,3234543767,NORMAN,73071,CLEVELAND,processor," LOGISTICS INVESTMENTS, INC."
"MABS MEDIBLES, LLC ",PAAA-EKBT-SPC8,MABSNATURALSOLUTIONS@GMAIL.COM,4053102469,NORMAN,73071,CLEVELAND,processor," MABS MEDIBLES, LLC."
MGOS ENTERPRISES ,PAAA-NYWG-OW3B,INFO@OUTOFTIMEMOTORSPORTS.COM,4058307574,NORMAN,73071,CLEVELAND,processor, MGOS ENTERPRISES
MIDTOWN PROCESSING LLC ,PAAA-VKSD-KUXT,MIDTOWNPROCESSINGOKC@GMAIL.COM,4056936494,NORMAN,73071,CLEVELAND,processor,
MOUNTAIN VIEW HOLDINGS GROUP LLC ,PAAA-YBUZ-GH7H,THEOKIEGROWSHACK@GMAIL.COM,5807470902,NORMAN,73071,OKLAHOMA,processor, MOUNTAIN VIEW HOLDINGS GROUP LLC
OCO LLC ,PAAA-NKOY-F4WD,JWFISHCITY@GMAIL.COM,4056377272,NORMAN,73072,CLEVELAND,processor, MIDNIGHT OIL COMPANY
OG DOGWALKERS LLC ,PAAA-NK6O-6EF4,GREERINEZ@GMAIL.COM,9494244171,NORMAN,73069,CLEVELAND,processor, QUICKIES
OK BUD PROCESSORS LLC ,PAAA-EK9Y-TKJ5,ALONG1677@YAHOO.COM,4055012064,NORMAN,73069,CLEVELAND,processor, OK BUD PROCESSORS
ORGANA LLC ,PAAA-NJPE-9UDM,ORGANAGROWN@GMAIL.COM,4052497683,NORMAN,73026,CLEVELAND,processor,
PROOK PROCESSING LLC ,PAAA-N1VC-1UBD,JWFISHCITY@GMAIL.COM,4056377272,NORMAN,73072,CLEVELAND,processor, HIGH NOON EXTRACTS
"PURE INDUSTRIES, LLC ",PAAA-VKEI-I4OV,JMITCHELL777@ATT.NET,4058199348,NORMAN,73072,MCCLAIN,processor,
RED RIVER LABS LLC ,PAAA-AMFQ-SOKE,DOBBINS.C@GMAIL.COM,4054092013,NORMAN,73069,CLEVELAND,processor,
"RED RIVER LABS, LLC ",PAAA-EYN1-MH5R,DOBBINS.C@GMAIL.COM,4054092013,NORMAN,73069,CLEVELAND,processor," RED RIVER LABS, LLC"
"SISTER MARY FARM, LLC ",PAAA-PSZP-PZOI,TONY.SISTERMARY@GMAIL.COM,4057619971,NORMAN,73071,CLEVELAND,processor,
SJ ENTERPRISES LLC ,PAAA-MULC-3UNK,BLAKEHEINTZ22@GMAIL.COM,4056207023,NORMAN,73071,CLEVELAND,processor, TLB LABS
"SOCIETY CANNABIS COMPANY, LLC ",PAAA-EJYL-PVJO,JEFF@SOCIETYCANNABIS.CO,4057626107,NORMAN,73071,CLEVELAND,processor, SOCIETY CANNABIS COMPANY
TOP TERPZ LLC ,PAAA-E81A-A7PQ,TOPTERPZ@GMAIL.COM,4055006085,NORMAN,73069,CLEVELAND,processor, PREROLL & ROSIN
"USCP, LLC ",PAAA-EYIL-UYXI,SORIAJUDY@YAHOO.COM,4243241223,NORMAN,73069,CLEVELAND,processor, USCP LLC
UWD OK LLC ,PAAA-V1FU-RXFK,UWDOK1@GMAIL.COM,4059239734,NORMAN,73071,CLEVELAND,processor,
WHITE LABEL UNLIMITED LLC ,PAAA-N1WB-5WXI,RAMELW@ICLOUD.COM,2539051055,NORMAN,73071,OKLAHOMA,processor, WHITE LABEL UNLIMITED
DELTA 9 AGROLOGY LTD CO ,PAAA-VJ7A-SHJL,JOE@D9AGRO.COM,4059059133,NORMAN,73069,CLEVELAND,processor, DELTA 9 AGROLOGY LTD CO
"46 FARMACEUTICALS, LLC ",PAAA-LQHY-NTWU,VICTORIA.SHEFFIELD@46FARMS.COM,4053884538,NORMAN,73071,CLEVELAND,processor," 46 FARMACEUTICALS, LLC"
12600 MINGES LLC ,PAAA-XDVD-FK6Y,COCKRUMKM@GMAIL.COM,4057061288,NORMAN,73072,CLEVELAND,processor, N/A
ARGENT VENTURES INC. ,PAAA-L7P6-BSI1,LASIARSHAD@GMAIL.COM,2813098908,NOWATA,74048,NOWATA,processor,
DOOB CREEK FARMS LLC ,PAAA-NJ90-C5II,DOOBCREEKFARMS@GMAIL.COM,9185599470,NOWATA,74048,NOWATA,processor, DOOB CREEK FARMS LLC
EUCRASIA FARMS LLC ,PAAA-IBY3-DBFM,NOWATADAN@AOL.COM,9186984678,NOWATA,74048,NOWATA,processor,
"GARDEN MAGIC NATURALS, LLC ",PAAA-EYOC-ZNFT,GARDENMAGICNATURALS@GMAIL.COM,9185150137,NOWATA,74048,NOWATA,processor, GARDEN MAGIC NATURALS LLC
PROVIDENCE VENTURES INC. ,PAAA-PVT8-FMDU,LASIARSHAD@GMAIL.COM,2813098908,NOWATA,74048,NOWATA,processor, PROVIDENCE VENTURES INC.
BAXTER AND BANKS LLC ,PAAA-HBDM-56IW,BARNUM7@YAHOO.COM,9182897297,OCHELATA,74051,WASHINGTON,processor, BAXTER AND BANKS
MMMENUS INC. ,PAAA-VJFQ-8RTL,ZACHILES@GMAIL.COM,9183973280,OCHELATA,74051,WASHINGTON,processor, MMMENUS
"UTOPIC VIBES, LLC ",PAAA-HRQQ-KYVW,KIM@UTOPICVIBES.COM,8178089797,OCHELATA,74051,WASHINGTON,processor, UTOPIC VIBES
DRAGONFLY EXTRACTS LLC. ,PAAA-GYPG-S3X3,KENNETH.HODSON@GMAIL.COM,9185103430,OILTON,74052,CREEK,processor, DRAGONFLY EXTRACTS
CHRISTENSEN BROTHERS PROCESSING LLC ,PAAA-4KFY-HG4D,CHRISTENSEN_DENNIS@HOTMAIL.COM,4054885972,OKARCHE,73762,KINGFISHER,processor,
"CREEKSIDE EXTRACTIONS, LLC ",PAAA-VJQO-9LDR,KMUEGGENBORG22@GMAIL.COM,4058332208,OKARCHE,73762,KINGFISHER,processor," CREEKSIDE EXTRACTIONS, LLC"
KANAPES FARMS LLC ,PAAA-VKQM-A0AQ,SAYBRA@BLAZINOKIE.COM,4059900339,OKARCHE,73762,CANADIAN,processor, BLAZIN OKIE FARMS
"STICKY SKUNK EXTRACTS, LLC ",PAAA-VJLB-GKWR,KMUEGGENBORG22@GMAIL.COM,4058332208,OKARCHE,73762,KINGFISHER,processor," STICKY SKUNK EXTRACTS, LLC"
OKIE RED DIRT BRANDS LLC ,PAAA-IZRA-TQAD,CARLA@OKIEREDDIRT.COM,9183485676,OKAY,74446,WAGONER,processor, OKIE RED DIRT BRANDS LLC
#788 COLLECTION LLC ,PAAA-VYNC-RIIR,788COLLECTION@GMAIL.COM,4053145119,OKC,73142,OKLAHOMA,processor, #788
ARTISANAL EXTRACTS LLC ,PAAA-9VYU-RBAR,ARTISANALEXTRACTS2020@GMAIL.COM,4053030374,OKEMAH,74859,OKFUSKEE,processor, ARTISANAL EXTRACTS
"DEEP FORK CANNABIS, LLC ",PAAA-FEOQ-O7R8,ANITAJWHITE@OUTLOOK.COM,4057120542,OKEMAH,74859,OKFUSKEE,processor," DEEP FORK CANNABIS, LLC"
"HEALING HARVEST GROWERS, LLC ",PAAA-EYQI-AI6X,ALEX@HEALINGBUDZ.COM,3059277501,OKEMAH,74859,OKFUSKEE,processor, BRAZEN TREE
LINEAGE FARMS LLC ,PAAA-VJ7R-QVCM,JIMMY.DENNIS0127@GMAIL.COM,9186060127,OKEMAH,74859,OKFUSKEE,processor,
TRIBE COLLECTIVE LLC ,PAAA-EYN5-D8XS,KRISTIN@TRIBEFORLIFE.COM,4058306754,OKEMAH,74859,SEMINOLE,processor, TRIBE COLLECTIVE
A HAPPY KITCHEN LLC ,PAAA-V1XS-EA1Q,AHAPPYKITCHENDT@GMAIL.COM,4058184936,OKLAHOMA CITY,73107,OKLAHOMA,processor, A HAPPY KITCHEN
"ABIN, LLP ",PAAA-VYLI-QHGF,INFO@BEBESEDIBLES.COM,4054101150,OKLAHOMA CITY,73139,CLEVELAND,processor,
ALIKAT PROCESSING LLC ,PAAA-IU0V-IIOJ,ALIKATPROCESSING@GMAIL.COM,4057610409,OKLAHOMA CITY,73169,OKLAHOMA,processor, ALIKAT
ALL NATURAL LIFESTYLE'S LLC ,PAAA-NK5R-0MSE,BRANDONREEDBIZ@GMAIL.COM,4059249090,OKLAHOMA CITY,73129,OKLAHOMA,processor, ALL NATURAL LIFESTYLE'S
ALONG CAME MARY EDIBLES LLC ,PAAA-VK4N-LDBG,BTJ@BRIANTEDJONES.COM,4056398497,OKLAHOMA CITY,73120,OKLAHOMA,processor,
AMERICAN CANNABIS COMPANY LLC ,PAAA-VYKZ-QOEK,HEALINGFARMS420@GMAIL.COM,5419443385,OKLAHOMA CITY,73139,OKLAHOMA,processor, AMERICAN CANNABIS COMPANY
AOK VENTURES INC ,PAAA-KCBQ-NZ5V,SHAWN@SUBLIMEAZ.COM,4802414890,OKLAHOMA CITY,73149,OKLAHOMA,processor, SUBLIME OK
APPLIED FARMING INNOVATIONS LTD. ,PAAA-V1BZ-K0XV,APPLIEDFARMINGINNOVATIONS@GMAIL.COM,4054065680,OKLAHOMA CITY,73127,OKLAHOMA,processor, APPLIED FARMING PROCESSORS
"ARBUCKLE FARMS, LLC ",PAAA-419F-DEG4,JAB@ARBUCKLE-FARMS.COM,2145004300,OKLAHOMA CITY,73114,OKLAHOMA,processor, ARBUCKLE FARMS
B SEVY LLC ,PAAA-N1B3-4CZU,TINASCANNABISKITCHEN@GMAIL.COM,4054204900,OKLAHOMA CITY,73129,OKLAHOMA,processor, TINA'S CANNABIS KITCHEN
BCT INDUSTRIES ,PAAA-EYHP-O4AX,NATIVESMOKECO@GMAIL.COM,4057889067,OKLAHOMA CITY,73129,OKLAHOMA,processor, NATIVE SMOKE CO
"BDE, LLC ",PAAA-VKUK-N5UE,MCNELSON022@GMAIL.COM,2145583235,OKLAHOMA CITY,73106,OKLAHOMA,processor, BEST DAY EVER
BLOOMINGTON GROUP LLC ,PAAA-V1J6-UWA9,ON1EASYSTREET@GMAIL.COM,8082381180,OKLAHOMA CITY,73149,OKLAHOMA,processor, AMERICAN CANNABIS COMPANY
"BLUE COLLAR CRIMINALS COLLECTIVE, LLC ",PAAA-NYYB-XFTV,DIESELDUBB@GMAIL.COM,4054209905,OKLAHOMA CITY,73106,OKLAHOMA,processor, BLUE COLLAR CRIMINALS COLLECTIVE
"BOUNDLESS BIOLOGICS, LLC ",PAAA-V1NN-EN4G,JONPAT.DICKINSON@YAHOO.COM,4052501300,OKLAHOMA CITY,73108,OKLAHOMA,processor,
BUD MEN PROCESSING LLC ,PAAA-3WZT-WBHN,BUDLLC@GMAIL.COM,4056198023,OKLAHOMA CITY,73127,CANADIAN,processor, GIGGLY BUSH
BUDDIES CANNABIS LLC ,PAAA-4J7M-6IOA,BUDDIESCANNABIS.CO@GMAIL.COM,4055132080,OKLAHOMA CITY,73129,OKLAHOMA,processor, MASTER BROKERS
BUTTERSTUPHD LLC ,PAAA-VJ4P-EMXO,SCOTT@SHBUSINESSSERVICES.COM,4052039070,OKLAHOMA CITY,73110,OKLAHOMA,processor, BUTTERSTUPHD LLC
BUZZ BROTHERS CANNABIS COMPANY LLC ,PAAA-1DRX-55MF,JOE.BBMMJ@GMAIL.COM,7206285740,OKLAHOMA CITY,73114,OKLAHOMA,processor,
"CAMP EXTRACTS, LLC ",PAAA-VYWZ-VMTR,MANLEY13.MM@GMAIL.COM,9035049720,OKLAHOMA CITY,73149,OKLAHOMA,processor, HYKE
CANNABIS CONNECT PROCESSING LLC ,PAAA-V1F9-RM84,DORISC20@GMAIL.COM,4054744603,OKLAHOMA CITY,73107,OKLAHOMA,processor, CANNABIS CONNECT PROCESSING LLC
"CANNABITES, LLC ",PAAA-VKVI-F81D,CANNABITESLLC@YAHOO.COM,4059228929,OKLAHOMA CITY,73127,OKLAHOMA,processor, GREEN TIGER
"CHILLAX HOLDINGS, LLC ",PAAA-35F1-ZYAI,TIM@PUREBUDSUSA.COM,4178402550,OKLAHOMA CITY,73107,OKLAHOMA,processor, PURE BUDS USA
"CITY OF TREES, LLC ",PAAA-4KWB-MFRE,ACSTRAHAN@YAHOO.COM,9169438723,OKLAHOMA CITY,73107,OKLAHOMA,processor, THE HERBAL CONNOISSEUR
CLARITY EXTRACTS ,PAAA-6TWR-CF46,CLARITY.EXTRACTS405@GMAIL.COM,4058828270,OKLAHOMA CITY,73129,OKLAHOMA,processor, CLARITY EXTRACTS
CLASSEN GENETICS LLC ,PAAA-VKQE-IHPT,JAYBOECKMAN.01@GMAIL.COM,4056597042,OKLAHOMA CITY,73106,OKLAHOMA,processor, CLASSEN LABS
"CLONE TO GROWN, LLC ",PAAA-VY6G-F8UE,JOHNNEYWEAVER@GMAIL.COM,8176145597,OKLAHOMA CITY,73127,OKLAHOMA,processor,
COMPLETE HEALTH AND WELLNESS L.L.C. ,PAAA-VJXZ-NQCW,PAUL@FIRELEAFOK.COM,4054884149,OKLAHOMA CITY,73108,OKLAHOMA,processor, COMPLETE HEALTH AND WELLNESS L.L.C.
CRAZED THREADS LLC ,PAAA-PB67-NU25,DHERMES@MINDSEYEADS.COM,4055170074,OKLAHOMA CITY,73107,OKLAHOMA,processor, GOOD VIBES EDIBLES
"CULTIVAR FLOWER COMPANY, LLC ",PAAA-NK6H-5R8Q,CULTIVARFLOWERCO@YAHOO.COM,4058343939,OKLAHOMA CITY,73149,OKLAHOMA,processor, CULTIVAR FLOWER COMPANY
"CURE PROCESSING, LLC ",PAAA-4YBO-WEW6,GAUTREAUX55@HOTMAIL.COM,4056409210,OKLAHOMA CITY,73128,OKLAHOMA,processor, CURE
CVLTIVATION CLVB LLC ,PAAA-V1HE-JNJP,JACKIE@CULTIVATIONCLUB.COM,4055704849,OKLAHOMA CITY,73106,OKLAHOMA,processor, CVLTIVATION CLVB LLC
"DAUNTLESS HEALTH, LLC ",PAAA-EKZI-EPPV,NANCY.M@KAVANAHEALTH.COM,6155005888,OKLAHOMA CITY,73117,OKLAHOMA,processor,
DCP ENTERPRIZES LLC ,PAAA-NRIN-UBKN,CHEF.PATRICK@HOTMAIL.COM,4055371822,OKLAHOMA CITY,73107,OKLAHOMA,processor, SKRAPPY SNAX
DISTILLED IN OKLAHOMA LLC ,PAAA-C0MR-MFJV,DEBBIEJONES57@GMAIL.COM,4054121105,OKLAHOMA CITY,73020,OKLAHOMA,processor, DISTILLED IN OKLAHOMA
DOSE EXTRACTS LLC ,PAAA-VYWQ-N294,DEP77@LIVE.COM,4042720800,OKLAHOMA CITY,73116,OKLAHOMA,processor, DOSE
DOVER BROTHERS INC. ,PAAA-H6UZ-KWWO,BOB@DOVERBROTHERSINC.COM,4052107995,OKLAHOMA CITY,73108,OKLAHOMA,processor, DOVER BROTHERS INC.
EASTSIDZ GREENERY LLC ,PAAA-VKRP-N0BW,ROBERTJONES169@YAHOO.COM,4056063323,OKLAHOMA CITY,73111,OKLAHOMA,processor,
"EASY STREET EXTRACTS, LLC ",PAAA-EKNR-GYFU,KEVIN@EASYSTREETEXTRACTS.COM,4059737366,OKLAHOMA CITY,73132,OKLAHOMA,processor, EASY STREET EXTRACTS
EDEN ROSE LLC ,PAAA-E1YP-CD3I,SBRANCH4466@GMAIL.COM,2146030736,OKLAHOMA CITY,73112,OKLAHOMA,processor, EDEN ROSE
ELECTRIC LETTUCE LLC ,PAAA-4YBJ-4FRE,BEN@MMJOKC.COM,6105748024,OKLAHOMA CITY,73129,OKLAHOMA,processor, MMJ OKC
"ELEPHANT TREEHOUSE, LLC ",PAAA-EJEO-SOF5,ATTILA@ELEPHANTTREE.HOUSE,4059199127,OKLAHOMA CITY,73107,OKLAHOMA,processor, FLO & EBB
ELITE LEAF L.L.C. ,PAAA-VYBU-HV8P,MBR.ELECTRIC@YAHOO.COM,4054123461,OKLAHOMA CITY,73129,CLEVELAND,processor,
ELLISON VENTURES INC ,PAAA-VYIO-LUPD,GREENLEAFSUPPLYOKC@GMAIL.COM,4052103007,OKLAHOMA CITY,73112,OKLAHOMA,processor, GREEN LEAF SUPPLY CO
"EMERALD INNOVATIONS, INC. ",PAAA-EJXJ-XN0R,TJ.TINSLEY@EGIOK.COM,7242377691,OKLAHOMA CITY,73108,OKLAHOMA,processor,
EMERALD PLAINS FARMS LLC ,PAAA-UFLG-I9SF,EMERALDPLAINSFARMS@GMAIL.COM,4057403540,OKLAHOMA CITY,73108,OKLAHOMA,processor, EMERALD PLAINS FARMS
EMPIRE CAPITAL MANAGEMENT LLC ,PAAA-IMNS-P8AY,VOLTABIOTECH@GMAIL.COM,4058969984,OKLAHOMA CITY,73129,OKLAHOMA,processor, VOLTA CANNABINOIDS LLC
"ENVISION-MMJ, LLC ",PAAA-VDAH-7TSA,KEVIN.ENVISIONMMJ@GMAIL.COM,4058191414,OKLAHOMA CITY,73114,OKLAHOMA,processor,
"EVERY SEED CANNA CO., LLC ",PAAA-W2YW-0M5X,EVERYSEEDCANNACO@HOTMAIL.COM,4053943848,OKLAHOMA CITY,73149,OKLAHOMA,processor, EVERY SEED CANNA CO.
EXPRESS PROCESSING LLC ,PAAA-41VJ-HHDR,GHUFFMAN@IWREALTY.COM,4057522525,OKLAHOMA CITY,73127,OKLAHOMA,processor,
EXTRAORDINARY EVERYTHING LLC ,PAAA-UIGL-QPZO,EXTRAORDINARYEVERYTHING@GMAIL.COM,4056979074,OKLAHOMA CITY,73114,OKLAHOMA,processor, CHIEFIN' CHARLI'S
FIRE INDUSTRY LLC ,PAAA-E1L7-ABOH,FIREINDUSTRY@ICLOUD.COM,4053394896,OKLAHOMA CITY,73128,OKLAHOMA,processor, FIRE INDUSTRY LLC
"FIRST LABORATORY, LLC ",PAAA-41LE-VHJE,CDC@CRAIGCARTERASSOCIATES.COM,4058238107,OKLAHOMA CITY,73114,OKLAHOMA,processor,
"FLORA GODDESS, LLC ",PAAA-VYLT-MWIX,LISAMIGHTYDAVIS@GMAIL.COM,4058200460,OKLAHOMA CITY,73120,OKLAHOMA,processor,
FUNNY FARMS DISPENSARY LLC ,PAAA-V1EV-TOIP,PIXELPERFECT4SEASONS@GMAIL.COM,7206309010,OKLAHOMA CITY,73107,OKLAHOMA,processor, FUNNY FARM
GAIA'S FAVOR LLC ,PAAA-V1GZ-8WZV,SCARSONATOR@GMAIL.COM,4056406886,OKLAHOMA CITY,73107,OKLAHOMA,processor,
"GFAW, INC. ",PAAA-NJB9-G3CP,WESLEYLAVONG@GMAIL.COM,6103121226,OKLAHOMA CITY,73116,OKLAHOMA,processor, GAS FACTORY
GIDDY UP EXTRACTS LLC ,PAAA-VKUJ-7CVS,JMEREDITH@ORIGIN-EXTRACTS.COM,4057922468,OKLAHOMA CITY,73111,OKLAHOMA,processor, ORIGIN EXTRACTS
GIFTED EXT LLC ,PAAA-LDSW-ABJG,GIFTEDEXTRACTS@GMAIL.COM,4052399798,OKLAHOMA CITY,73109,OKLAHOMA,processor, GIFTED EXTRACTS
GIGGLY BAKES ,PAAA-VJOU-RJYC,HERNANDEZALVARO42@YAHOO.COM,4054963155,OKLAHOMA CITY,73116,OKLAHOMA,processor, GIGGLY BAKES
GOOD PEOPLE INVESTMENTS LLC ,PAAA-EJNX-6RVT,BESTJOINTINTOWN@GMAIL.COM,9703095760,OKLAHOMA CITY,73107,OKLAHOMA,processor, SUPERIOR CONCENTRATES
GOOD VIBES SUPPLY OK LLC ,PAAA-EYIO-WVKD,GOODVIBESSUPPLYOK@GMAIL.COM,4024805369,OKLAHOMA CITY,73127,OKLAHOMA,processor, GOOD VIBES SUPPLY OK
"GOURMET GANJA, LLC ",PAAA-EYB2-EDEX,GOURMETGANJA@ATT.NET,4052042247,OKLAHOMA CITY,73139,OKLAHOMA,processor,
"GRANNY BUDS, LLC ",PAAA-4KCM-RVHG,STROGLIN@COX.NET,4054643959,OKLAHOMA CITY,73170,CLEVELAND,processor,
"GRASSLAND PROCESSING, LLC ",PAAA-K0EV-PC3N,LILAMORENO@GRASSLANDCONSULTING.COM,4056059470,OKLAHOMA CITY,73107,OKLAHOMA,processor, MIGHTY KIND OKLAHOMA
GRAY CLOUD LLC ,PAAA-EYOO-HEHV,JESSIERAEGRAY@GMAIL.COM,5109675305,OKLAHOMA CITY,73107,OKLAHOMA,processor,
"GREEN BLOC, LLC ",PAAA-NKII-CBXE,CLINTWALKER238@GMAIL.COM,4054481444,OKLAHOMA CITY,73120,OKLAHOMA,processor,
GREEN GOLD CANNABIS & HEMP CO. ,PAAA-N1PB-8WMU,NEWCARBILLY@GMAIL.COM,4054134745,OKLAHOMA CITY,73135,OKLAHOMA,processor,
"GREEN LEAF PHARMACEUTICAL, LLC ",PAAA-NJME-C3US,SETH@GLPOKC.COM,4055695773,OKLAHOMA CITY,73108,OKLAHOMA,processor, GLP
"GANJA GOAT GURU, LLC ",PAAA-VKML-K775,TAYLORLES70@GMAIL.COM,9037248829,BEGGS,74421,OKMULGEE,processor,
"GOATNECK, LLC ",PAAA-EJHS-QQL4,ROSLYN@OKLAHOMABLOOM.COM,9189435581,BEGGS,74421,OKMULGEE,processor, BLOOM
LEONARD WEAKLEY DOOLAN V ,PAAA-EYYD-RNES,LEO@ELEVATINGCANNABIS.NET,7709062325,BEGGS,74421,OKMULGEE,processor, ELEVATING EXTRACTS
MIMOSA HILLS FARM LLC ,PAAA-VKUN-RPYS,TDFOX30965@SBCGLOBAL.NET,9182678322,BEGGS,74421,OKMULGEE,processor, MIMOSA HILLS FARM
"OK NATIVE GROWERS, LLC ",PAAA-EY39-BQ9B,AUSTINOZEE@GMAIL.COM,9729658263,BEGGS,74421,CREEK,processor, NONE
"OKAF, INC ",PAAA-41QG-7VJW,OKAF@AEXTRACTS.COM,4054007720,BEGGS,74421,OKMULGEE,processor, APOTHECARY EXTRACTS
PANACEA SCIENCE PROCESSING LLC ,PAAA-RYAC-1PVI,VICTOR@PRECISIONEQUITY.COM,9185339635,BEGGS,74421,OKMULGEE,processor," PANACEA SCIENCE PROCESSING, LLC"
TASTY TERPS LLC ,PAAA-RVIW-LYRA,STRANDEDONEARTHLLC@GMAIL.COM,9183789280,BEGGS,74421,OKMULGEE,processor,
"J & J FARM AND PROCESSING, LLC ",PAAA-AGHV-QWTW,JMCOTTINGAME@YAHOO.COM,5809182430,BENNINGTON,74723,BRYAN,processor,
ORGANIC INNOVATIONS LLC ,PAAA-V1EZ-65O8,JAIMESCESA1983@GMAIL.COM,4694718844,BENNINGTON,74723,BRYAN,processor,
TWISTED B BAKERY LLC ,PAAA-SOQN-9IBM,TWISTEDBFARMSLLC@GMAIL.COM,9725679841,BENNINGTON,74723,BRYAN,processor, TWISTED B BAKERY LLC
DR. B'S PROCESSING INC ,PAAA-NKPG-CWEE,DRBSPROCESSING@GMAIL.COM,4058320800,BETHANY,73008,OKLAHOMA,processor,
"RANCHO PURA VERDE, LLC ",PAAA-VKXX-SLZD,KYLE73078@HOTMAIL.COM,4054146289,BETHANY,73008,OKLAHOMA,processor, RANCHO PURA VERDE
"CANNABIZSCRIPTION, LLC ",PAAA-YYE4-4BVX,HIGHBORNNATURALMEDS@GMAIL.COM,7605006905,BIG CABIN,74332,MAYES,processor,
DB VENTURES LLC ,PAAA-YLJV-GO2I,HARD9INDUSTRIES@GMAIL.COM,5093895558,BIG CABIN,74332,CRAIG,processor, ABSOLEM
"GREENES GREENS, INC ",PAAA-EJ9G-4QYD,KSAIEDI@GMAIL.COM,4054122935,OKLAHOMA CITY,73117,OKLAHOMA,processor, GREENES GREENS
"GROWN WITH LOVE, LLC ",PAAA-VADT-BSJ8,LOVE@HEMPYREGENETICS.COM,4053153568,OKLAHOMA CITY,73149,OKLAHOMA,processor, GROWN  WITH LOVE
GTO PRODUCING LLC ,PAAA-EKVF-5XZL,STACY.PERCIVAL@YAHOO.COM,2532267186,OKLAHOMA CITY,73106,OKLAHOMA,processor,
GVT GROUP LTD. CO. ,PAAA-N1AM-ZFKM,GVTGROUPCO@GMAIL.COM,4055905743,OKLAHOMA CITY,73114,OKLAHOMA,processor,
H2O NURSERY LLC ,PAAA-E1L5-6RZD,PCALLWORLD84@YAHOO.COM,9726896228,OKLAHOMA CITY,73121,OKLAHOMA,processor,
HANNABIS XTRACTS LLC ,PAAA-417Y-UW8R,HANNABISXTRACTS@GMAIL.COM,4058028689,OKLAHOMA CITY,73127,OKLAHOMA,processor, BEE ELEVATED LLC
HARRIS & WATTS WELLNESS GROUP LLC ,PAAA-41PI-I9CV,SIMEON@HARRISANDWATTSWELLNESS.COM,4055039865,OKLAHOMA CITY,73135,OKLAHOMA,processor, HARRIS & WATTS WELLNESS GROUP
"HAZE BAKERY, LLC ",PAAA-V1CW-3ECZ,ANGELA@RESEARCHOK.COM,4056415918,OKLAHOMA CITY,73107,OKLAHOMA,processor, HAZE BAKERY
"HCG LABS, LLC ",PAAA-V18S-0YFK,GARDENMANDIRECT@GMAIL.COM,7079728425,OKLAHOMA CITY,73116,OKLAHOMA,processor,
HEARTLAND GOLD LLC ,PAAA-EYHN-J848,INFO@HEARTLANDGOLDOK.COM,4056158235,OKLAHOMA CITY,73116,OKLAHOMA,processor,
HIGH END LUXURY CANNABIS LLC ,PAAA-4JZT-QZYC,HIGHENDOK@GMAIL.COM,4058899333,OKLAHOMA CITY,73160,OKLAHOMA,processor, HIGH END LUXURY CANNABIS
"HIGH RISE EXTRACTS, LLC ",PAAA-NKKX-CP2J,GDENGLAND00@YAHOO.COM,4054142896,OKLAHOMA CITY,73127,OKLAHOMA,processor,
"HITUNE DISTRIBUTION, LLC ",PAAA-EJ2S-1IQI,INFO@HI-TUNE.COM,4053370400,OKLAHOMA CITY,73117,OKLAHOMA,processor,
"HUY GREEN, LLC ",PAAA-VKY3-OK7D,MATT@STACYLEGALGROUP.COM,4058167228,OKLAHOMA CITY,73107,OKLAHOMA,processor,
"IN-SITU TECHNOLOGIES, LLC ",PAAA-VJZA-4WCD,BARBERSHOP15.MT@GMAIL.COM,4053280317,OKLAHOMA CITY,73106,OKLAHOMA,processor,
"JJA FORMULATING, LLC ",PAAA-ZJSW-PJ5J,COMPLIANCE@VIVEOKLAHOMA.COM,5106319274,OKLAHOMA CITY,73105,OKLAHOMA,processor,
JKJ PROCESSING INC ,PAAA-4JJF-VKHP,JOHNK@JKJPROCESSING.COM,4056069711,OKLAHOMA CITY,73108,CANADIAN,processor,
"KIND BITES, LLC ",PAAA-NY85-EKIE,SNACHO@SWBELL.NET,4054170587,OKLAHOMA CITY,73129,OKLAHOMA,processor, KIND BITES
"LBS ENDEAVORS, LLC ",PAAA-MNP6-3CBX,JOSHUALANE84@YAHOO.COM,9063641704,OKLAHOMA CITY,73170,CLEVELAND,processor, LIGHTS OUT LABS
LEVINATE LLC ,PAAA-8UKH-WJO1,ADELAIDESOUTH.RD@GMAIL.COM,4055321959,OKLAHOMA CITY,73107,OKLAHOMA,processor, LEVINATE
LIT CC LLC ,PAAA-Z6DB-BTDC,LITCANNABISCLUB@GMAIL.COM,4052481992,OKLAHOMA CITY,73122,OKLAHOMA,processor, LIT CANNABIS CLUB
"LPE, LLC ",PAAA-I7YT-YCDQ,DALE.ELSTON@GMAIL.COM,3187710021,OKLAHOMA CITY,73116,OKLAHOMA,processor, THE HIVE COLLECTIVE
LUCKY CAT ORGANICS LLC ,PAAA-LSQZ-5ZYD,LUCKYCATORGANICS420@GMAIL.COM,5124669063,OKLAHOMA CITY,73107,OKLAHOMA,processor,
"M.A.T. WELLNESS CENTER, LLC ",PAAA-E1Q6-0CIU,TOVERMILLER@GMAIL.COM,2257725836,OKLAHOMA CITY,73106,OKLAHOMA,processor, PLANTMED PROCESSOR
MAC GOODFELLA'S LIMITED LLC ,PAAA-EYZX-RY6L,SNIPERCOOP777@GMAIL.COM,9188398110,OKLAHOMA CITY,73114,OKLAHOMA,processor, GOODFELLAS
MAMMOTH PROCESSING LLC ,PAAA-VKZY-FTOS,KERN.DEREK@GMAIL.COM,4056940480,OKLAHOMA CITY,73129,OKLAHOMA,processor, MAMMOTH
MBF AGRICULTURAL LLC ,PAAA-WBLB-PHTM,RYANBOYLE502@GMAIL.COM,5127500537,OKLAHOMA CITY,73116,OKLAHOMA,processor, MAN'S BEST FRIEND CANNABIS
"MEDCO BEVERAGES, LLC ",PAAA-XBFJ-HED5,BPSTUMPH@GMAIL.COM,4057781865,OKLAHOMA CITY,73107,OKLAHOMA,processor,
MEDICUS AURI LLC ,PAAA-4J3A-N5F9,LOOPS357SMITH@GMAIL.COM,2105421001,OKLAHOMA CITY,73127,OKLAHOMA,processor, MEDICUS AURI LLC
MEDICUS AURI LLC ,PAAA-EJY5-AVOB,LOOPS357SMITH@GMAIL.COM,2105421001,OKLAHOMA CITY,73127,OKLAHOMA,processor, MEDICUS AURI LLC
"MERIDIAN DEVELOPMENT GROUP, LLC ",PAAA-3NS5-FVFG,WILSON@PARAGONMEDFARM.COM,9376073140,OKLAHOMA CITY,73127,OKLAHOMA,processor, MERIDIAN DEVELOPMENT GROUP LLC
"MIDWEST HOLISTIC, LLC ",PAAA-JHVF-MAJI,ROSHANPATEL05@GMAIL.COM,9162548620,OKLAHOMA CITY,73129,OKLAHOMA,processor," MIDWEST HOLISTIC, LLC"
"MILANGO SOAPS &MORE, LLC ",PAAA-N13U-SWTI,LIZ_GATES8408@YAHOO.COM,3145849808,OKLAHOMA CITY,73114,OKLAHOMA,processor, MILANGO SOAPS & MORE
"MMX, LLC ",PAAA-EJDH-KNFP,PHIL@MARYMECHANIX.COM,4058862036,OKLAHOMA CITY,73162,OKLAHOMA,processor, MARY MECHANIX
MODERN MEDICINE RX LLC ,PAAA-2KHD-4H8I,KBRADY@CHRISHARPERLAW.COM,4055144294,OKLAHOMA CITY,73118,OKLAHOMA,processor, MODERN CANNABIS
"MOZAIC HOLDINGS, LLC ",PAAA-NYGK-BTVB,FERNANDO@MOZAICHOLDINGS.COM,5208086272,OKLAHOMA CITY,73114,OKLAHOMA,processor,
"MWCG, INC. ",PAAA-EJWG-GVF8,TRIPP.WALCHER@GMAIL.COM,4052501433,OKLAHOMA CITY,73127,CANADIAN,processor," MWCG, INC."
MXZ PRODUCTS LLC ,PAAA-VKNI-PGR4,BTJ@BRIANTEDJONES.COM,4056398497,OKLAHOMA CITY,73120,OKLAHOMA,processor,
NATURE'S CURE PROCESSING LLC ,PAAA-EJP1-40Q4,NATURESCUREOKC@GMAIL.COM,4056795859,OKLAHOMA CITY,73129,OKLAHOMA,processor, NATURE'S CURE PROCESSING LLC
NATURE'S ELEMENT LLC ,PAAA-V1NI-NTTB,NATURESELEMENTOK@GMAIL.COM,4053145119,OKLAHOMA CITY,73142,OKLAHOMA,processor, NATURE'S ELEMENT
NECTAR COLLECTOR LLC ,PAAA-41QG-AMI1,DEADHEADED@COX.NET,4058500254,OKLAHOMA CITY,73105,OKLAHOMA,processor,
NOMAD PROCESSING LLC ,PAAA-VJSA-NFDH,DMOHAMMADI5@GMAIL.COM,4053080311,OKLAHOMA CITY,73122,OKLAHOMA,processor, DANDY LION
"OC GOLDLEAF, LLC ",PAAA-V1MG-HLGY,HARRY@OCGOLDLEAF.COM,8109230993,OKLAHOMA CITY,73129,OKLAHOMA,processor,
OK CANNABEV CO. ,PAAA-EZG0-PEPC,WHOLLOWAY@OKCANNABISDIRECT.COM,4053185415,OKLAHOMA CITY,73118,OKLAHOMA,processor, OK CANNABEV CO.
OK PLANT BASED THERAPY LLC ,PAAA-EYIB-UXB0,BCOSTA@JBEINDUSTRIES.COM,9416856064,OKLAHOMA CITY,73103,OKLAHOMA,processor, OK PLANT BASED THERAPY LLC
"OK PURPLE PROCESSING, INC. ",PAAA-NY4S-RYCN,GETCOREY@GMAIL.COM,4059238993,OKLAHOMA CITY,73135,OKLAHOMA,processor, OK PURPLE
OKCITY LABORATORIES LLC ,PAAA-EYGH-HM8Z,AARONA@MAGNUSMAHLON.COM,4053395777,OKLAHOMA CITY,73179,OKLAHOMA,processor,
"OKCTECHS HOLDINGS, INC. ",PAAA-NKPP-IDCI,INFO@LYVERALABS.COM,4056973891,OKLAHOMA CITY,73108,OKLAHOMA,processor, LYVERA LABS
"OKLAHOMA HERB COMPANY, LLC ",PAAA-NY8G-MVQY,JAKE122979@YAHOO.COM,4059249687,OKLAHOMA CITY,73112,OKLAHOMA,processor, OKLAHOMA HERB COMPANY
OKLAHOMA PRESSURE PRESS LLC ,PAAA-4JPO-8YQ6,OKLAHOMAPRESSURE@GMAIL.COM,4057888618,OKLAHOMA CITY,73106,OKLAHOMA,processor, OKLAHOMA PRESSURE
"OKLAHOMA PROCESSING SOLUTIONS, LLC ",PAAA-N1JE-51PR,LANCE@SIMPLECUREOK.COM,4056256764,OKLAHOMA CITY,73127,OKLAHOMA,processor, SIMPLE CURE
"ONE BY SEA, LLC ",PAAA-4JO9-VEHM,ADMIN@KUSABLOOMS.COM,4052095303,OKLAHOMA CITY,73112,OKLAHOMA,processor, KUSA BLOOMS EXTRACTS & EDIBLES
"OPERATING MFG, LLC ",PAAA-418U-U4AH,MARK@NATURESKEYEDIBLES.COM,4057608346,OKLAHOMA CITY,73112,OKLAHOMA,processor, NATURE'S KEY
ORIGINS AGRICULTURE LLC ,PAAA-4JGA-CR6N,JON@ORIGINSCORPORATE.COM,2069159212,OKLAHOMA CITY,73107,OKLAHOMA,processor,
PHARMICATED LLC ,PAAA-YPPM-C9FS,GREENRUSHHOLDINGSLLC@GMAIL.COM,9186182262,OKLAHOMA CITY,73135,OKLAHOMA,processor, PHARMICATED
"PRE-ROLL GROUP OF OKLAHOMA, LP ",PAAA-KX5M-LOJL,TYOUREN@GMAIL.COM,7025925567,OKLAHOMA CITY,73108,OKLAHOMA,processor, PRE-ROLL GROUP OF OKLAHOMA
"PRIME EXTRACTS, LLC ",PAAA-NKCU-FJL3,CREPLOGLE80@HOTMAIL.COM,4056992241,OKLAHOMA CITY,73120,OKLAHOMA,processor, PRIME EXTRACTS
PRIMO LABORATORIES LLC ,PAAA-4KQD-FEGU,WES@PRIMOHASHLABS.COM,4056335463,OKLAHOMA CITY,73120,OKLAHOMA,processor, PRIMO LABS
"PURE FORM EXTRACTS, LLC ",PAAA-4KWY-M9P5,PVANLAND@GMAIL.COM,4053236903,OKLAHOMA CITY,73116,OKLAHOMA,processor, PURE FORM EXTRACTS
PURPLE PUDDLE GROWERS LLC ,PAAA-VJHS-ZLZI,MASONBRIANNE3@GMAIL.COM,4056691938,OKLAHOMA CITY,73173,OKLAHOMA,processor,
"RDF INDUSTRIES, LLC ",PAAA-4JII-OFIE,KEVINPATTAH@GMAIL.COM,2489616160,OKLAHOMA CITY,73106,OKLAHOMA,processor,
RED DIRT LABS INCORPORATED ,PAAA-EYL7-LE5R,TOMMY@REDDIRTLABS.COM,4056515998,OKLAHOMA CITY,73116,OKLAHOMA,processor, RED DIRT LABS
RED EARTH ROSIN LLC ,PAAA-41TI-R2CW,JIMMY@TRIQUETRAVENTURES.COM,4055891241,OKLAHOMA CITY,73118,OKLAHOMA,processor, RED EARTH ROSIN
"RED RIVER REEFER, LLC ",PAAA-N19H-JNQH,REDRIVERREEFER@GMAIL.COM,9723585400,OKLAHOMA CITY,73173,OKLAHOMA,processor,
REDBUD GROWERS INC ,PAAA-VKMB-SLSO,MCOULTES@RBGROWERS.COM,4055090561,OKLAHOMA CITY,73139,OKLAHOMA,processor, REDBUD GROWERS INC
RELI EXTRACTS LLC ,PAAA-EHTK-ZUM5,RELIEXTRACTS@GMAIL.COM,4052647983,OKLAHOMA CITY,73129,OKLAHOMA,processor, RELI EXTRACTS LLC
"RISING ALTITUDE SUPPLY, LLC ",PAAA-NJHJ-5CJD,CRAFTCCO@GMAIL.COM,4054146275,OKLAHOMA CITY,73169,OKLAHOMA,processor, CRAFT CANNABIS EXTRACTS
ROYAL TREE PRODUCTIONS LLC ,PAAA-N1FN-38MT,JJWILDHABER@GMAIL.COM,2066050184,OKLAHOMA CITY,73128,OKLAHOMA,processor, ROYAL TREE PRODUCTIONS. LLC
SANTANABIS LLC ,PAAA-4YBS-3IRW,P.SANTANA0721@YAHOO.COM,7197760273,OKLAHOMA CITY,73114,OKLAHOMA,processor, SANTANABIS
"SAP RESOURCES, LLC ",PAAA-NJMG-GZE7,DENVER@STABILITYGROWS.COM,4056840321,OKLAHOMA CITY,73128,OKLAHOMA,processor, STABILITY CANNABIS
SAP XTRAX LLC ,PAAA-EYAN-P4VF,MQUINN@AO-IND.COM,4054135946,OKLAHOMA CITY,73107,OKLAHOMA,processor, SAP XTRAX
"SCISSORTAIL ESSENTIALS, LLC ",PAAA-41QX-WF64,SCISSORTAILESSENTIALS@GMAIL.COM,4059196834,OKLAHOMA CITY,73112,OKLAHOMA,processor,
SHI COMPANY LLC ,PAAA-NJYD-EJWR,OKCBEERMAN@GMAIL.COM,4054735870,OKLAHOMA CITY,73114,OKLAHOMA,processor,
SIRIUS RESEARCH LLC ,PAAA-NYVF-MNOL,VINCE@SIRIUSRESEARCHLLC.COM,4054028063,OKLAHOMA CITY,73106,OKLAHOMA,processor, SIRIUS RESEARCH LLC
"SKUNK, LLC ",PAAA-4JIF-5BGZ,KINDCREATION@GMAIL.COM,9703088539,OKLAHOMA CITY,73132,OKLAHOMA,processor, SKUNK
SLATE RIDGE LLC ,PAAA-UAN2-7B3A,CODYHARDRIDGE@GMAIL.COM,4056501114,OKLAHOMA CITY,73107,OKLAHOMA,processor, KURED CANNABIS
SMUSH LLC ,PAAA-VYZZ-ANSD,SMUSHOKC@GMAIL.COM,4056156392,OKLAHOMA CITY,73170,MCCLAIN,processor, SMUSH
SOONER EXTRACTS LLC ,PAAA-NJ2L-03NH,TY@SOONEREXTRACTS.COM,4055705455,OKLAHOMA CITY,73179,OKLAHOMA,processor, SOONER EXTRACTS LLC
"SOONER PURE, LLC ",PAAA-4JUJ-99BZ,RICHARD.ELY@ELFMFG.COM,9182691705,OKLAHOMA CITY,73105,OKLAHOMA,processor,
"SPECIALTY LABS GROUP, LLC ",PAAA-4KGQ-HICR,GM@SLGINC.NET,4054764332,OKLAHOMA CITY,73179,OKLAHOMA,processor, SPECIALTY LABS GROUP
SQUISHERMEN LLC ,PAAA-H5Q5-DCTK,SQUISHERMEN@GMAIL.COM,4055324650,OKLAHOMA CITY,73107,OKLAHOMA,processor, SQUISHERMEN
STONE EDIBLES LLC ,PAAA-9R7C-YSAC,TRACI@STONESISTERSPIZZA.COM,4058231029,OKLAHOMA CITY,73103,OKLAHOMA,processor, STONE EDIBLES LLC405823
STRAIGHT FIRE LLC ,PAAA-RMZW-KI3R,TUNG3737@YAHOO.COM,4056949343,OKLAHOMA CITY,73132,OKLAHOMA,processor, STRAIGHT FIRE PROCESSING
"SUGAR MAGNOLIA INFUSED EDIBLES, LLC ",PAAA-4KU2-L37J,SUGARMAGNOLIA405@GMAIL.COM,4058500281,OKLAHOMA CITY,73107,OKLAHOMA,processor," SUGAR MAGNOLIA INFUSED EDIBLES, LLC"
SUGARHIGH LLC ,PAAA-TZMK-ZU3X,SHELLY@SUGARHIGHCANNABISKITCHEN.COM,4053008335,OKLAHOMA CITY,73107,OKLAHOMA,processor, SUGARHIGH LLC
SUNSHINE LABS LLC ,PAAA-V1JS-FGZW,ALGOMAFARMSOK@GMAIL.COM,9185579998,OKLAHOMA CITY,73128,OKLAHOMA,processor,
TAKE A TRIP LLC ,PAAA-V1LD-KLT8,THETAKEATRIP@GMAIL.COM,9182321255,OKLAHOMA CITY,73114,OKLAHOMA,processor, TAKE A TRIP
"THC THE HEALING CANNABIS, LLC ",PAAA-E1TE-1CK7,MIKEARNETT1@GMAIL.COM,4057670522,OKLAHOMA CITY,73170,OKLAHOMA,processor,
THC TOTAL HERBAL CARE CORPORATION ,PAAA-VJWR-AJA0,LORETTALEVER@ATT.NET,5016261300,OKLAHOMA CITY,73135,OKLAHOMA,processor, CANNAMERICA
THE CURE CANNABIS CO. LLC ,PAAA-4KLA-9EH4,THECURECANNABISCO@GMAIL.COM,7027556655,OKLAHOMA CITY,73127,OKLAHOMA,processor, THE CURE CANNABIS CO.
"THE EMBASSY OKC, LLC ",PAAA-NY5K-V5XW,BANGBROTHERSFIREWORKS@GMAIL.COM,4242020729,OKLAHOMA CITY,73118,OKLAHOMA,processor,
"THE GOOD COMPANY PROCESSING, LLC ",PAAA-4KGF-TGTB,WES@PORTFOLIODENVER.COM,3036016159,OKLAHOMA CITY,73116,OKLAHOMA,processor, EVOK EXTRACTS
THE SUPPLY DISTRIBUTION LLC ,PAAA-VYXL-9RK8,BLAKE@THEPEAKOK.COM,9186061797,OKLAHOMA CITY,73134,OKLAHOMA,processor,
"TIMELESS SELECT III, LLC ",PAAA-N11K-3EFK,BRUCEDUB@GMAIL.COM,4805447222,OKLAHOMA CITY,73118,OKLAHOMA,processor, TIMELESS REFINERY
"TOP FLIGHT DISTRIBUTION, LLC ",PAAA-NYZT-6BFH,TERRY@IWANTZEN.COM,7602881530,OKLAHOMA CITY,73159,OKLAHOMA,processor, TOP FLIGHT DISTRIBUTION LLC
"TOP SHELF CANNABIS, LLC ",PAAA-4K6Y-IFLB,BRAD@BHELLIOTT.COM,2152084713,OKLAHOMA CITY,73132,OKLAHOMA,processor, TOP SHELF CANNABIS
"TOTAL HEALTH CONSORTIUM, LLC ",PAAA-EKW6-NKLD,KUSHLAND8139D@YAHOO.COM,4059196785,OKLAHOMA CITY,73127,OKLAHOMA,processor, KUSH LAND PREMIUM PROCESSING
"TREES PREMIUM CANNABIS, LLC ",PAAA-N1SZ-FPUE,NICHOLAS.CAPPELLARO@GMAIL.COM,4058802505,OKLAHOMA CITY,73117,OKLAHOMA,processor, TREES PREMIUM CANNABIS
"TRI PROCESSING KELSO, LLC ",PAAA-4YXE-0MGI,LOANNGUYEN231977@YAHOO.COM,5106808032,OKLAHOMA CITY,73107,OKLAHOMA,processor, TRI PROCESSING KELSO
TRIBE EDIBLES LLC ,PAAA-20C1-1RAH,KEVIN@COMBSTHIESSEN.COM,4056018811,OKLAHOMA CITY,73114,OKLAHOMA,processor, TRIBE EDIBLES
TRUWELL LLC ,PAAA-41EV-HPHE,CMICH1353@GMAIL.COM,3212889703,OKLAHOMA CITY,73142,OKLAHOMA,processor,
TWICE BAKED EDIBLES LLC ,PAAA-N1V1-ZSBV,FRITZ@WHITEBOX.NET,4055148169,OKLAHOMA CITY,73139,OKLAHOMA,processor, GREEN PLUS
TWISTED EXTRACTS LLC ,PAAA-4JVW-DHN5,MASONBRIANNE3@GMAIL.COM,4056691938,OKLAHOMA CITY,73173,CLEVELAND,processor, TWISTED EXTRACTS
TWISTED TRICHOMES LLC ,PAAA-3N5W-GHQB,TWISTEDTRICHOMESOKC@YAHOO.COM,4058495477,OKLAHOMA CITY,73114,OKLAHOMA,processor,
U CITIZENZ LTD CO ,PAAA-NKU7-QXVD,KYLE@UNRULYCITIZENS.COM,4052007343,OKLAHOMA CITY,73112,OKLAHOMA,processor, GRADE A
UNITY MEDICAL EXTRACTS LLC ,PAAA-CWMJ-I0ND,UNITYMEDICALEXTRACTS@GMAIL.COM,4058191413,OKLAHOMA CITY,73109,OKLAHOMA,processor,
"UNLIMITED EXTRACTIONS, INC. ",PAAA-4YM1-ZZOV,SCMULLINS310@GMAIL.COM,4053431038,OKLAHOMA CITY,73129,OKLAHOMA,processor," UNLIMITED EXTRACTIONS, INC."
"V LEAF PROCESSING, LLC ",PAAA-IPXX-6AKW,MARKG@THEVLEAF.COM,5803997768,OKLAHOMA CITY,73127,OKLAHOMA,processor," V LEAF PROCESSING, LLC"
"VICE CAPITAL EXTRACTION, LLC ",PAAA-EK2L-2W9W,RYAN.VICE@ICLOUD.COM,4057407926,OKLAHOMA CITY,73107,OKLAHOMA,processor,
WELL GREENS BROADWAY LLC ,PAAA-E1LD-HQN5,MANAGEMENT@WELLGREENSOKC.COM,2485901161,OKLAHOMA CITY,73103,OKLAHOMA,processor, WELL GREENS
WESTERNBENT HOLDINGS LLC ,PAAA-4KOA-WJUP,LJ24D@YAHOO.COM,4052093731,OKLAHOMA CITY,73116,OKLAHOMA,processor, AUXIN PROCESSING
WHITE LABEL PROCESSING INC. ,PAAA-KQMU-RMCT,HOLZBAUGH@YAHOO.COM,4058378873,OKLAHOMA CITY,73119,OKLAHOMA,processor, WHITE LABEL PROCESSING
"WHTC HOLDINGS, LLC ",PAAA-NYFE-TYMD,WHOLLOWAY@OKCANNABISDIRECT.COM,4053185415,OKLAHOMA CITY,73114,OKLAHOMA,processor, OKLAHOMA CANNABIS DISTRIBUTION
WILDFIRE BOTANICALS LLC ,PAAA-EKJD-QJYC,TARA.THREATT@GMAIL.COM,4055348783,OKLAHOMA CITY,73159,CLEVELAND,processor,
WISE LLC ,PAAA-4JTE-RXFV,WISEOKC@GMAIL.COM,4058879830,OKLAHOMA CITY,73118,OKLAHOMA,processor,
XANDER PROCESSING LLC ,PAAA-KAJL-206R,VAIPAR03@GMAIL.COM,4054892259,OKLAHOMA CITY,73104,OKLAHOMA,processor, XANDER PROCESSING
XEN XTRACTS LLC ,PAAA-NKLY-4DUZ,NATHANBURLESON@COX.NET,4057606731,OKLAHOMA CITY,73107,OKLAHOMA,processor, XEN XTRACTS
XLT SOLUTIONS LLC ,PAAA-NJDX-3XLV,SALI78619@GMAIL.COM,2695985464,OKLAHOMA CITY,73104,OKLAHOMA,processor,
YURA LLC ,PAAA-PFYW-JBQM,JOHNTVU1@GMAIL.COM,4055967794,OKLAHOMA CITY,73107,OKLAHOMA,processor, SALU
ZENOA LLC ,PAAA-4KYG-QHQC,DAVEZANON@ZENOACANNA.COM,5174109293,OKLAHOMA CITY,73127,OKLAHOMA,processor,
CANNABLESS PROCESSOR 1 LLC ,PAAA-V1U7-J0YK,CSISERVICESOKC@GMAIL.COM,4054569997,OKLAHOMA CITY,73170,CLEVELAND,processor, CANNABLESS PROCESSOR 1 LLC
CANNABLESS PROCESSOR 2 LLC ,PAAA-BZRZ-ADNV,LEGAL@CANNABLESS.CO,4056354814,OKLAHOMA CITY,73104,OKLAHOMA,processor, CANNABLESS
CANNABLESS PROCESSOR 3 LLC ,PAAA-RD7J-XCPK,LEGAL@CANNABLESS.CO,4056354814,OKLAHOMA CITY,73132,OKLAHOMA,processor, CANNABLESS
"OKLAHOMA NATURAL CURES 3, INC. ",PAAA-N1XI-UAZ8,TIM@HIGHSOCIETYOK.COM,4054735870,OKLAHOMA CITY,73107,OKLAHOMA,processor, HIGH SOCIETY
ALTCARE 7 LLC ,PAAA-NYYF-8CFY,PAUL@FIRELEAFOK.COM,4054760908,OKLAHOMA CITY,73108,OKLAHOMA,processor, ALTCARE 3 LLC
"CLOUD 13, LLC ",PAAA-41DG-LN3B,MANAGER@CLOUD13RX.COM,4054389333,OKLAHOMA CITY,73139,OKLAHOMA,processor," CLOUD 13, LLC"
EVERYTHINGS OK NOW 19 LLC ,PAAA-EKT7-GWC8,MO@EVERYTHINGSOK.GREEN,3058017900,OKLAHOMA CITY,73106,OKLAHOMA,processor,
LENSE 22 SOCIETY ,PAAA-NJBT-HTAQ,CORBINADO@GMAIL.COM,4052028656,OKLAHOMA CITY,73116,OKLAHOMA,processor, STELLAR
REMEDY 46 EXTRACT LLC ,PAAA-N1GA-LIDD,INFO@OKIEKUSHCLUB.COM,4055193421,OKLAHOMA CITY,73106,OKLAHOMA,processor, OKIE KUSH CLUB
BINGO 101 ,PAAA-XWOR-LVLD,TIM@HIGHSOCIETYOK.COM,4054735870,OKLAHOMA CITY,73107,OKLAHOMA,processor, MEDICINE MAN
GREEN MOTAVATION 111 LLC ,PAAA-N1BZ-XIE9,GREENMOTAVATION3@GMAIL.COM,4056062717,OKLAHOMA CITY,73139,OKLAHOMA,processor,
323 NW 23RD LLC ,PAAA-VK7N-NCTD,BRENT@MILLENNIALCG.COM,4054269848,OKLAHOMA CITY,73105,OKLAHOMA,processor, OKIE KUSH CLUB
405 GREEN LLC ,PAAA-NJLQ-UQPI,JROMANEK@COX.NET,4052459470,OKLAHOMA CITY,73112,OKLAHOMA,processor,
405 BUDZ 2 LLC ,PAAA-NKXF-LLRE,405BUDZ@GMAIL.COM,4056182717,OKLAHOMA CITY,73106,OKLAHOMA,processor, 405 BUDZ
CANNABIS PRO 420 LLC ,PAAA-NYS1-U9L8,EBFALKNER77@GMAIL.COM,4054054206,OKLAHOMA CITY,73107,OKLAHOMA,processor, PROJECT WHOLESALE
"710 KINGS, INC ",PAAA-NKJC-UMHN,RICKDIMENT@GMAIL.COM,4058189049,OKLAHOMA CITY,73179,OKLAHOMA,processor,
710 TRADING CO. LLC ,PAAA-G9WH-CJI1,710TRADINGINFO@GMAIL.COM,5807049966,OKLAHOMA CITY,73179,OKLAHOMA,processor, 710 TRADING CO.
5216 PROCESSING LLC ,PAAA-Q2CP-HXGN,JOSH@STARBUDS.US,7202178883,OKLAHOMA CITY,73128,OKLAHOMA,processor,
"BLOCKHEAD OKLAHOMA EXTRACTION, LLC ",PAAA-TK7M-I9NP,HOOPERJAIV@OUTLOOK.COM,7145018374,OKMULGEE,74447,OKMULGEE,processor," BLOCKHEAD OKLAHOMA EXTRACTION, LLC"
"CUSTOM CANNABIS,  LLC ",PAAA-E1CX-RGEE,CUSTOMCANNABISLLC@GMAIL.COM,3613188150,OKMULGEE,74447,OKMULGEE,processor,
SMPLY FARM LLC ,PAAA-N1KJ-W8IW,HPUNJANI.HP@GMAIL.COM,9178155669,OKMULGEE,74447,OKMULGEE,processor, N/A
TERPTONICS LLC ,PAAA-Q7VZ-1TEK,TERPTONICS@GMAIL.COM,5129682322,OKMULGEE,74447,OKMULGEE,processor,
"TULSA HEALTH CLINICS, LLC ",PAAA-EYML-OKWH,LAURASMOLEN@GMAIL.COM,9186336438,OKMULGEE,74447,OKMULGEE,processor," TULSA HEALTH CLINICS, LLC"
"COHIBUD, LLC ",PAAA-HMHI-WVV7,ROCKYF5150@GMAIL.COM,5804650877,OVERBROOK,73453,LOVE,processor, COHIBUD
1201 LABS ,PAAA-4J2C-RZUW,ANDREWK3@GMAIL.COM,7608456199,OVERBROOK,73453,LOVE,processor,
"J&E INVESTMENTS & CONSULTING, LLC ",PAAA-4JLF-SGT2,GUERRA954@GMAIL.COM,9543959530,OWASSO,74055,TULSA,processor,
PAKALOLO HI ,PAAA-E10A-NUBI,PAKALOLOHI918@GMAIL.COM,9189065915,OWASSO,74055,TULSA,processor,
THE ECS SHOP LLC ,PAAA-EJNN-LWDK,CHIP@THEECSSHOP.COM,9186915141,OWASSO,74055,TULSA,processor, THE ECS SHOP
NUTTY BUD LLC ,PAAA-VKH4-AQSP,CYCURTIS154@YAHOO.COM,4056423294,PADEN,74860,OKFUSKEE,processor,
"NATIVE HARVEST RXTRACTS, INC ",PAAA-YCWK-CMH4,TOM@NATIVEHARVESTRXTRACTS.COM,4054748824,PAOLI,73074,MCCLAIN,processor,
"NATIVE SON EXTRACTS, LLC ",PAAA-VKF4-QMUE,WOODS.MIKE288@GMAIL.COM,8178913189,BIG CABIN,74332,CRAIG,processor,
"NGO PRODUCTS, LLC ",PAAA-4KZV-J7YM,OTOGI13@GMAIL.COM,7144173777,BILLINGS,74630,NOBLE,processor,
"ALTRUA EXTRACTS, LLC ",PAAA-BBSY-0V9M,RYANB@GCIMGMT.COM,9183469787,BIXBY,74008,TULSA,processor,
CANNABERRY LLC ,PAAA-NKXL-ZHWV,SONYA@CANNABERRY.NET,9189826555,BIXBY,74008,TULSA,processor, CANNABERRY LLC
"FARM PROCESS,  LLC ",PAAA-412D-8UJU,ROB@LANDSCAPEANDSOD.COM,9189066463,BIXBY,74008,TULSA,processor,
GREEN BISON CANNABIS CO ,PAAA-EJMR-OZNU,2BFLYNRC@GMAIL.COM,9184074496,BIXBY,74008,TULSA,processor, GREEN BISON
"GREEN COUNTRY BUD, INC. ",PAAA-4Y8B-ZDHN,JS@QUICKCERT.ORG,9188524431,BIXBY,74008,WAGONER,processor,
HOLI EXTRACTS LLC ,PAAA-38LS-FD3A,JSASKO@HOLI-EXTRACTS.COM,9186139637,BIXBY,74008,TULSA,processor, HOLI EXTRACTS
KANATI CONCEPTS LLC ,PAAA-VJKA-JXSE,ISAAC.HUDELSON@KANATICONCEPTS.COM,9189988119,BIXBY,74008,TULSA,processor, KANATI PROCESSING
LETTUCE HEAD LABS LLC ,PAAA-4KSL-N4QY,JS@QUICKCERT.ORG,9188524431,BIXBY,74008,WAGONER,processor,
MIDWEST EXTRACTIONS LLC ,PAAA-E1NE-1KUW,MWEXTRACTIONS@GMAIL.COM,9188086239,BIXBY,74008,TULSA,processor, MIDWEST EXTRACTIONS LLC
MODERN HIPPY EXTRACTS LLC ,PAAA-KK7V-B6Z9,BRIANJDUCK@GMAIL.COM,9185085434,BIXBY,74008,TULSA,processor, 918 ARK EXTRACTIONS
"REDZMEDZ, LLC ",PAAA-EYQP-WJ5H,BLHAILEY01@GMAIL.COM,9186946030,BIXBY,74008,TULSA,processor,
"RUBY MAE'S, LLC ",PAAA-EKRQ-5DLS,TRAVIS.B.HUNTER@GMAIL.COM,9182616122,BIXBY,74008,TULSA,processor,
SOCO KITCHEN LLC ,PAAA-EJCF-MZXM,RYANLBERMEL@GMAIL.COM,3037093128,BIXBY,74008,TULSA,processor,
"LETS ROLL ONE, LLC ",PAAA-D6HQ-6PKS,KELLNER.GEOGE@GMAIL.COM,5802167781,PARK HILL,74451,CHEROKEE,processor, LETS ROLL ONE
TENKILLER TREES LLC ,PAAA-NJZO-CFIR,TENKILLERTREES@GMAIL.COM,9185105501,PARK HILL,74451,CHEROKEE,processor,
"BIG DOG CANNABIS COMPANY, LLC ",PAAA-H0IA-9GMN,JEFF@BURNHAMINV.COM,4058343850,PAULS VALLEY,74075,GARVIN,processor," BIG DOG CANNABIS COMPANY, LLC"
"DJB AGRICULTURAL, INC ",PAAA-NKYE-2XQK,CLAUDIAJRAY@PREMIEREVALLEYPRODUCTS.COM,4052079333,PAULS VALLEY,73075,GARVIN,processor, PREMIER VALLEY PRODUCTS
"EARTHMANA, LLC ",PAAA-4KZY-EYFW,TMJRHOLDINGS@GMAIL.COM,4052380086,PAULS VALLEY,73075,GARVIN,processor, HONEY TUMMY KITCHENS
"GOLDEN TREE, LLC ",PAAA-4YV6-DL1U,MATT@STACYLEGALGROUP.COM,4058167228,PAULS VALLEY,73075,GARVIN,processor,
SMACK'D EDIBLES AND EXTRACTS LLC ,PAAA-LUGU-UFMN,CDULEY_32@YAHOO.COM,4052510410,PAULS VALLEY,73075,GARVIN,processor,
Z&W GREEN TREES LLC ,PAAA-KRY8-YRQZ,MATT@STACYLEGALGROUP.COM,4058167532,PAULS VALLEY,73075,GARVIN,processor, Z&W GREEN TREES LLC
HARPER CREEK FARMS LLC ,PAAA-NYJZ-TMC3,THEHARPERCREEKFARMS@GMAIL.COM,4056554637,PAWNEE,74058,PAWNEE,processor, HARPER CREEK FARMS
GANULV PROCESSING LLC ,PAAA-BQDI-MFHC,GANULVPROCESSING@GMAIL.COM,9188641186,PEGGS,74452,CHEROKEE,processor, GANULV PROCESSING LLC
"CHOW KING Z, LLC ",PAAA-EYMA-051L,MATT@STACYLEGALGROUP.COM,4058167228,PERKINS,74059,LINCOLN,processor," CHOW KING Z, LLC"
"GREEN BEE MEDS, LLC ",PAAA-EY5P-EUPN,KEVINBD@GMAIL.COM,6263751440,PERKINS,74059,PAYNE,processor, GREEN BEE MEDS
"MEDFARM ORGANICS, LLC ",PAAA-EJWY-WXFD,MEDFARMORGANICS@GMAIL.COM,4053388277,PERKINS,74059,PAYNE,processor,
"46 ORGANICS, INC ",PAAA-R3IR-RFNX,HAPPY@46ORGANICSINC.NET,4055700891,PERKINS,74059,LINCOLN,processor, 46 ORGANICS
GZ ENTERPRISES LLC ,PAAA-RB2Z-2XKZ,KAYLA.UNRUH@GZ-ENTERPRISES.COM,5803361351,PERRY,73077,NOBLE,processor, EXTREME BUDS & XTRACTS LLC
"RANCHO PURA VERDE, LLC ",PAAA-E1UL-KAK0,KYLE73078@HOTMAIL.COM,4054146289,PIEDMONT,73078,CANADIAN,processor," RANCHO PURA VERDE, LLC (NO TRADE NAME)"
BLAK LABEL INDUSTRIES ,PAAA-4KNN-YDT5,VIP@BLAKLABELIND.COM,4052470401,POCASSET,73079,OKLAHOMA,processor, BLAK LABEL
"CLOUDIX365, LLC ",PAAA-1O5W-B0RM,PMDOUGLAS66@HOTMAIL.COM,4054099293,POCASSET,73079,GRADY,processor," CLOUDIX365, LLC"
"F&F MANUFACTURING, LLC ",PAAA-EY5B-9IOI,FISHERCOLLISIONREPAIR@GMAIL.COM,2252532267,PONCA CITY,74604,OSAGE,processor,
GRANDPA FELIX LLC ,PAAA-SDJA-EFGF,GRANDPAFELIX1958@YAHOO.COM,5803045024,PONCA CITY,74604,KAY,processor, GRANDPA FELIX LLC
HEMP STATION DISPENSARY LLC. ,PAAA-41KL-X30Q,MAGGIEMAGEN@GMAIL.COM,5803043651,PONCA CITY,74604,OSAGE,processor, HEMP STATION DISPENSARY  LLC
HYDRO BLOOM LLC ,PAAA-DZLN-QQM2,GHARVEY@MJHFAB.COM,5807162111,PONCA CITY,74604,OSAGE,processor,
PANGKEN LLC ,PAAA-BWJU-DV46,TIGERSLOVE.OKLA@GMAIL.COM,4153594696,PONCA CITY,74604,KAY,processor, PANGKEN LLC
"PONCA CITY DISPENSARY, INC. ",PAAA-EYWV-C9N8,JVL.KIRBY@GMAIL.COM,5807890284,PONCA CITY,74601,KAY,processor, SAVAGE EXTRACTS
PURPLE MOUNTAIN ENTERPRISES LLC ,PAAA-EKVX-Q604,MASONBRIANNE3@GMAIL.COM,4056691938,PONCA CITY,74601,KAY,processor, KUSH GARDENS
"CHAMPAGNE EXTRACTS, LLC ",PAAA-41MS-DWPD,MERCERPOOL@HOTMAIL.COM,2142076167,PORUM,74455,MUSKOGEE,processor,
CANNA STAR STAPLES LLC ,PAAA-EY9E-UI2W,POKONINI1@ICLOUD.COM,9186495042,POTEAU,74953,LE FLORE,processor, CANNA STAR STAPLES LLC
"PREMIER MEDICAL RX, LLC ",PAAA-EKJS-52CM,OKPTA763@YAHOO.COM,9184131295,POTEAU,74953,LE FLORE,processor, PREMIER MEDICAL RX
"SMACKER TOBACKER, LLC ",PAAA-QV01-JXYO,HEIDI@OCDOFFICE.COM,9186477956,POTEAU,74953,LE FLORE,processor, SMACKER T
"UBANGI FARM, LLC ",PAAA-NJDP-ATCW,SPROKIT_UP@ICLOUD.COM,9186476655,POTEAU,74953,LE FLORE,processor, UBANGI
"GREEN TREES LAB, LLC ",PAAA-QAAD-OSLT,GREENTREESOK@GMAIL.COM,3175066263,PRAGUE,74864,LINCOLN,processor, GREEN TREES LAB
JEFF BC PROPERTIES LLC ,PAAA-E6KC-9JGL,MATT@STACYLEGALGROUP.COM,4058167532,PRAGUE,74864,LINCOLN,processor,
"MAGIC MARLEY GREEN RE-LEAF, LLC ",PAAA-VYXE-PVJI,MAGICMARLEYGREENRELEAF@GMAIL.COM,7866024442,PRAGUE,74864,LINCOLN,processor, MAGIC MARLEY GREEN RE-LEAF
PRISTINE & GREEN LLC ,PAAA-NG8H-VH9N,PGFARMSOKC@GMAIL.COM,4054345430,PRAGUE,74864,POTTAWATOMIE,processor, PRISTINE & GREEN LLC
R2 BIOLOGIC LLC ,PAAA-RXJB-IXQK,MATT@STACYLEGALGROUP.COM,4057353800,PRAGUE,74864,LINCOLN,processor,
"ORGANIC DRIP, LLC ",PAAA-VYGC-7D4S,OKLAHOMA.ORGANIX.OK@GMAIL.COM,4062061919,PROCTOR,74457,ADAIR,processor,
"COOL ZERO GROW, LLC ",PAAA-4KSH-CBVL,DANC@THEZEROGROUP.COM,9188245846,PRYOR,74361,MAYES,processor, THE ZERO GROUP
"DCDC ENTERPRISES, INC ",PAAA-EKJ5-6X75,MMEDLABZOK@GMAIL.COM,9182619559,PRYOR,74361,MAYES,processor, MMED LABZ
"KING KANNA CONCENTRATES, LLC ",PAAA-EUXN-03RU,11WARRIOR761986@GMAIL.COM,9185218847,PRYOR,74361,MAYES,processor,
PHB GROWERS LLC ,PAAA-VYEI-ZBGT,CHRIS@PRYORTRUSS.COM,9182324646,PRYOR,74361,MAYES,processor, PHB GROWERS LLC
"VETERANS ENG GROUP, INC. ",PAAA-VKT5-REOD,BRIAN.LEDBETTER@VETENGGROUP.COM,9185214865,PRYOR,74361,MAYES,processor, WARHORSE EXTRACTIONS
"BAR-H INDUSTRIES, LLC ",PAAA-KWWL-LNRP,UNDERTOW11@GMAIL.COM,4055178611,PURCELL,73080,MCCLAIN,processor," BAR H INDUSTRIES, LLC"
CANNABUL LECTER LLC ,PAAA-E1H9-9N7X,MIKKIF19@YAHOO.COM,4058222257,PURCELL,73080,MCCLAIN,processor,
"CLC CANNABASS FARMS, LLC ",PAAA-V1D1-HIO4,LIZZI1063@YAHOO.COM,5804451392,PURCELL,73080,MCCLAIN,processor," CLC CANNABASS FARMS, LLC"
DAB NINJA CANNABIS COMPANY  LLC ,PAAA-YMAY-OLTJ,L4O2C0AL@GMAIL.COM,4056551680,PURCELL,73080,MCCLAIN,processor, DAB NINJA CANNABIS CO.
FIRST TULSA PROCESSING ENTERPRISES LLC ,PAAA-N1HD-EZDO,SAHEB222@YAHOO.COM,4058181818,PURCELL,73080,MCCLAIN,processor, FIRST TULSA PROCESSING ENTERPRISES
HEMPIRE INDUSTRIES LLC ,PAAA-4KTN-8XOI,DAVID@THCCO.COM,5097790123,PURCELL,73080,MCCLAIN,processor,
"PINKIE'S FOREST TERPENE BAR & DISPENSARY,, LLC ",PAAA-V1LN-ENPN,FRTDLEMAY@AOL.COM,4057612425,PURCELL,73080,MCCLAIN,processor, PINKIE'S FOREST DISPENSARY
PURE OK FARMS LLC ,PAAA-EJEC-BBAH,JOHNMEKLER@HOTMAIL.COM,9183291177,QUAPAW,74363,OTTAWA,processor, PURE OK FARMS
GREEN PROCESSING ,PAAA-GQ7N-P0RK,JUSTIN0ORNER@GMAIL.COM,2086813007,QUINTON,74561,PITTSBURG,processor,
CARLOTTA COLENE GORDON ,PAAA-NYWZ-VONJ,OKLAHOMALOTUSFLOWERSLLC@GMAIL.COM,9186975768,RAMONA,74061,WASHINGTON,processor,
"VVP NATURAL, LLC ",PAAA-SBCG-4S1H,AMY@MGROUPTEXAS.COM,9406485263,RAMONA,74061,WASHINGTON,processor," VVP NATURAL, LLC"
HK ORGANIC EXTRACTS LLC ,PAAA-7SCI-JRFC,HKORGANICFARMS@GMAIL.COM,9184656717,RED OAK,74563,LATIMER,processor, HK ORGANIC EXTRACTS
THE STATION CANNABIS COMPANY LLP ,PAAA-HSVT-G93T,COFFEYFARMSOK@YAHOO.COM,9184480942,RED OAK,74563,LATIMER,processor, THE STATION CANNABIS COMPANY - PROCESSOR
AMERICAN REMEDY HEMP COMPANY ,PAAA-4YBP-ZXSV,KATIE@AMERICANREMEDYHEMP.COM,3204911843,RINGLING,73456,JEFFERSON,processor, TURTLELEAF CO
ROCH & CO.LLC ,PAAA-4YWN-MGZR,CHANCEROCHELL91@GMAIL.COM,9038187677,RINGLING,73456,JEFFERSON,processor,
"SUNDAE'S SOUTHERN ROOTS, LLC ",PAAA-41CM-RQUV,SUNDAESSOUTHERNROOTS@GMAIL.COM,5802122214,RINGOLD,74754,PUSHMATAHA,processor," SUNDAE'S SOUTHERN ROOT, LLC"
CHIMNEY HILL APOTHECARY LLC ,PAAA-E1LV-T9RI,CHIMNEYHILLAPOTHECARY@GMAIL.COM,5802723437,ROFF,74865,PONTOTOC,processor, CHIMNEY HILL APOTHECARY LLC
"BEST QUALITY OK  NATURAL PRODUCTS, LLP ",PAAA-VYTM-4ZNV,OKNATURALPRODUCTS1@GMAIL.COM,4794206230,ROLAND,74954,SEQUOYAH,processor," BEST QUALITY OK NATURAL PRODUCTS , LLP"
"DITCHWEED HILBILLY FARMS, LLC ",PAAA-B9FL-OKHO,DITCHWEEDHILLBILLYFARMS@GMAIL.COM,5016179456,ROLAND,74954,SEQUOYAH,processor, N/A
"WD FARMS, LLC ",PAAA-3X60-YTEV,DEREKNETZ17_@HOTMAIL.COM,9187746137,ROLAND,74954,SEQUOYAH,processor, WD FARMS PROCESSING
NUTRIENT LLC ,PAAA-4JF2-DJZU,NUTRIENTLLC@GMAIL.COM,3018480474,ROSE,74364,CHEROKEE,processor, NUTRIENT FARMS
SLOSSON FAMILY FARMS ,PAAA-EYTQ-LNRR,SLOSSONHEMP@YAHOO.COM,7193678185,ROSE,74364,CHEROKEE,processor,
ASTRAL MEDICAL HEALTH AND WELLNESS LLC ,PAAA-DH2T-UWEN,ASTRALMEDICAL@GMAIL.COM,4052486788,RUSH SPRINGS,73082,GRADY,processor, ASTRAL MEDICAL HEALTH AND WELLNESS
BC MEDICAL PROCESSING LLC ,PAAA-NK6J-TAAT,BCMEDICALPROCESSING@GMAIL.COM,5807060271,RUSH SPRINGS,73082,GRADY,processor, BC MEDICAL PROCESSING LLC
GRIND INC ,PAAA-NJ9B-E1LK,GRAVITYRX1@GMAIL.COM,5808612837,RUSH SPRINGS,73082,GRADY,processor, GRAVITY MEDS
OG HOLDINGS LLC ,PAAA-V1ZX-TN8Q,OZZIEGALLEGOS90@GMAIL.COM,4053203924,RUSH SPRINGS,73082,GRADY,processor,
TERRY BURNS ENTERPRISES INC ,PAAA-VJVL-EZFS,BURNSRTERRY@AOL.COM,9186401043,SALINA,74365,MAYES,processor, KEEPING IT GREEN
HAPPY HIPPIE INC. ,PAAA-JIIT-M8Y9,SHANIA.VALDIVIA@HOTMAIL.COM,9187758895,SALLISAW,74955,SEQUOYAH,processor,
"J AND J FARMACEUTICALS, LLC ",PAAA-N1SK-DDXZ,JANDJFARMACEUTICALS@GMAIL.COM,9185712740,SALLISAW,74955,SEQUOYAH,processor,
PREMIUM CANNABIS HOLDINGS LLC ,PAAA-UXWD-VXOR,WILLIAMG0318@GMAIL.COM,9513250794,SALLISAW,74955,SEQUOYAH,processor, PREMIUM CANNABIS HOLDINGS LLC
"SHRUM'S CRUMS, LLC ",PAAA-F4EO-RMQ0,TOPSHELFSALLISAW@GMAIL.COM,9187745732,SALLISAW,74955,SEQUOYAH,processor, SHRUM'S CRUMS
HIGH 5 PROCESSING LLC ,PAAA-VJJR-XXBX,RODNEY.HOWERTON@HIGH5FARMS.NET,9187763233,SALLISAW,74955,SEQUOYAH,processor,
BAD WOLF CANNABIS LLC ,PAAA-VKZP-TEEE,BADWOLFCANNABIS@GMAIL.COM,9186952924,SAND SPRINGS,74063,TULSA,processor, BWC
HARVEST HEALTH EXTRACT LLC ,PAAA-N1MM-GVJ1,TONY@OKHARVESTHEALTH.COM,9184073740,SAND SPRINGS,74063,TULSA,processor, CANNASSEUR EXTRACT AND HIGH INFUSIONS
"JINYU GREEN, LLC ",PAAA-41O2-RNII,MATT@STACYLEGALGROUP.COM,4058167228,SAND SPRINGS,74063,TULSA,processor,
LIGHTHEART LABS LLC ,PAAA-EK5K-UUY7,TODD@LIGHTHEARTFARMS.COM,9189028006,SAND SPRINGS,74063,TULSA,processor, LIGHTHEART LABS
OKLAHOMA INFUSIONS INC. ,PAAA-4YGA-3YER,PATRICKIANMOORE.ARTIST@GMAIL.COM,4175922756,SAND SPRINGS,74063,TULSA,processor, OUTLAW HARVEST
"RAREXTRACTS, LLC ",PAAA-41V9-CFWO,RARE.EXTRACTS.OK@GMAIL.COM,3052995101,SAND SPRINGS,74063,TULSA,processor,
SOLOS EXTRACT COMPANY LLC ,PAAA-VKMN-HFQD,INNISCODY@GMAIL.COM,9188992639,SAND SPRINGS,74063,TULSA,processor, SOLOS EXTRACTS
"THCREATIONS, LLC ",PAAA-VJU5-D8V9,NATHAN.VAUGHN@THCREATIONSLLC.COM,9188147671,SAND SPRINGS,74063,TULSA,processor, THCREATIONS LLC
TJHZD LLC ,PAAA-4JC6-BOY8,HUANGLIZHENG03150816@GMAIL.COM,7197251634,SAND SPRINGS,74063,OSAGE,processor,
ANTHONY LUNSFORD ,PAAA-RJQK-HACS,LHCEXTRACTS@GMAIL.COM,9186074681,SAPULPA,74066,CREEK,processor, LHC EXTRACTS
BLUE SKY LABS LLC ,PAAA-8V8Q-H2LL,5644911@GMAIL.COM,9188295232,SAPULPA,74066,CREEK,processor, BLUE SKY LABS
"C3E MANAGEMENT, LLC ",PAAA-NJ1M-DPYQ,RCHARLESWILKIN@GMAIL.COM,9186977803,SAPULPA,74066,CREEK,processor, GOLD RUSH PREMIUM EXTRACTS
CRAFT BUDS PROCESSING LLC ,PAAA-4J0Y-D6HJ,KATHY@CRAFTBUDS.NET,9186339931,SAPULPA,74066,CREEK,processor, CRAFT BUDS PROCESSING LLC
"CUSTOMER CARE, LLC ",PAAA-NYNO-3DV6,AMY@CUSTOMERCAREOK.COM,9188077183,SAPULPA,74066,CREEK,processor, AMY'S EDIBLES
FUEGO PREMIUM EXTRACTS LLC ,PAAA-4YG4-J4SB,JOHNWESLEYSEARS@GMAIL.COM,7025012986,SAPULPA,74066,CREEK,processor, FUEGO PREMIUM EXTRACTS LLC
MAGPIE PROCESSING LLC ,PAAA-4YIN-OZKD,LINDSEY.WATTS@TRUEDIGITALSECURITY.COM,9188048848,SAPULPA,74066,TULSA,processor,
"OKLAHOMA MEDIBLES, LLC ",PAAA-EJFW-XFDB,OKLAHOMAMEDIBLES@GMAIL.COM,9186332256,SAPULPA,74066,CREEK,processor,
21 CRIMES LLC ,PAAA-E1HK-VWZW,MINDI.WILKIN@GMAIL.COM,9186300296,SAPULPA,74066,CREEK,processor, 21 CRIMES
THE LEGAL PLUG 918 INC ,PAAA-EYAE-RZMQ,THELEGALPLUG918@GMAIL.COM,9184089686,SAPULPA,74066,CREEK,processor, THE LEGAL PLUG
WHITE ACRE GROW LLC ,PAAA-SM1E-BL3M,MATT@STACYLEGALGROUP.COM,4057353800,SAWYER,74756,CHOCTAW,processor, WHITE ACRE GROW LLC
BROWN IRISH SOLUTIONS ,PAAA-EJUX-VLZ8,JUMP71MASTER@YAHOO.COM,8066837236,SAYRE,73662,BECKHAM,processor, BROWN IRISH SOLUTIONS
A.C.E. ENTERPRISE LLC ,PAAA-EJWB-PZXK,BEWALKER86@YAHOO.COM,6198224942,SEMINOLE,74868,SEMINOLE,processor, GOOEYPANDA
"ABUDAVENTURE BAKE SHOP, LLC ",PAAA-VYIY-OHJE,ROBIN@AROBINSNESTHOLDINGSLLC.ONMICROSOFT.COM,4058272327,SEMINOLE,74868,SEMINOLE,processor,
"ACREAGE OK HOLDINGS, LLC ",PAAA-4KSX-AVD9,P.DOHERTY@ACREAGEHOLDINGS.COM,5702412812,SEMINOLE,74868,SEMINOLE,processor,
"ALCHEMA UNITED LABS, LLC ",PAAA-G7Z0-7IUL,DANIEL@GROWUNITEDFARMS.COM,9492440381,SEMINOLE,74868,SEMINOLE,processor, ALCHEMA UNITED LABS
BUDDERGURL MEDICINALS ,PAAA-NYGF-XUUN,JEFFERYVOLK@AOL.COM,4059992343,SEMINOLE,74868,SEMINOLE,processor,
D.E.N. LLC ,PAAA-33BQ-AKOM,AKHANNA123@YAHOO.COM,4053315557,SEMINOLE,74868,SEMINOLE,processor, TERPT
"LIBERTY GROWERS, LLC ",PAAA-41AT-RDMF,RANDALLRYAN@LIBERTY-GROWERS.COM,4054355837,SEMINOLE,74868,SEMINOLE,processor,
FIRESIDE EXTRACTS LLC ,PAAA-EJLP-YDJ0,FIRESIDEEXTRACTS@GMAIL.COM,9184137680,SHADY POINT,74956,LE FLORE,processor, FIRESIDE EXTRACTS LLC
LEFT HANDED OKIES EXTENDED ,PAAA-N1GC-WCJT,SHORTYMAGOO_2006@YAHOO.COM,9186494074,SHADY POINT,74956,LE FLORE,processor,
CANNAFUSION L.L.C. ,PAAA-NYOB-LDHI,JENNA4LYNN@ATT.NET,2093249810,SHAWNEE,74801,POTTAWATOMIE,processor, JENNIFER APPICELLO
CANNAGROW LLC ,PAAA-N18A-FMSK,DIRK@CGLLCOK.COM,4054125387,SHAWNEE,74801,POTTAWATOMIE,processor, CANNAGROW
ESSENTIAL FLOWERS LLC ,PAAA-VKND-RLDC,ESSENTIALFLOWERSOK@GMAIL.COM,4057885652,SHAWNEE,74801,POTTAWATOMIE,processor,
"FORESIGHT SOLUTIONS, LLC ",PAAA-EKCU-JTCV,JEREMIAHC2013@GMAIL.COM,3107397925,SHAWNEE,74804,POTTAWATOMIE,processor, FORESIGHT SOLUTIONS
FRUIT OF LIFE LLC ,PAAA-4YNE-WZCH,INFO@FRUITOFLIFELABS.COM,4054389170,SHAWNEE,74804,POTTAWATOMIE,processor, FRUIT OF LIFE LABS
FS420-CB PROCESSING LLC ,PAAA-41VN-QYW0,PBAXTER1056@GMAIL.COM,4054349263,SHAWNEE,74801,POTTAWATOMIE,processor,
GARRETTS LAKE INDUSTRIES LLC ,PAAA-BKR3-49Y9,GARRETTSLAKEIND@GMAIL.COM,4054324346,SHAWNEE,74804,POTTAWATOMIE,processor,
"GROW PHARMACEUTICAL, LLC ",PAAA-D4QX-KMIN,NATHAN.HANKS1@GMAIL.COM,2814330522,SHAWNEE,74801,POTTAWATOMIE,processor," GROW PHARMACEUTICAL, LLC"
KIND GREEN BUD LLC ,PAAA-VYQH-H8KM,KINDGREENBUDEDIBLES@GMAIL.COM,4052643209,SHAWNEE,74804,POTTAWATOMIE,processor, KIND GREEN BUD LLC
MDK PROCESSOR LLC ,PAAA-PLTI-AOIW,CHANHNAM99@GMAIL.COM,4053237777,SHAWNEE,74801,POTTAWATOMIE,processor, MDK PROCESSOR LLC
MEDICINE WOMAN LLC ,PAAA-4JD2-V6TM,MWLLC18@GMAIL.COM,4056059133,SHAWNEE,74804,POTTAWATOMIE,processor, MEDICINE WOMAN LLC
OKLAHOMA PRODUCERS LLC ,PAAA-VKSG-TYCC,MIKE.OKPURE@GMAIL.COM,4053802480,SHAWNEE,74804,POTTAWATOMIE,processor, OKLAHOMA PURE
"PHARM+HOUSE, INC. ",PAAA-VKM6-I8LH,JAYNE@GRISSOMONLINE.COM,4052291369,SHAWNEE,74804,POTTAWATOMIE,processor, PHARM+HOUSE
"REDBUD PHARMACEUTICALS, LLC ",PAAA-E1U5-XEAO,INFO@REDBUDPHARMACEUTICALS.COM,4054129233,SHAWNEE,74804,POTTAWATOMIE,processor, REDBUD PHARMACEUTICALS
"RELAJATE, LLC ",PAAA-E5AM-L3RN,RSMAIL@SHAYALAW.COM,2487374440,SHAWNEE,74804,POTTAWATOMIE,processor," RELAJATE, LLC"
SANTANA SWEETZ LLC ,PAAA-VJZJ-WD4K,SHEILATAYLOR86@YAHOO.COM,4054582710,SHAWNEE,74804,POTTAWATOMIE,processor, SANTANA SWEETZ LLC
TEX LLC ,PAAA-41ZM-WD8E,TWITCHEXTRACTS@GMAIL.COM,4055096306,SHAWNEE,74801,OKLAHOMA,processor,
3D GROW PHARMS ,PAAA-NKH5-FXKJ,DEREKROMBERG@GMAIL.COM,4053612985,SHAWNEE,74804,POTTAWATOMIE,processor, 3D GROW PHARMS
"BLACK LABEL LABS, INC. ",PAAA-R4EJ-I3VQ,ERIC.WAGNER@WPW2.COM,7133014766,SKIATOOK,74070,OSAGE,processor, BLACK LABEL LABS
"CANNABIS TULSA GROUP, LLC ",PAAA-4JHH-BMWC,MICHAEL.BURWELL1@GMAIL.COM,9187243395,SKIATOOK,74070,OSAGE,processor, CANNABIS TULSA
CONEHEADS PROCESSING LLC ,PAAA-VYTH-COCO,CONEHEADSPREROLLS13@GMAIL.COM,9186299525,SKIATOOK,74070,OSAGE,processor,
HEAT LABS LLC ,PAAA-EFSX-G9M0,PHILLIPS.HEAT@GMAIL.COM,9185814166,SKIATOOK,74070,TULSA,processor,
"LOUD MEDICINE, LLC ",PAAA-4JZQ-9KTN,RICHARD@LOUDMEDS.COM,5038008222,SKIATOOK,74070,OSAGE,processor,
"MG&P RESOURCES, LLC ",PAAA-SZ7H-4OX6,MGPRESOURCESOK@GMAIL.COM,9183969006,SKIATOOK,74070,OSAGE,processor, OKLAHOMA CANNABIS WAREHOUSE
GANJA GIFTS LLC ,PAAA-JGJQ-NLZN,MONIQUE.MOORE92@HOTMAIL.COM,9189029010,SLICK,74071,CREEK,processor, GANJA GIFTS LLC
"BCR MANUFACTURING, LLC ",PAAA-VJVP-BLSP,JHBOGDAN@GMAIL.COM,9726728624,SOPER,74759,CHOCTAW,processor,
ROGER KENT THOMPSON ,PAAA-4JD1-IMH9,SALES@BLOOMCRAFTGARDENS.COM,6202529543,SOUTH COFFEYVILLE,74072,NOWATA,processor, BLOOMCRAFT GARDENS
JBC VENTURE LLC ,PAAA-4YL6-NJDD,KATY05292017@GMAIL.COM,4053237777,SPARKS,74869,POTTAWATOMIE,processor,
"D9 PROCESSING, LLC ",PAAA-E132-PGD7,WILLIAM.HARL.JR@GMAIL.COM,9184075125,SPAVINAW,74366,MAYES,processor,
EAGLE EYE SUPPLY LLC ,PAAA-4YUN-LTIR,NAJJAR.MARC@GMAIL.COM,3104041838,SPAVINAW,74366,MAYES,processor,
HIGH SOLUTIONS LLC ,PAAA-4JIA-YAHK,CORBORHONDA@YAHOO.COM,4052083687,SPENCER,73084,OKLAHOMA,processor,
MATCH DISPENSARY LLC ,PAAA-NSGO-4UZ9,CANNATECH405@GMAIL.COM,4052018463,SPENCER,73084,OKLAHOMA,processor, MATCH DISPENSARY LLC
MCGUIRE HOME GROWN LLC ,PAAA-EYEL-UQ6L,MCGUIREMMJ@OUTLOOK.COM,4052741119,SPENCER,73084,OKLAHOMA,processor,
SPENCER MANUFACTURING LLC ,PAAA-NPNK-G0HH,TRAVIS@SMOKEY-OKIES.COM,4057248112,SPENCER,73141,OKLAHOMA,processor, SMOKEY OKIES GROW OP
A PLUS MEDICAL LLC ,PAAA-VKH8-NPNT,TATTS877@GMAIL.COM,9186942488,SPERRY,74073,OSAGE,processor,
"CANNACOPEIA, LLC ",PAAA-NKUD-OJSG,BRANDON@CANNACOPEIAOK.COM,9183848165,SPERRY,74073,TULSA,processor," CANNACOPEIA, LLC"
GD CANNABIS PROCESSING LLC ,PAAA-PQG6-PQLJ,GARCIAGARCIARAFAEL17@GMAIL.COM,9182779129,SPERRY,74073,TULSA,processor, GD CANNABIS PROCESSING LLC
WANNA-DAB LABS INC. ,PAAA-DADM-M8L3,CHEEZ.C@GMAIL.COM,9187216279,SPERRY,74073,TULSA,processor, WANNA-DAB LABS
EL' NATURALE CANNABIS LLC ,PAAA-41HU-DJXW,ELNATURALELLC@GMAIL.COM,4796500553,SPIRO,74959,LE FLORE,processor,
"TRIPLE D PROCESSING, LLC ",PAAA-SZZN-HX8S,POSSUMFLATSFARM@GMAIL.COM,4798830627,SPIRO,74959,LE FLORE,processor,
TURP N PIKE LLC ,PAAA-RYWQ-NKNF,TERPNPIKE@GMAIL.COM,5802229096,SPRINGER,73458,CARTER,processor,
BLACKBARRY ESSENTIALS LLC ,PAAA-5VTU-ZJYH,ARBLEEZY@GMAIL.COM,3038980207,STIGLER,74462,PITTSBURG,processor, SMOKLAHOMA
NATIVE GARDENS GROW LLC ,PAAA-AKSX-FJQJ,BRITTANY@LITTLETONLEGAL.COM,9186081836,STIGLER,74462,HASKELL,processor,
"OWL CREEK CANNIBAS, LLC ",PAAA-AXU0-DIE4,OWLCREEKCANNABIS@GMAIL.COM,9184481427,STIGLER,74462,HASKELL,processor," OWL CREEK CANNIBAS, LLC"
OCEAN 9 GROW COMPANY LLC ,PAAA-DTA7-MOA3,TT6790607@GMAIL.COM,9186958183,STIGLER,74462,HASKELL,processor, OCEAN 9 GROW COMPANY LLC
AMORPHOUS LABS LLC ,PAAA-NYKF-0TQD,SALES@ROOFERSCHOICE.COM,4053388907,STILLWATER,74074,PAYNE,processor, AMORPHOUS LABS LLC
"BUFFALO BROTHERS BRANDS, LLC ",PAAA-VKJA-GEIZ,BUFFALOBROSBRANDS@GMAIL.COM,8165887830,STILLWATER,74075,PAYNE,processor, STARGAZER EDIBLES
"SOONER PURE, LLC ",PAAA-N1WL-NQ8U,RICHARD.ELY@ELFMFG.COM,9182691705,BIXBY,74008,TULSA,processor,
TOP FOODS LLC ,PAAA-NKN6-JYK4,TOPFOODSLLC@GMAIL.COM,5807540594,BIXBY,74008,TULSA,processor, TOP RELIEF AND TOP POT
420 DABZ LLC ,PAAA-N1KA-M5MP,420DABZSLABZ@GMAIL.COM,9187346902,BIXBY,74008,TULSA,processor, 420 DABZ
EAGLE FEATHER RESERVE LLC ,PAAA-PEAE-RSZX,KRISTI@EAGLEFEATHERRESERVE.COM,4057886535,BLACKWELL,74631,KAY,processor, EAGLE FEATHER RESERVE
HASHBROZ LLC ,PAAA-LEBN-ZPEP,HASHBROZSOLVENTLESS@GMAIL.COM,4053395451,BLACKWELL,74631,KAY,processor, HASHBROZ
"JK0528 INVESTMENTS, LLC ",PAAA-41BZ-AKPO,JFD711@GMAIL.COM,2488849254,BLACKWELL,74631,KAY,processor, CAPITAL DANK
LOST IN THE SAUCE COMPANY ,PAAA-EYUA-OHSI,DUANE@BIRDSBUDS.FARM,3166413609,BLACKWELL,74631,KAY,processor, LITSCO
"PIONEER PLANT PRODUCTIONS, LLC ",PAAA-7FXK-DRWQ,LEO_INIGUEZ@YAHOO.COM,5808300020,BLACKWELL,74631,KAY,processor, SPACE AGE EXTRACTIONS
ABERNATHY GREEN LLC ,PAAA-VOP8-MJLV,MATT@STACYLEGALGROUP.COM,4057353800,BLANCHARD,73010,MCCLAIN,processor, ABERNATHY GREEN LLC
BANANA RIVER HOLDINGS LLC ,PAAA-AU1E-CD12,MATT@STACYLEGALGROUP.COM,4057353800,BLANCHARD,73010,GRADY,processor, BANANA RIVER HOLDINGS LLC
BENCHEN LLC ,PAAA-ELHF-AEIR,MATT@STACYLEGALGROUP.COM,4058167228,BLANCHARD,73010,GRADY,processor, BENCHEN LLC
BENCHEN LLC ,PAAA-7TWM-H0QG,MATT@STACYLEGALGROUP.COM,4058167228,BLANCHARD,73010,GRADY,processor, BENCHEN LLC
BIRD DOG HOLDINGS LLC ,PAAA-PBTY-OZQI,MATT@STACYLEGALGROUP.COM,4057353800,BLANCHARD,73010,GRADY,processor, BIRD DOG HOLDINGS LLC
DOSE LLC ,PAAA-41JG-KK8Y,7POINTMINDS@GMAIL.COM,4254183566,BLANCHARD,73010,MCCLAIN,processor, 7 POINT MINDS
FJC CREATIONS LLC ,PAAA-NK6T-VNVP,EJFLEMING75@GMAIL.COM,4056275328,BLANCHARD,73010,MCCLAIN,processor, FJC CREATIONS
CHRONDEROSA CULTIVATION RANCH ,PAAA-L3OA-NBDE,CHRONDEROSARANCH@YAHOO.COM,4057147735,STILLWATER,74074,PAYNE,processor, CHRONDEROSA CULTIVATION RANCH
"DNS PROCESSING, LLC ",PAAA-4JOB-L1W8,FUEL.FARMS.OK@GMAIL.COM,5187963202,STILLWATER,74075,PAYNE,processor, NONE
"KABOSH KANNABIS CO., LLC ",PAAA-4KK0-FS5L,JIMBO@PATRIOTOK.COM,9187064369,STILLWATER,74075,WASHINGTON,processor, KABOSH KANNABIS CO.
"RODEN ENTERPRISES, L.L.C. ",PAAA-AXAD-B4IY,RODENENTERPRISES@GMAIL.COM,4057428007,STILLWATER,74074,PAYNE,processor," RODEN ENTERPRISES, L.L.C."
"SIMPLY GREEN EXTRACTS, LLC ",PAAA-N1K4-NRFY,WILL@LIVESGF.COM,4057621596,STILLWATER,74075,PAYNE,processor, SIMPLY GREEN EXTRACTS
SLAB LABZ LLC ,PAAA-E1GY-MM0I,INFO@DOCGREENSMMJ.COM,9703797083,STILLWATER,74074,PAYNE,processor, LAB LABZ
SMITH VALLEY LLC ,PAAA-E1AI-I1TV,MICHAEL_VALLI@HOTMAIL.COM,5806031129,STILLWATER,74074,PAYNE,processor,
SPENCE & CO. LLC ,PAAA-AHDS-CKJI,INFO@SPENCE-CO.COM,4052695778,STILLWATER,74074,PAYNE,processor,
"STILLWATER EXTRACTS, LLC ",PAAA-41SA-ZQDL,INFO@DOCGREENSMMJ.COM,9703797083,STILLWATER,74074,PAYNE,processor, SLAB LABZ II
7 POINT ENTERPRISES LLC ,PAAA-EYF5-FMXG,NDNEWBOLES@YAHOO.COM,4057427353,STILLWATER,74075,PAYNE,processor, GORILLA GARDENS
DANK DELICACIES LLC ,PAAA-N1U9-KPVU,SAM@THEBESTINOK.COM,4057590025,STILWELL,74960,ADAIR,processor,
DM AGRO LLC ,PAAA-MRUC-ZMFT,DMAGROLLC@GMAIL.COM,8479128792,STILWELL,74960,ADAIR,processor, DM AGRO LLC
LJN PROCESSING LLC ,PAAA-WRAO-4URE,LJNPROCESSING@GMAIL.COM,5393024562,STILWELL,74960,ADAIR,processor, LJN PROCESSING LLC
M&M MEDICINALS LLP ,PAAA-N1VL-JA6J,MMMEDICINALS2020@GMAIL.COM,9186963390,STILWELL,74960,ADAIR,processor, M&M MEDICINALS
MARITEQ PROCESSORS LLC ,PAAA-NYU9-6DNY,JBYARS@REDBIRDMMJ.COM,4794941800,STILWELL,74960,ADAIR,processor, REDBIRD BIOSCIENCE
"AZ GREEN, LLC ",PAAA-F1BW-0E7U,MATT@STACYLEGALGROUP.COM,4057353800,STONEWALL,74871,PONTOTOC,processor, AZ GREEN LLC
"SMASH LABS, LLC ",PAAA-VKQZ-10S8,SMASHLABSLLC@GMAIL.COM,5803996707,STONEWALL,74871,PONTOTOC,processor,
HOLISTIC HEIGHTS LLC ,PAAA-E1L2-DRG2,HOLISTICHEIGHTSLLC@GMAIL.COM,9185210341,STRANG,74367,MAYES,processor, NONE
KING HAPPY FARMS LLC ,PAAA-JZXW-LUNT,MATT@STACYLEGALGROUP.COM,4058167228,STRATFORD,74872,GARVIN,processor,
LIFE BOTANICS PROCESSING LLC ,PAAA-KJ67-HIJR,LIFEBOTANICSPROCESSING@GMAIL.COM,4058084403,STRATFORD,74872,GARVIN,processor,
S.A PHARMACY LLC ,PAAA-ZFPI-IAKM,AUSTINBLACK2424@GMAIL.COM,4053203157,STRATFORD,74872,GARVIN,processor, S.A PHARMACY
"SEA BISCUIT, LLC ",PAAA-NJT9-CQN4,FUEL.FARM.OK@GMAIL.COM,5187963202,STRATFORD,74872,MCCLAIN,processor, NONE
CONTE ENTERPRISE LLC ,PAAA-VJQU-FZPV,TCONTE79@YAHOO.COM,7025251635,STROUD,74079,CREEK,processor, CONTE ENTERPRISE LLC
"FOUR KINGS LABS, LLC ",PAAA-RJOF-H7KZ,ALANDRIASOV@GMAIL.COM,7027033888,STROUD,74079,CREEK,processor,
NESSIE ORGANICS LLC ,PAAA-4YIY-VC5Q,ENZYME23@GMAIL.COM,5129405005,STROUD,74079,LINCOLN,processor,
"DRCP PROCESSING, LLC ",PAAA-EJKG-QQZZ,FRED@PACE-CONSULTING.NET,9186290154,STUART,74570,HUGHES,processor," DANCING RABBIT CREEK PROVISIONING, LLC"
"SAVAGE MOUNTAIN CANNABIS COMPANY, LLC ",PAAA-EJD8-CJZR,SAVAGEMOUNTAINCC2020@GMAIL.COM,3187710479,STUART,74570,HUGHES,processor," SAVAGE MOUNTAIN CANNABIS COMPANY , LLC"
KNIGHT FARMS LLC ,PAAA-ZGSD-2JV1,KNIGHTFARMSLLC@GMAIL.COM,5806182774,SULPHUR,73086,MURRAY,processor,
TWO DOPE BOYS PROCESSING LLC ,PAAA-EYV9-XWDZ,STEVENJMCDONALD77@GMAIL.COM,5802475656,SULPHUR,73086,MURRAY,processor, MEDICAL MARIJUANA PROCESSOR
TKEXTRACTS ,PAAA-4KHG-J7FH,TKEXTRACTS@GMAIL.COM,5807291572,SWEETWATER,73666,ROGER MILLS,processor, TKEXTRACTS
ABM ASSOCIATES LLC ,PAAA-HEXD-GCRR,ABMASSOCIATESLLC@GMAIL.COM,9073511566,TAHLEQUAH,74464,CHEROKEE,processor, SABS
ANDREW BOWLIN ,PAAA-GHNZ-ZKRL,ANDYSCUSTOMCABINETS@GMAIL.COM,9182075749,TAHLEQUAH,74464,CHEROKEE,processor, GRANNYS  KITCHEN
B AND L PROCESSING LLC ,PAAA-NJDK-NCJY,BANDLNURSERY@GMAIL.COM,9185770454,TAHLEQUAH,74464,CHEROKEE,processor,
"BIG COUNTRY GREENS, LLC ",PAAA-WCAP-ZTWI,KARI_WILKERSON@YAHOO.COM,9188223696,TAHLEQUAH,74464,CHEROKEE,processor, BIG COUNTRY GREENS
"HILL TOP CANNABIS, LLC ",PAAA-VKHF-ZH8G,LOYDCOFFIA@YAHOO.COM,5593345274,TAHLEQUAH,74464,CHEROKEE,processor,
HUMBLEBEE PROCESSING LLC ,PAAA-PFDR-EMAI,HUMBLEBEEPROCESSINGLLC@GMAIL.COM,9182075065,TAHLEQUAH,74464,CHEROKEE,processor, HUMBLEBEE
"I AM CANNAVORE, LLC ",PAAA-4KJ2-OXFN,MN1177@COX.NET,9186406937,TAHLEQUAH,74464,CHEROKEE,processor,
LIMITLIS VENTURES LLC ,PAAA-VJ0H-7L18,JOESCHAEFER1979.JS@GMAIL.COM,8134081431,TAHLEQUAH,74464,CHEROKEE,processor,
MKL INDUSTRIES ,PAAA-V1QJ-G3CV,DVERETEN@GMAIL.COM,5618898390,TAHLEQUAH,74464,CHEROKEE,processor,
"NUGGIES, LLC ",PAAA-OEAG-SBMB,BURL@RIGHTONTIMEGROW.COM,9182079540,TAHLEQUAH,74464,CHEROKEE,processor, NONE
POTENT PROCESSING LLC ,PAAA-EK0T-WJC7,POTENTPROCESSINGLLC@GMAIL.COM,9189376353,TAHLEQUAH,74464,CHEROKEE,processor, POTENT PROCESSING LLC
"STEELY HOLLOW CANNABIS, LLC ",PAAA-XAFV-TPZK,STEELYHOLLOWCC@YAHOO.COM,9182075988,TAHLEQUAH,74464,CHEROKEE,processor," STEELY HOLLOW CANNABIS, LLC"
RELEAF MED PHARMS LLC ,PAAA-JXOW-TCKF,RELEAFMEDPHARMS@GMAIL.COM,9185000816,TALALA,74080,ROGERS,processor, RELEAF MED PHARMS
SMYLES FARMS OKIE EXTRACTS LLC ,PAAA-VYN3-GICM,OKIESMYLES@GMAIL.COM,5802752813,TALIHINA,74571,LATIMER,processor, OKIE SMYLES
CALIFORNIA GROWN CORPORATION ,PAAA-NYCZ-9V4W,CGFARMS37@GMAIL.COM,6199885857,TECUMSEH,74873,POTTAWATOMIE,processor,
"DOC FERGUSON, LLC ",PAAA-AMOS-XQIL,DOCFERGUSONLLC@GMAIL.COM,8303858381,TECUMSEH,74873,POTTAWATOMIE,processor, DOC FERGUSON
"FUNKY DUNKY FARMS, LLC ",PAAA-2Q2P-MX4A,AGGRESSIVETRANSPORTOK@YAHOO.COM,4058271113,TECUMSEH,74873,POTTAWATOMIE,processor,
GOLDEN LEAVES FARMS LLC ,PAAA-EJEW-YWQD,BRANDYHELM83@GMAIL.COM,4052485932,TECUMSEH,74873,POTTAWATOMIE,processor,
GREEN TREASURE LLC ,PAAA-9VKW-PYVF,MATT@STACYLEGALGROUP.COM,4058167532,TECUMSEH,74873,POTTAWATOMIE,processor,
HUANG GREEN LLC ,PAAA-XWFO-DPFI,MATT@STACYLEGALGROUP.COM,4057353800,TECUMSEH,74873,POTTAWATOMIE,processor,
"JOINT VENTURE HOLDINGS, LLC ",PAAA-NY7P-9U9I,JVHOLDINGS3@GMAIL.COM,4052192123,TECUMSEH,74873,POTTAWATOMIE,processor, HIGH ROLLER EXTRACTS
"JUSTUS FARMS, LLC ",PAAA-T5RT-5EFO,JUSTUSGROW@GMAIL.COM,4053430943,TECUMSEH,74873,POTTAWATOMIE,processor, NONE
MR.RELEAF LLC ,PAAA-NYC1-VUWU,STEVEN.MRRELEAF@YAHOO.COM,4059628867,TECUMSEH,74873,POTTAWATOMIE,processor,
SPERO LLC ,PAAA-NYX7-6VLG,GENE.ESTEP@AOL.COM,4058206099,TECUMSEH,74873,POTTAWATOMIE,processor, SPERO BOTANICALS
WILD WILLY'S FLOWER FARM INC. ,PAAA-E1IS-AWOD,KRISTIN_ZUMWALT@YAHOO.COM,4052877145,TECUMSEH,74873,POTTAWATOMIE,processor,
"OK-57 EXTRACTS, LLC ",PAAA-V1P7-XIDK,CARMAEJACKSON@GMAIL.COM,4059825966,TECUMSEH,74873,POTTAWATOMIE,processor, OK-57
KYMBERLY'S CONCOCTIONS CO. ,PAAA-00HG-NDOE,KYMBERLYSCONCOCTIONSCO@GMAIL.COM,9182450406,TERLTON,74081,PAWNEE,processor,
"BLUE LAKE LABORATORIES, LLC ",PAAA-BKKZ-8N3O,4HICKORYCREEK@GMAIL.COM,9404644700,THACKERVILLE,73459,LOVE,processor,
FRESH WATER FARMS LLC ,PAAA-E1FR-RNH7,FRESHWATEROKC@GMAIL.COM,8083486042,THACKERVILLE,73459,LOVE,processor, ST
LEFT-HANDED PARTNERS LLC ,PAAA-7EIX-EF3F,RON@URBANDEVNV.COM,8502599313,THACKERVILLE,73459,LOVE,processor, THE LEFT-HANDED PARTNERS
"MARTINA, LLC ",PAAA-IKGT-5N9Q,31BLUEPANDAS@GMAIL.COM,5805045466,THACKERVILLE,73459,LOVE,processor,
RED RIVER RANCH ,PAAA-R6DY-FZPD,RRRSHADE@AOL.COM,9406008870,THACKERVILLE,73459,LOVE,processor,
"EVERGREEN EVOLUTION OK, LLC ",PAAA-NK5X-VCOU,DANDERTON@CNCLLC.ORG,4695628720,TISHOMINGO,73460,JOHNSTON,processor, EVERGREEN EVOLUTION
EXTREME EXTRACTS LLC ,PAAA-PWJY-FJID,BRANDONFULLER321@GMAIL.COM,8178464686,TISHOMINGO,73460,JOHNSTON,processor,
"FIELD OF GREENS, LLC ",PAAA-V1ET-JMOK,RJOHNSON@CNCLLC.ORG,9564544142,TISHOMINGO,73460,JOHNSTON,processor, FIELD OF GREENS
"TEXOMA HERB COMPANY, LLC ",PAAA-NKO9-SGVH,DEBBIEBUCKNER@YAHOO.COM,9038213650,TISHOMINGO,73460,JOHNSTON,processor," TEXOMA HERB COMPANY, LLC"
"TEXOMA LABS, INC. ",PAAA-EYQM-MUMT,DARRIN@TEXOMALABS.COM,5802767360,TISHOMINGO,73460,JOHNSTON,processor, HIGH PLAINS
"SOUTH OF THE SALT FORK PROCESSORS, LLC ",PAAA-GMCW-RJBH,MMMLANDANDLIVESTOCK@GMAIL.COM,5807614678,TONKAWA,74653,KAY,processor,
"HERBAN PROCESSING, LLC ",PAAA-MKKA-8GL3,ARABRITO0788.AB@GMAIL.COM,4058218366,TRYON,74875,LINCOLN,processor, HERBAN PROCESSING
"HERBAN PROCESSING, LLC ",PAAA-VK6U-G9FS,BARRYGBRYANT@AOL.COM,4052055619,TRYON,74875,LINCOLN,processor, HERBAN PROCESSING
ABSOLUTE FLOWER FARM LLC ,PAAA-EYWP-MQWB,PAPPU926@GMAIL.COM,2017078705,TULSA,74145,TULSA,processor,
ACL PROCESSING LLC ,PAAA-EJ65-BS09,LISGARDENOK@GMAIL.COM,9528187981,TULSA,74119,TULSA,processor,
AKUI INDUSTRIES INC ,PAAA-E1HH-UP8I,AMY.K.FLYNN@AKUIINDUSTRIES.COM,4055198670,TULSA,74131,CREEK,processor, DA KINE PROCESSING
"ALS PROCESSING, LLC ",PAAA-4J7D-TDH1,ALGAG.OKLA@GMAIL.COM,9038149494,TULSA,74119,TULSA,processor,
AOK VENTURES INC ,PAAA-VYD2-FRZF,AOK@SUBLIMEOK.COM,5398672767,TULSA,74116,ROGERS,processor, SUBLIME OK
ARC SOLUTIONS LLC ,PAAA-EVY6-Z3CW,CAYASSO3@HOTMAIL.COM,9182306061,TULSA,74103,TULSA,processor,
ARGENT VENTURES INC. ,PAAA-EKMX-NQ5G,LASIARSHAD@GMAIL.COM,2813098908,TULSA,74112,TULSA,processor,
"BATES LABS, INC ",PAAA-NJDL-EGBS,DURBIN@DURBINLAWFIRM.NET,9188506357,TULSA,74112,TULSA,processor,
BEST DISPENSARIES LLC ,PAAA-E1BI-YGF4,CHICOHCC@GMAIL.COM,9182844295,TULSA,74112,TULSA,processor, BEST DISPENSARIES LLC
BISON EXTRACTS INC ,PAAA-4KW0-GFNQ,BSPILLMAN@COX.NET,9183461900,TULSA,74112,TULSA,processor,
BLACK PURPLE KUSH INC. ,PAAA-EYUT-ZORD,BLACKPURPLEKUSH@OUTLOOK.COM,9189510000,TULSA,74145,TULSA,processor, BLACK PURPLE KUSH
BLACK RAIN PROCESSING LLC ,PAAA-EKGM-VU8B,KATIE.MABREY@GMAIL.COM,9187045459,TULSA,74103,TULSA,processor, GLAZED EDIBLES
"BLUE WAVE LIFE, LLC ",PAAA-E144-30UQ,BLUEWAVELIFE@YAHOO.COM,9184091609,TULSA,74146,TULSA,processor,
BUILDABRICK LLC ,PAAA-EKJD-2XAL,DNICE121506@GMAIL.COM,9188138352,TULSA,74145,LATIMER,processor, PLANTATION
CANNA-OLOGY FARMS LLC ,PAAA-EYJL-ISVS,KAY.SACH01@GMAIL.COM,9175308757,TULSA,74145,TULSA,processor,
CHIEF FARMS PROCESSING LLC ,PAAA-N1VA-KUEG,HUNTERROCKWELL.BOOKING@GMAIL.COM,5103331586,TULSA,74131,CREEK,processor, CAKE CANNABIS
CJS CANNABIS JUNCTION LLC ,PAAA-NYMJ-AJCZ,CJ@CJSCANNABISMANAGEMENT.COM,9189982837,TULSA,74146,TULSA,processor," GOLDEN GORILLA, BS BUDS, COLT 45, EDIBLE,"
CROWN CANNABIS LTD ,PAAA-YJOX-LG4M,CFARMS313@GMAIL.COM,9187710648,TULSA,74129,TULSA,processor, CROWN CANNABIS LTD
DOK CORPROATION ,PAAA-EYBB-AYHD,DANKOFOKLAHOMADISPENSARY@GMAIL.COM,9188416275,TULSA,74112,TULSA,processor, DANK OF OKLAHOMA
EVERYTHING HERBS LLC ,PAAA-17RP-R7WT,CTERRYHOMES@GMAIL.COM,9188104630,TULSA,74145,TULSA,processor, EVERYTHING HERBS LLC
"F5 EXTRACT, LLC ",PAAA-4YBW-ZTXS,BONNIECALDWELL@F5IND.COM,5398671877,TULSA,74116,ROGERS,processor, CALYX EXTRACTS
"FLAZOK, LLC ",PAAA-E1CV-LGOL,RCHARLESWILKIN@GMAIL.COM,9186977803,TULSA,74110,TULSA,processor, K.I.N.D.  CONCENTRATES OK
"FLAZOK, LLC ",PAAA-N1VP-VSZ8,RCHARLESWILKIN@GMAIL.COM,9186977803,TULSA,74110,TULSA,processor," FLAZOK, LLC"
GH OKLAHOMA ,PAAA-41WL-8WZA,PAUL@METROPLEXGROUP.COM,9184090030,TULSA,74145,TULSA,processor, GH OKLAHOMA
GRASSFIRE LLC ,PAAA-POYB-TARD,DANS@MLFOK.COM,9186051052,TULSA,74116,ROGERS,processor, GRASSFIRE
GREEN COUNTRY PROCESSING LLC ,PAAA-N1RG-ZVKD,JS@QUICKCERT.ORG,9188524431,TULSA,74137,TULSA,processor,
"GREEN COUNTRY RESEARCH, INC. ",PAAA-XHX9-NIGD,GCRESEARCH.INC@GMAIL.COM,9188847551,TULSA,74107,TULSA,processor,
"GREEN LOVE TULSA, LLC ",PAAA-V1OK-A5DO,INFO@GREENLOVETULSA.COM,9182715665,TULSA,74116,TULSA,processor, GLT
GWP MEDICAL SUPPLY LLC ,PAAA-VYV9-9QUG,GREENWOODWELLNESSGROUP@GMAIL.COM,9186336811,TULSA,74106,TULSA,processor, GWP MEDICAL SUPPLY
"HELLAGOOD, LLC ",PAAA-X7J9-6WL5,ROB@LANDSCAPEANDSOD.COM,9187796180,TULSA,74112,TULSA,processor," HELLAGOOD, LLC"
HERB KANDY INC ,PAAA-HWQ6-ZJ3O,HERBKANDY@GMAIL.COM,9187403896,TULSA,74145,TULSA,processor, HERB KANDY
HERBAN LEGENDS PROCESSING LLC ,PAAA-VJEL-BINK,HERBAN.LEGEND.OK@GMAIL.COM,5304404065,TULSA,74119,TULSA,processor,
"HIGHER INTELLECT, LLC ",PAAA-VKSE-FVYQ,KIM.HIGHERINTELLECT@GMAIL.COM,9183817773,TULSA,74119,TULSA,processor, HIGHER INTELLECT
"JAS INVESTMENT GROUP, LLC ",PAAA-E161-LDJW,7LEAFLLC@GMAIL.COM,9186949741,TULSA,74112,TULSA,processor, 7 LEAF OKLAHOMA
KING OF WAX LLC ,PAAA-VJ0I-3DN1,LAUREL.LEE.INDUSTRIES.OK@GMAIL.COM,3109483877,TULSA,74119,TULSA,processor,
LEVEL UP CANNABIS COMPANY LLC ,PAAA-41GH-B8LE,TYLERNOBLES@GMAIL.COM,7706349917,TULSA,74120,TULSA,processor,
LOCAVORE EDIBLES LLC ,PAAA-VKIV-SDTD,CGROGG@GROGGSGREENBARN.COM,9182895654,TULSA,74105,TULSA,processor,
"M4THEM, LLC ",PAAA-4JN1-JUIE,MEDICINE4THEMASSES@GMAIL.COM,9187132303,TULSA,74115,TULSA,processor,
MONEY GROWS ON TREES INCORPORATED ,PAAA-415A-AALL,A_HERNANDEZ1@MSN.COM,9188991540,TULSA,74115,TULSA,processor, HIGH ROLLAZ
"MR. GREEN PLUS, INC ",PAAA-NYX8-8RL9,MATTHEW.BOYD36@YAHOO.COM,9185080687,TULSA,74107,TULSA,processor,
"NEXLEAF EXTRACTS, LLC ",PAAA-NY19-GWUV,NEXLEAF.OK@GMAIL.COM,3362104490,TULSA,74119,TULSA,processor,
"NKO PROCESSING, LLC ",PAAA-N1YN-3F1L,INFO@NATURESKISSMMJ.NET,9188942940,TULSA,74127,TULSA,processor, NATURE'S KISS
OKLAHOMA HONEY COMPANY LLC ,PAAA-NY5L-TAPH,TAMMYDONLEY1@GMAIL.COM,9186911151,TULSA,74120,TULSA,processor, TWISTED HIVE CO.
OKLAHOMA MEDICAL GROWERS LLC ,PAAA-NJQI-T5DD,DAVID.WEAVER@COX.NET,9182891053,TULSA,74110,TULSA,processor, OKLAHOMA MEDICAL GROWERS
"OKLAHOMA SWEET GRASS, LLC ",PAAA-412S-O9Y7,SMITHFIT2@YAHOO.COM,9182711603,TULSA,74145,TULSA,processor,
OKXLAB LLC ,PAAA-41QZ-BOTY,SEVENSTULSA@GMAIL.COM,9186397766,TULSA,74104,TULSA,processor, OKXLAB
ONE LOVE WELLNESS LLC ,PAAA-4YEP-2E7L,CEBALLOS.REINA@GMAIL.COM,9182403130,TULSA,74145,TULSA,processor,
"OTH, INC ",PAAA-NYZ8-IMRV,KENNY@XTREMEPESTMANAGEMENT.COM,9187242028,TULSA,74127,TULSA,processor,
PREMIER ALTERNATIVE MEDICAL LLC ,PAAA-4148-WP98,GBOLKS@YAHOO.COM,9186051243,TULSA,74145,TULSA,processor, OKLAHOMA PREMIER MEDICAL
PRIME LEAF LLC ,PAAA-E1YE-KI4V,RACURRY8721@GMAIL.COM,9182645807,TULSA,74146,TULSA,processor, PRIME LEAF
"PURE CRAFT FARMS, LLC ",PAAA-XYYQ-GNBU,THOMAS.ASKEW@BBISPORTSGROUP.COM,9186297555,TULSA,74131,CREEK,processor," PURE CRAFT FARMS, LLC"
"PURE PROCESSING, LLC ",PAAA-41HI-BSZW,DEDICATED.GROWERS.OK@GMAIL.COM,3052196312,TULSA,74119,TULSA,processor,
R&D GREEN GRASS CORPORATION ,PAAA-E1BU-NZE8,OKCGROW@YAHOO.COM,2544850894,TULSA,74107,TULSA,processor, MEDPOINT420 MIP TULSA
RED BUD ELIXIRS LLC ,PAAA-4JOF-T1DR,RLRICHMOND@COX.NET,9183460788,TULSA,74146,TULSA,processor, RED BUD ELIXIRS
RED BUD SQUEEZE LLC ,PAAA-EKTQ-QDH1,RED.BLUFF.FARM.OK@GMAIL.COM,4055702371,TULSA,74119,TULSA,processor,
RED FLOWER LLC ,PAAA-E1GM-JHCT,DPAYNE@SIPSCONSULTS.COM,2148621624,TULSA,74126,TULSA,processor, RED FLOWER
"RELIEF OPTIMIZED LEAF EXTRACTS, LLC ",PAAA-412Y-KFNE,JOPA@ROLEOK.COM,9183221330,TULSA,74127,TULSA,processor, R.O.L.E.
"REX'S REMEDIES, LLC ",PAAA-VK9F-MGAU,JAKEWAMILLER@GMAIL.COM,9186449939,TULSA,74146,TULSA,processor, REX'S REMEDIES
"RIDE INDUSTRIES, LLC ",PAAA-N2RX-UMCH,MALINDA@KOICBD.COM,5626504673,TULSA,74132,CREEK,processor,
ROBOT PHARMER LLC ,PAAA-NYKS-4ZWP,JOSHWHEAT@ROBOTPHARMER.COM,8172711339,TULSA,74120,TULSA,processor, RP PROCESSING
ROSEMARY FARMS LLC ,PAAA-EY6O-PH5B,ROSEMARYFARMSLLC@GMAIL.COM,9189064524,TULSA,74145,TULSA,processor, ROSEBUDS
"RYCO SOLUTIONS, LLC ",PAAA-NKAA-9S8N,SFINN@STASHHOUSEDISTRO.COM,9189603695,TULSA,74112,TULSA,processor, STASH HOUSE DISTRIBUTION
"SATIVA SAVVY, INC ",PAAA-4YKX-DWXX,SATIVASVY@GMAIL.COM,9182024760,TULSA,74120,TULSA,processor, SATIVA SAVVY
"SHEEPDOG VENTURES, LLC ",PAAA-EKDX-HKWD,JORDAN@HEADOFHONEY.COM,3036617476,TULSA,74131,CREEK,processor,
"SHERMAN GROVE, LLC ",PAAA-E1DU-IPIQ,ETTAKAYSMITH@YAHOO.COM,9186407343,TULSA,74131,TULSA,processor," SHERMAN GROVE, LLC"
SMOKERS PHARM LLC ,PAAA-N1LQ-QLKG,SMOKERDEPOT@GMAIL.COM,2104211978,TULSA,74145,TULSA,processor, SMOKER PHARM LLC
STONEPONY LLC ,PAAA-VJZI-JEYE,BROOKEH@NAMEPLATESUSA.COM,9186079600,TULSA,74120,TULSA,processor, STONEPONY LLC
"SUPERIOR EXTRACTION  COMPANY, LLC ",PAAA-VKTA-UP2J,SUPERIOR.OPERATING.COMPANY@GMAIL.COM,2103864038,TULSA,74119,TULSA,processor,
THE GREEN LION LLC ,PAAA-NKKF-BOND,GREENLIONMED@GMAIL.COM,9189241841,TULSA,74127,TULSA,processor, GREEN LION MED
THE HERBAN CULTURE LLC ,PAAA-MKN3-NII5,HERBANCULTURELLC@GMAIL.COM,2819000947,TULSA,74132,TULSA,processor, THE HERBAN CULTURE LLC
TJD NATURAL SUPPLEMENTS LLC ,PAAA-NJW4-B4LJ,DONNARUNDO@YAHOO.COM,9188304986,TULSA,74120,TULSA,processor, ENVIE  A CANNABIS BOUTIQUE
TULSA HERBAL CONNECTION LLC ,PAAA-EKRE-54OD,BONNIECALDWELL@F5IND.COM,9186051513,TULSA,74116,ROGERS,processor, F5 FARMS
"TULSA HIGH COUNTRY, LLC ",PAAA-NYW4-PHEM,JCANDERSON1978@YAHOO.COM,9186974242,TULSA,74145,TULSA,processor, TULSA HIGH COUNTRY
TUMBLEWEED OK PROCESSING LLC ,PAAA-NYRN-UV6C,RB.VENDING.OKLAHOMA@GMAIL.COM,9522377462,TULSA,74119,TULSA,processor,
"UKHAZE, LLC ",PAAA-V1UB-MTRB,UKPSYCH918@GMAIL.COM,9709217227,TULSA,74116,TULSA,processor,
"VVP NATURAL, LLC ",PAAA-EJDV-HOVR,BILL@VERDE420.COM,9406485263,TULSA,74112,TULSA,processor,
WECANN PROCESSING LLC ,PAAA-4KJ3-VDKU,TJB.SERVICES.OK@GMAIL.COM,9144716169,TULSA,74119,TULSA,processor,
WEST COAST CANNABIS PROCESSING LLC ,PAAA-VY7X-1OWZ,WEST.COAST.CANNABIS.OK@GMAIL.COM,2533708749,TULSA,74119,TULSA,processor,
"WHITE RABBIT MEDICINALS, LLC ",PAAA-VJHF-WFT7,RESPOND2US@HOTMAIL.COM,9185204126,TULSA,74107,TULSA,processor, WHITE RABBIT MEDICINALS
WHITEWATER HASH COMPANY LLC ,PAAA-4JRW-AYUY,TOM@WHITEWATERHASH.CO,9188567645,TULSA,74110,TULSA,processor, WHITEWATER HASH COMPANY LLC
FUNNY FARM LLC ,PAAA-E1Q4-QQYR,PIXELPERFECT4SEASONS@GMAIL.COM,7206309010,BLANCHARD,73010,OKLAHOMA,processor,
FUNNY FARM LLC ,PAAA-NJSN-HIJT,PIXELPERFECT4SEASONS@GMAIL.COM,7206309010,BLANCHARD,73010,GRADY,processor,
"GOLDEN HARVEST THT, LLC ",PAAA-4J5N-PJJS,MATT@STACYLEGALGROUP.COM,4058167228,BLANCHARD,73010,GRADY,processor,
"GREEN AND YELLOW, LLC ",PAAA-E1WA-VPY8,MATT@STACYLEGALGROUP.COM,4058167228,BLANCHARD,73010,GRADY,processor,
GREEN MOTAVATION INC ,PAAA-VYYJ-LHRU,GREENMOTAVATION@GMAIL.COM,4053715862,BLANCHARD,73010,MCCLAIN,processor, GREEN MOTAVATION INC
GREENACRES FARM GROUP LLC ,PAAA-UJKS-KGWW,MATT@STACYLEGALGROUP.COM,4058167532,BLANCHARD,73010,GRADY,processor, GREENACRES FARM GROUP LLC
"GUO GREEN, LLC ",PAAA-V12V-SPK8,MATT@STACYLEGALGROUP.COM,4058167228,BLANCHARD,73010,GRADY,processor, GUO GREEN LLC
GUYLETRAN GREEN LLC ,PAAA-9ZZA-NG9F,MATT@STACYLEGALGROUP.COM,4058167532,BLANCHARD,73010,GRADY,processor,
"HAO YUNG, LLC ",PAAA-4KJF-ILJI,MATT@STACYLEGALGROUP.COM,4058167228,BLANCHARD,73010,GRADY,processor,
"HGB ENTERPRISES, INC. ",PAAA-EYFE-YDH8,MATT@STACYLEGALGROUP.COM,4058167228,BLANCHARD,73010,MCCLAIN,processor,
HO VAN GREEN LLC ,PAAA-3EAT-GOMI,MATT@STACYLEGALGROUP.COM,4058167532,BLANCHARD,73010,GRADY,processor,
INTERCOASTAL RIVER HOLDINGS LLC ,PAAA-GLCQ-HEWD,MATT@STACYLEGALGROUP.COM,4057853800,BLANCHARD,73010,GRADY,processor, INTERCOASTAL RIVER HOLDINGS LLC
KTNL FOUR GREEN LLC ,PAAA-483V-HMJT,MATT@STACYLEGALGROUP.COM,4058167532,BLANCHARD,73010,MCCLAIN,processor,
"LE QIAN GREEN, LLC ",PAAA-V1Z3-V4IU,MATT@STACYLEGALGROUP.COM,4058167228,BLANCHARD,73010,GRADY,processor, LE QIAN GREEN LLC
"MAY MY TREE, LLC ",PAAA-EYS9-XFJR,MATT@STACYLEGALGROUP.COM,4058167228,BLANCHARD,73010,GRADY,processor,
"WILLIAM OVERLOOK, INC. ",PAAA-EJBO-1RWD,TULSADISPENSARY3@GMAIL.COM,9182314618,TULSA,74146,TULSA,processor,
"WUANA,INC. ",PAAA-VYIQ-SO88,ROXANE@WUANAOK.COM,9185085530,TULSA,74112,TULSA,processor, WUANA
YUM COOKIES LLC ,PAAA-WOUZ-1RCC,YUMCOOKIESBYSTEPH@YAHOO.COM,9186296636,TULSA,74145,TULSA,processor, YUM COOKIES LLC
5 LEAF LAB LLC ,PAAA-NJEI-QMSY,LEON@5LEAFLAB.COM,9187065336,TULSA,74112,TULSA,processor, 5 LEAF LAB
710 TULSA LLC ,PAAA-VYRS-MF2Q,ANJELICA@PURACC.COM,9188562411,TULSA,74145,TULSA,processor, 710 TULSA
918 BUDS MEDICAL MARIJUNA PROCESSOR LLC ,PAAA-N1JL-CGTL,BUDS918PROCESSOR@YAHOO.COM,9183135764,TULSA,74126,TULSA,processor,
"918 CONCENTRATES, INC. ",PAAA-NJ3K-LWA0,918CONCENTRATES@GMAIL.COM,9188096571,TULSA,74145,TULSA,processor," 918 CONCENTRATES, INC."
MEDVILLE PHARM CORPORATION ,PAAA-419N-BEHW,INFO@MEDVILLEPHARM.COM,4056949343,TUTTLE,73089,GRADY,processor, MEDVILLE
PARAGON EXTRACTS INC. ,PAAA-VYX6-QCHO,JDEDMON.CBD@GMAIL.COM,4052228658,TUTTLE,73089,GRADY,processor, PARAGON EXTRACTS INC.
JOHN MILANOSKI ,PAAA-7BC7-B6NK,JOHNMILANDRED@YAHOO.COM,5802369066,VALLIANT,74764,CHOCTAW,processor, FUTURE EXTRACTS
"HILLBILLY HARVEST, LLC ",PAAA-6XMJ-NBYV,WTMIH@AOL.COM,9184131769,VIAN,74962,SEQUOYAH,processor, HILLBILLY HARVEST
"REGAL CANNABIS, LLC. ",PAAA-N2EX-DZMJ,THEREGALCANNABIS@GMAIL.COM,7202017655,VIAN,74962,SEQUOYAH,processor, REGAL CANNABIS
SUNSET REMEDIES ,PAAA-NKMC-MLPU,BDMSUNSET@GMAIL.COM,9183151462,VIAN,74962,SEQUOYAH,processor, SUNSET REMEDIES INC
SKANK MONKEY PHARMS ,PAAA-41WP-GAMD,SKANKMONKEY42020@YAHOO.COM,9184180294,VINITA,74301,CRAIG,processor, SKANK MONKEY
"UNFORGEDIBLES, LLC ",PAAA-EJD4-BOTF,UNFORGEDIBLESOK@GMAIL.COM,9187828692,VINITA,74301,MAYES,processor, UNFORGEDIBLES
"WIGHT RABBIT EXTRACTS, LLP ",PAAA-EK5M-GMRU,AMY@MEDIAOUTBREAK.COM,3173638879,VINITA,74301,CRAIG,processor,
"THC THE HEALING COMPANY, LLC ",PAAA-EKRC-XBUR,BILLY@CELAWNEQUIPMENT.COM,5805912966,WALTERS,73572,COTTON,processor," THC THE HEALING COMPANY,LLC"
"CANNABIS & OILS PROCESSING, LLC ",PAAA-KXMT-O6T7,DANNYINTHISANE@GMAIL.COM,5095671678,WANETTE,74878,CLEVELAND,processor, CANNABIS & OILS
"GLC PROCESSING, LLC ",PAAA-N17X-4GAZ,INFO@GREENLEAFCANNACO.COM,4052494675,WANETTE,74878,POTTAWATOMIE,processor, OPC EXTRACTS
"JAKE'S JUNGLE, INC. ",PAAA-EJIW-DZRP,HMERCHEN@GMAIL.COM,4058344007,WANETTE,74878,POTTAWATOMIE,processor, BUSYBEE710
ORGANIC INNOVATIONS LLC ,PAAA-STO6-LPTF,TUNA@ORGANIC-OK.COM,4694718844,WAPANUCKA,73461,JOHNSTON,processor,
"PHARMASIS, LLC ",PAAA-5B0I-QBRY,CRYSTALHART82@GMAIL.COM,4797396931,WARNER,74469,MUSKOGEE,processor," PHARMASIS, LLC"
DUNDER MIFFLIN LLC ,PAAA-EKGN-46DI,SHANESHRIVER@YAHOO.COM,7194332156,WASHINGTON,73093,OKLAHOMA,processor, ENHANCED CONDITION
NATURAL HEALING FARMS LLC ,PAAA-EYC4-SSAA,SCOTT@247SPLICING.COM,4052299530,WASHINGTON,73093,MCCLAIN,processor, NATURAL HEALING FARMS
DEFINING HEALTH LLC ,PAAA-K16T-UHRC,DANNY@DANNYNICHOLS.COM,4054108239,WATONGA,73772,BLAINE,processor, DEFINING HEALTH LLC
"RED-TAIL EXTRACTS, LLC ",PAAA-NJDV-7PB7,RUSSIN.ROBERT@GMAIL.COM,4053435905,WATONGA,73772,OKLAHOMA,processor,
SWEET EXTRACTS BAKING CO ,PAAA-EK93-A7FJ,SWEETEXTRACTSBAKINGCO@GMAIL.COM,5805152505,WATONGA,73772,BLAINE,processor, SWEET EXTRACTS
ZQING GREEN LLC ,PAAA-6RO3-3C4E,MATT@STACYLEGALGROUP.COM,4058167532,WAURIKA,73573,JEFFERSON,processor,
KUSH CRAFTED L.L.C. ,PAAA-VKOS-11D7,CHEATWODCASEY@YAHOO.COM,4058302044,WAYNE,73095,MCCLAIN,processor, KUSH CRAFTED
REFINED CANNABINOIDS ,PAAA-VY8V-GST8,REFINEDCANNABINOIDS@YAHOO.COM,4058026425,WAYNE,73095,MCCLAIN,processor,
BUDWEEDZARD PROCESS LLC ,PAAA-NKQR-ZOFN,WILSON@BUDWEEDZARD.COM,2069103089,WEATHERFORD,73096,CUSTER,processor, BUDWEEDZARD PROCESS LLC
"SOLVENTLESS EXTRACTS, LLC ",PAAA-QCBN-YPCQ,CHRIS@SOLVENTLESSEXTRACTS.CO,9184242507,WEATHERFORD,73096,CUSTER,processor,
"TALKING HEADZ PRO-OP, LLC ",PAAA-EKKU-BTAI,MARCUS_WRIGHT@LIVE.COM,5808190826,WEATHERFORD,73096,CUSTER,processor,
GREAT PLAINS CANNASEUR PRODUCTS LLC ,PAAA-YAK7-4LSK,CALI.OK.GROUP@GMAIL.COM,4796506586,WEBBERS FALLS,74470,MUSKOGEE,processor,
"LOGAN PROCESSING, LLC ",PAAA-GBEL-SWGS,LOGAN.ENTERTAINMENT.OK@GMAIL.COM,7206297966,WEBBERS FALLS,74470,MUSKOGEE,processor,
"OKLAHOMA ALPHA PROCESSING, LLC ",PAAA-HWEX-9G4I,OKLA.ALPHA@GMAIL.COM,7206297966,WEBBERS FALLS,74470,MUSKOGEE,processor,
ALTERNACARE MEDICAL CANNABIS ,PAAA-EYQU-QKUB,ALTERNACAREMC@GMAIL.COM,9189440917,WELCH,74369,CRAIG,processor, ALTERNACARE MEDICAL CANNABIS
"GREEN COUNTRY AGRICULTURE, LLC ",PAAA-EYID-2I3K,CRAZYDOGLLC@GMAIL.COM,4793663783,WELLING,74471,CHEROKEE,processor, YETI FARMS
THIRD STATE LLC ,PAAA-E16B-9Q8I,JESSICA@BAKERSBRANDS.COM,7074998587,WELLSTON,74881,LINCOLN,processor, BAKERS EXTRACTS
XINGJIN LI ,PAAA-V1HY-CY1U,MATT@STACYLEGALGROUP.COM,4058167228,WELLSTON,74881,LINCOLN,processor,
"BONES BAKED, LLC ",PAAA-EJD5-NUIK,BRANDYMCMILLAN@LIVE.COM,2172943501,WESTVILLE,74965,ADAIR,processor, B2
"CRYSTAL CREEKS FARM, LLC ",PAAA-TYXZ-ITGR,CRYSTALCREEKSFARM@USA.COM,9184410903,WESTVILLE,74965,ADAIR,processor," CRYSTAL CREEKS FARM, LLC"
"BACK 40 INVESTMENTS, LLC ",PAAA-5KIN-O2G3,BROKENEGGLLC@GMAIL.COM,9189300301,WESTVILLE,74965,ADAIR,processor,
STRESS RELEAF EXTRACT CORPORATION ,PAAA-NK5Z-RFND,STRESSRELEAFEXTRACT@GMAIL.COM,4058331509,WETUMKA,74883,HUGHES,processor,
MELLOW FARMS LLC ,PAAA-EKKF-T30O,JIMMYNEWMAN3@AOL.COM,4056831511,WEWOKA,74884,SEMINOLE,processor,
"UNDERCOVER AG 2, LLC ",PAAA-NY1D-XFBH,DANDMULLER@HOTMAIL.COM,7127892999,WEWOKA,74884,SEMINOLE,processor," UNDERCOVER AG 2, LLC"
ALTERNATIVE AG LLC ,PAAA-4KPQ-IAY7,DLLIVELY2009@GMAIL.COM,9187216825,WILBURTON,74578,LATIMER,processor, 2A
BRAVO ORGANICS ,PAAA-5LJP-0LVR,BRAVOORGANICS@GMAIL.COM,9184486694,WILBURTON,74578,LATIMER,processor, BRAVO ORGANICS
PPK INVESTMENT GROUP ,PAAA-V1IK-GEG8,RALPHPYATT@HUGHES.NET,9184653202,WILBURTON,74578,LATIMER,processor, COUNTRY CANNABIS
WILD ROOTS PROCESSING LLC ,PAAA-5BX3-O22K,DEANNA.DOWNING42@GMAIL.COM,9184135653,WILBURTON,74578,LATIMER,processor,
CAMEO GOLD LLC ,PAAA-2GP9-KGOB,CAMEOGOLD2021@HOTMAIL.COM,5806681055,WILSON,73463,CARTER,processor, CAMEO GOLD LLC
CROWN RELEAF LABS LLC ,PAAA-ZZ1F-R7KW,CROWNRELEAFLABS@YAHOO.COM,5807986184,WILSON,73463,CARTER,processor, CROWN RELEAF LABS
GREEN CANOPY LLC ,PAAA-NYXQ-HGIE,MDD134@GMAIL.COM,5804472525,WILSON,73463,CARTER,processor, GREEN CANOPY LLC.
GREEN FLOWER TREATS LLC ,PAAA-4Y4S-IGWB,GREENFLOWERTREATS@GMAIL.COM,5804656140,WILSON,73463,CARTER,processor, GREEN FLOWER TREATS
HIGH MAINTENANCE CONNECTION LLC ,PAAA-SUTU-IVKG,CRYSTAL@HIGHMAINTENANCE-OK.COM,5809166481,WILSON,73463,CARTER,processor, HIGH MAINTENANCE
SOUTH CENTRAL HYDROPONICS LLC ,PAAA-AD2H-ETFO,SOUTHCENTRALHYDRO@GMAIL.COM,5804654498,WILSON,73463,CARTER,processor, SC HYDRO
STRAIGHT GAS INC. ,PAAA-X8VG-OFNF,NEWTIGER452@GMAIL.COM,6266260337,WILSON,73463,CARTER,processor, STRAIGHT GAS INC.
ONE PLANT ESSENTIALS LLC ,PAAA-V1JN-GWLT,OPE.HEALTH@OUTLOOK.COM,4056506068,WOODWARD,73801,WOODWARD,processor, ONE PLANT ESSENTIALS LLC
"RED DIRT NURSERY, LLC ",PAAA-XAED-X2ZY,REDDIRTNURSERYLLC@HOTMAIL.COM,5802168565,WOODWARD,73801,WOODWARD,processor, RED DIRT NURSERY
WOOTOWN VAPES LLC ,PAAA-4Y1R-E4NH,WOOTOWNVAPES@HOTMAIL.COM,4054353455,WOODWARD,73801,WOODWARD,processor, WOOTOWN MD
1252 ORGANICS LLC ,PAAA-4YHW-P8UR,TREYABURKHART@GMAIL.COM,4176215930,WYANDOTTE,74370,OTTAWA,processor,
CANNABIS THERAPEUTICS LLC ,PAAA-V1CD-DEP6,BOB1684@YAHOO.COM,5806187241,WYNNEWOOD,73098,GARVIN,processor, CANNABIS THERAPEUTICS
"ELITE CULTIVATION, LLC ",PAAA-4YTE-5X9W,RICHARD@ELITEMOTORSPORTSLLC.COM,4056402366,WYNNEWOOD,73098,GARVIN,processor,
LAMA GREEN LLC ,PAAA-HH49-JUIW,MATT@STACYLEGALGROUP.COM,4058167532,WYNNEWOOD,73098,GARVIN,processor,
MILE HIGH LABS LLC ,PAAA-YY7L-BBN6,MILEHIGHLABS710@GMAIL.COM,5806183793,WYNNEWOOD,73098,GARVIN,processor, MILE HIGH LABS
"SIRIUS PROCESSORS, LLC ",PAAA-MEY9-JILW,INFO@SIRIUSGROWERS.COM,4059966983,WYNNEWOOD,73098,GARVIN,processor,
CANNAVIBE INC ,PAAA-NYNN-O2VD,MATT@STACYLEGALGROUP.COM,4058167228,YUKON,73099,CANADIAN,processor,
"CENTRAL SCIENTIFIC PROCESS, LLC ",PAAA-4YE0-VGFV,JOSH.THOMAS@THOMASGROWERS.COM,4056152495,YUKON,73099,OKLAHOMA,processor,
"HMP ENTERPRISES, LLC ",PAAA-4JZ4-X1KB,HMPPROCESSING@GMAIL.COM,4057062920,YUKON,73099,CANADIAN,processor, HAPPY HOUR
KIND VINE FARMS LLC ,PAAA-53J5-EMPW,MATT@STACYLEGALGROUP.COM,4058167532,YUKON,73010,GRADY,processor,
ROYAL CANNABIS COMPANY LLC ,PAAA-VH0X-MSTY,SDAILEY@ROYALCANNABISFARMS.COM,9188122430.0,KINTA,74552,HASKELL,processor, ROYAL CANNABIS COMPANY LLC
"COMPLEX EXTRACTS, LLC ",PAAA-VKIN-J9HP,TOMSCHOTTS@GMAIL.COM,9282342525.0,KONAWA,74849,SEMINOLE,processor,
"NANA'S PROCESSING, LLC ",PAAA-QFYY-PYCF,LORISTAGGS@YAHOO.COM,9184248178.0,KREBS,74554,PITTSBURG,processor," NANA'S PROCESSING, LLC"
CANNABIS 31 ,PAAA-VKKH-3K1N,WEEDSHACK270@GMAIL.COM,9183180348.0,KREBS,74554,PITTSBURG,processor, CANNABIS 31
420 EXTRACT LLC ,PAAA-NKWG-YHMU,CHELSIEK_1985@YAHOO.COM,9184245249.0,KREBS,74554,PITTSBURG,processor,
CALI-PURE LLC ,PAAA-NYM7-9NUN,RICHHOGFARM@GMAIL.COM,4059197857.0,LAMAR,74850,HUGHES,processor, DAB DADDY
"CORPORATION ASSET NETWORK ASSOCIATION, LLC ",PAAA-V1LV-84X8,JLRISMAN@SBCGLOBAL.NET,9185275742.0,LANGELY,74350,MAYES,processor, MINERVA CANNA
CANNATOPIA LLC ,PAAA-VKLG-YZO4,MLGRAMM@SPEEDYS66.COM,9187244015.0,LANGLEY,74350,MAYES,processor, CANNATOPIA
30M VENTURES LLC ,PAAA-NJPX-DSX2,TEAM@TULSAHOUSEOFFIRE.COM,4242024837.0,LANGLEY,74350,MAYES,processor, 30M VENTURES LLC
ANH WALKER ,PAAA-EYB4-AJTP,INFO@BLOOMSINDUSTRY.COM,5805833035.0,LAWTON,73505,COMANCHE,processor, BLOOMS INDUSTRY
BELLA VISTA COLLECTIVE LLC ,PAAA-JNQT-7FG2,GATORS4EVER08@YAHOO.COM,5807042797.0,LAWTON,73501,COMANCHE,processor, BELLA VISTA COLLECTIVE LLC
BUD HUT MD INC. ,PAAA-4JFV-WFHV,INFO@BUDHUTMD.COM,4052138801.0,LAWTON,73501,COMANCHE,processor, BUD HUT PROCESSING
FLUFFYS APOTHECARY INC. ,PAAA-4JRY-AGGT,KLM@FLUFFYISOK.COM,5802500322.0,LAWTON,73505,COMANCHE,processor, FLUFFY'S APOTHECARY
"FPC GROUP, LLC ",PAAA-4JTU-YSMH,JEFF@SEE3FARMS.COM,4695768207.0,LAWTON,73501,COMANCHE,processor, VERTICAL VIBEZ
